Nom,Adresse,Téléphone,Code Postal,lat,lon
1000 et une proprietes	181 rue de la pompe  75116 paris	01 47 27 20 96	75116	48.870962	2.283251
110 immo	110 route de corbeil  91360 villemoisson	01 69 51 30 30	91360	48.653808	2.337884
123 visite	8 chemin des genets  31120 portet sur garonne	05 61 56 21 85	31120	43.535253	1.404741
123webimmo.com	16 rue saint philippe  06000 nice	06 14 73 06 06	6300	43.695318	7.255244
12eme avenue sarl	90 avenue de saint mande  75012 paris 12ème	01 44 75 31 80	75012	48.844415	2.406271
17ème etoile immobilier	37 rue laugier  75017 paris	01 43 80 60 80	75017	48.88181	2.294838
18 marignan	18 rue de marignan   75008 paris 8ème	01 42 56 70 72	75008	48.869106	2.306578
2beapart	25 av de wagram  75017 paris 17ème	01 55 30 04 31	75017	48.876228	2.296548
2c2i - agence du gros caillou	14 rue augereau  75007 paris 7ème	0145559853 / /0679881638	75007	48.857309	2.301975
2p-i paris planète immobilier	58 rue cherche midi  75006 paris	01 45 44 46 44	75006	48.848862	2.325058
3 2 1  international	24 rue louis blanc  75010 paris	01 45 80 73 32	75010	48.88059	2.36622
3 mell real estate	65 67 rue du faubourg st honore  75008 paris 8ème	01 40 07 90 55	75008	48.871351	2.315395
4%  immobilier	13 rue du vieux marche  45000 orleans	02 38 42 29 29	45000	47.898978	1.903162
4%max	54 56 av general leclerc  92513 boulogne billancourt cedex	01 46 03 50 50	92350	48.782851	2.263509
7eme avenue	2 place de la republique  89350 champignelles	03 86 45 17 80	89350	47.779396	3.073039
A 2 a	33 rue marbeuf  75008 paris	01 46 22 66 55	75008	48.869421	2.304829
A beucher immobilier	13 rue de bellefond  75009 paris 9ème	01 45 26 84 19	75009	48.877619	2.347814
A demeure	63 bd rodin  92130 issy les moulineaux	01 46 62 01 84	92130	48.819358	2.25974
A et v immobilier	43 rue claude bernard  75005 paris	01 55 43 26 26	75005	48.840115	2.3462
A m i s	1 rue bapst92600 asnieres	01 47 90 90 10	92600	48.908321	2.284909
A&a immobilier - axo et actifs	9 rue de pointe a pitre  85530 la bruffiere	02 41 39 10 00	85530	47.017414	-1.198704
A&a transactions immobilieres internationales	37 rue de chezy  92200 neuilly sur seine	01 46 37 14 69	92200	48.887342	2.270362
A-part' agence immobilière	63 rue du montparnasse  75014 paris	01 43 21 91 71	75014	48.841817	2.325441
A. b. f eurimmo	18 rue du pont aux choux  75003 paris	01 42 77 78 00	75003	48.86129	2.365179
A.c.k. feeling international immobilier	83 rue michel ange 75016 paris	01 45 27 41 01	75016	48.841367	2.258932
A.c.s. immo	4 rue jeanne gleuzer  92700 colombes	01 47 84 55 20	92700	48.915004	2.229938
A.c.t. - actual conseil transactions	25 rue carnot  92150 suresnes	01 46 03 18 33	92150	48.872358	2.225706
A.i.t.	37 avenue paul doumer  75016 paris	01 45 03 33 85	75016	48.860623	2.282527
A.immo50	50 bouvelvard saint marcel  75005 paris 5ème	01 71 19 70 90	75005	48.83856	2.35679
A.l.g immo	67 rue la boetie  75008 paris	06 62 42 99 55	75008	48.872915	2.311289
A.m.i.p.	75 avenue parmentier  75011 paris 11ème	06 07 03 19 59	75011	48.864492	2.374945
A.v immobilier	237 rue jules bertaut 97430 le tampon	02 62 27 10 00	97418	-21.27967	55.518146
A.v.c.o.	14 rue du general bertrand  75007 paris	06 10 49 35 16	75007	48.847844	2.313145
A1 paris apartments	6 rue des bernardins 75005 paris 5ème	06 83 45 09 33	75005	48.850745	2.350991
Aaa - cabinet thisse paris 15	18 rue mademoiselle  75015 paris	01 53 68 67 67	75015	48.843553	2.295439
Aaa - cabinet thisse paris 16	21 rue jean de la fontaine  75016 paris 16ème	01 42 88 20 00	75016	48.851524	2.273387
Aaz le partenariat immobilier	174 impasse du mas argelliers  34000 montpellier	06 03 01 97 12	34090	43.589665	3.889364
Ab conseils	21 ave mozart  75016 paris	01 45 24 70 10	75016	48.856796	2.272419
Ab home immobilier	275 277 boulevard voltaire  75011 paris	01 46 59 46 59	75011	48.84961	2.394266
Ab immobiliere	2 rue decamps  75016 paris 16ème	01 47 27 01 01	75016	48.865364	2.282851
Abadson	21 rue cronstadt  75015 paris	01 48 28 63 46	75015	48.834225	2.302039
Abagestim	5 rue cognacq jay  75007 paris 7ème	01 56 07 19 27	75007	48.861662	2.304663
Abahit immobilier	9 rue letort  75018 paris	01 55 79 01 02	75018	48.894049	2.342971
Abberley saint honore	97 rue saint honoré 75001 paris	01 40 26 50 00	75001	48.861304	2.343102
Abc immobilier	60/62 rue raymond du temple 94300 vincennes	01 48 08 20 00	94300	48.846651	2.438317
Abh partners	110 rue reaumur 75002 paris	01 55 80 01 62	75002	48.867555	2.346866
Abh partners	2 place du general leclerc 94160 st mande	01 43 65 99 99	94160	48.846047	2.418107
Abm immobilier	9 rue charles et rené auffray  92110 clichy	01 55 90 28 50	92110	48.902038	2.303931
Abm immobilier	111 avenue victor hugo 75784 paris cedex 16	01 40 12 66 53	75116	48.868516	2.282913
Absolu plus immobilier	17 rue augereau  75007 paris 7ème	01 45 57 03 91	75007	48.857044	2.302285
Absolutely parisian	6 rue ernest cresson  75014 paris 14ème	09 81 13 15 25	75014	48.832469	2.330085
Acces immo	4 avenue trudaine  75009 paris	01 45 26 60 60	75009	48.881958	2.345907
Acg de clarens	16 bd des batignolles  75017 paris	01 44 90 07 00	75017	48.883352	2.325625
Ach immobilier	21 rue de picpus  75012 paris	06 98 13 03 00	75012	48.846284	2.394556
Acheter immo	3 rue henri ribiere 75019 paris	01 42 02 02 04	75019	48.876337	2.395023
Aci immobilier	5 avenue jean jaures 75019 paris 19ème	01 40 40 02 00	75019	48.883264	2.371485
Acopa	77 boulevard barbes  75018 paris	01 42 51 27 27	75018	48.891315	2.34941
Acopa	19 rue damremont  75018 paris 18ème	01 53 09 33 88	75018	48.888647	2.333054
Acopa immobilier	108 rue ordener  75018 paris	01 42 51 10 60	75018	48.893138	2.340719
Acp conseil immobilier	127 rue du ranelagh  75016 paris  16ème	06 13 54 07 69	75016	48.856136	2.267734
Acquerir	51 rue caulaincourt  75018 paris	01 46 06 16 36	75018	48.889302	2.334629
Acr expert	32 rue  le peletier  75009 paris 9ème	01 42 46 34 24	75009	48.87449	2.339381
Actea	26 avenue bugeaud  75016 paris	01 53 70 60 40	75016	48.870544	2.281678
Actia conseil	53 rue blanche  75009 paris 9ème	01 53 20 01 80	75009	48.881222	2.331498
Actibail- gimo	20 rue du pont neuf  75001 paris 1er	01 42 74 26 44	75001	48.860561	2.344651
Actif immobilier	79 rue daguerre  75014 paris 14ème	01 56 54 38 50	75014	48.835584	2.325043
Actif immobilier	8b allee de l'orme a martin  91080 courcouronnes	01 69 13 05 21	91080	48.630557	2.414351
Actifs c.immobilier	10 rue de l'isly  75008 paris 8ème	01 56 03 97 07	75008	48.874849	2.325402
Actio vmr	46 av de suffren  75015 paris 15ème	01 43 06 98 27	75015	48.853696	2.296689
Action investissement immobilier	39 rue doct roux  75015 paris	01 45 67 05 19	75015	48.839593	2.309798
Action west	15 avenue leonard de vinci  92400 courbevoie	01 46 67 99 44	92400	48.896579	2.235783
Activimo	50 rue de babylone  75007 paris	01 53 59 58 18	75007	48.85177	2.31816
Actua immobilier (sarl)	26 rue de la butte aux cailles  75013 paris	01 44 16 88 88	75013	48.827769	2.350003
Actual investissement	76 avenue de wagram  75017 paris	01 47 63 02 02	75017	48.880632	2.300251
Actuel	75 rue la fayette  75009 paris	01 42 80 55 59	75009	48.876364	2.345422
Actuel immobilier	87 rue de gergovie  75014 paris	01 45 45 30 30	75014	48.830755	2.319235
Ad immobilier gestion	26 rue benard 75014 paris	01 45 42 44 13	75014	48.831738	2.32227
Ad valorem	24 rue des capucines  75002 paris	01 42 60 01 00	75002	48.869652	2.328485
Ad valorem bureaux	24 rue des capucines  75002 paris 2ème	01 57 44 57 88	75002	48.869652	2.328485
Adb gestion et patrimoine	127 rue falguiere  75015 paris	01 42 73 73 90	75015	48.837273	2.310947
Ader immobilier paris	199 boulevard pereire  75017 paris 17ème	01 53 96 00 00	75017	48.881378	2.291068
Adhocimmo	15 rue adrien damalix bp 38 94411 st maurice	01 43 96 53 49	94410	48.821535	2.421865
Administra	13 avenue corentin cariou  75019 paris	01 40 36 34 19	75019	48.895614	2.382931
Adopt immo	30 rue geoffroy saint hilaire  75005 paris 5ème	01 47 07 61 69	75005	48.840635	2.356278
Ads immobilier	158 grande rue  92310 sevres	01 45 07 89 89	92350	48.780312	2.261562
Adt partners	35 rue brunel 75017 paris	01 58 05 20 50	75017	48.879092	2.287449
Adw immo	21 avenue de meaux  77000 melun	01 60 69 34 90	77000	48.54693	2.663229
Aec immobilier	71 rue du bac  92600 asnieres sur seine	01 40 86 08 16	92600	48.91361	2.278112
Aedes immobilier	1 rue de clamart  92100 boulogne	01 47 61 89 10	92100	48.830344	2.245106
Affinity home	15 rue de miromesnil  75008 paris 8ème	01 40 56 98 61	75008	48.872188	2.315968
Afimmo 75	6 rue de la michodiere  75002 paris	01 40 55 02 80	75002	48.869462	2.334704
Ag patrimoine	55 avenue marceau  75116 paris 16ème	06 15 22 23 22	75116	48.869686	2.297955
Agec	73 75 rue de la plaine 75020 paris 20ème	01 48 44 41 41	75020	48.850368	2.405166
Agena immobilier	1 rue salneuve  75017 paris	01 47 64 31 31	75017	48.884577	2.314688
Agence  iwest	8 rue souchal  92110 clichy	01 55 90 03 00	92110	48.902787	2.312418
Agence 18eme avenue , doudeauville	39b rue doudeauville  75018 paris 18ème	01 46 06 86 60	75018	48.888445	2.353963
Agence 18eme avenue , mont cenis	81 rue du mont cenis  75018 paris	01 42 64 27 69	75018	48.89284	2.34441
Agence 18eme avenue , ramey	8 rue ramey  75018 paris	01 42 55 46 06	75018	48.887639	2.347354
Agence 18eme avenue, caulaincourt	59 rue caulaincourt  75018 paris	01 42 58 06 06	75018	48.889574	2.335173
Agence abaci	54 rue de la convention 75015 paris	01 45 78 81 81	75015	48.843633	2.282096
Agence abi	16 rue de vintimille  75009 paris	01 44 63 05 10	75009	48.882397	2.329279
Agence agt bastille	19 bd beaumarchais  75004 paris	01 42 78 10 20	75004	48.855139	2.368405
Agence aich	102 rue legendre  75017 paris	01 46 27 54 16	75017	48.887769	2.320545
Agence alba	25 rue gassendi 75014 paris	01 45 75 10 10	75014	48.834435	2.326551
Agence alexandrimmo	15 ave carnot  94230 cachan	01 46 63 29 29	94230	48.797303	2.3297
Agence alin	110 boulevard brune  75014 paris	01 45 39 75 50	75014	48.82413	2.320613
Agence amouyal freres et fils	9 rue bremontier  75017 paris	01 46 22 07 77	75017	48.884501	2.304044
Agence aramys	46b rue de clichy  75009 paris 9ème	01 42 81 59 59	75009	48.879774	2.329253
Agence armaillé	7 rue armaille  75017 paris	01 40 54 83 32	75017	48.877431	2.29191
Agence asm	91 rue du faubourg saint honore  75008 paris 8ème	06 14 35 12 52	75008	48.871989	2.31304
Agence atmosphere	18 rue benjamin franklin  75116 paris	01 45 25 22 25	75116	48.860099	2.285827
Agence auburtin immobilier	24 rue de la chapelle  75018 paris 18ème	01 40 37 56 62	75018	48.891879	2.359984
Agence belles feuilles	13 rue des belles feuilles  75116 paris 16eme	01 45 53 00 78	75116	48.866259	2.282503
Agence bellissimmo	44 avenue des gobelins 75013 paris	01 45 87 00 10	75013	48.83448	2.353162
Agence brick's et conseils	45 rue linois  75015 paris	01 45 77 00 17	75015	48.847245	2.285113
Agence c l'immobilier	13 rue eugène carrière  75018 paris	01 42 58 53 77	75018	48.889742	2.332568
Agence c3a	50 rue des moines 75017 paris	01 58 59 02 46	75017	48.889846	2.320457
Agence cambronne	35 rue de la croix nivert  75015 paris 15ème	01 47 34 69 18	75015	48.846142	2.299126
Agence capital's immo	76 rue de belleville  75020 paris 20ème	06 60 52 17 17	75020	48.873536	2.384006
Agence caractere	50 rue de turenne  75003 paris	01 44 61 05 00	75003	48.858283	2.364595
Agence catherine gheron / ecif	21 rue caillaux  75013 paris 13eme	01 46 42 49 80	75013	48.822389	2.360174
Agence champaubert	82 avenue de suffren  75015 paris	01 40 56 07 07	75015	48.851364	2.300326
Agence charles katz	4 bd raymond poincare  92380 garches	01 47 41 33 33	92380	48.838714	2.186117
Agence co par t immo	67 rue marcadet 75018 paris	01 42 59 05 90	75018	48.890337	2.348052
Agence cogé	64 rue gounod  92210 saint cloud	01 46 02 57 27	92210	48.84245	2.207672
Agence compagnie europeenne d'affaires	9 rue du chateau  92200 neuilly sur seine	01 41 43 27 00	92200	48.885836	2.260964
Agence concept immobilier	22 rue jean giraudoux  75016 paris	01 45 53 42 25	75016	48.869551	2.296722
Agence conseil immobilier	88 avenue henri barbusse  94240 l'hay les roses	01 45 46 22 22	94240	48.780093	2.32806
Agence crossard	94 rue du general leclerc  94000 créteil	01 42 07 19 75	94000	48.788553	2.46686
Agence david courcelles	71 bd de courcelles  75008 paris	01 47 63 08 08	75008	48.878604	2.301384
Agence david gestion	44 rue custine  75018 paris	01 42 54 04 00	75018	48.889153	2.345602
Agence de carné	100 rue vaugirard  75006 paris	01 42 22 50 00	75006	48.846324	2.324221
Agence de havilland	18 rue gounod  92210 saint-cloud	01 46 02 60 60	92210	48.84293	2.212393
Agence de la  mairie	157 avenue daumesnil 75012 paris	01 43 41 88 59	75012	48.841412	2.388529
Agence de la capitale	83 rue chardon lagache  75016 paris 16eme	01 44 14 68 70	75016	48.840946	2.263666
Agence de la mairie	2 rue du general leclerc 93110 rosny sous bois	01 45 28 00 59	93110	48.871018	2.48682
Agence de montmorency	71 rue de la pompe 75116 paris	06 64 32 06 53	75116	48.863257	2.276517
Agence de neuilly	6 avenue de madrid  92200 neuilly sur seine	01 46 40 17 31	92200	48.88411	2.260046
Agence de valliere	66 boulevard richard wallace  92800 puteaux	01 46 25 03 80	92800	48.881013	2.237608
Agence deguelt	41 avenue general leclerc  78220 viroflay	01 30 24 13 12	78220	48.803637	2.175251
Agence des 3 colombes	50 rue felix faure  92700 colombes	01 71 11 37 00	92700	48.914657	2.256301
Agence des ambassades	32 boulevard malesherbes  75008 paris	01 42 65 18 83	75008	48.873638	2.320978
Agence des batignolles	16 rue des dames  75017 paris	01 44 90 03 94	75017	48.885164	2.32526
Agence des champs elysees	11 rue colisee  75008 paris	01 42 25 32 25	75008	48.870591	2.307767
Agence des iles d'hyeres	17 avenue des iles d'or  83400 hyeres	04 94 01 49 49	83400	43.120052	6.126646
Agence des oliviers	2b rue de port royal  78960 voisins le bretonneux	01 30 43 00 43	78960	48.757929	2.049669
Agence des prés carrés	39 rue grenelle  75007 paris	01 53 63 00 63	75007	48.854061	2.326684
Agence des victoires	41 rue coquilliere  75001 paris	01 40 41 02 42	75001	48.864548	2.34075
Agence direct gestion	105b rue de tolbiac  75013 paris 13ème	01 42 71 06 06	75013	48.82658	2.364742
Agence domicile	18 rue yvonne le tac  75018 paris	01 42 54 06 98	75018	48.884196	2.340037
Agence douard	24 rue gabriel peri  78800 houilles	01 39 68 11 11	78800	48.925208	2.189306
Agence ds immobilier	3 rue didot  75014 paris 14ème	01 45 42 20 00	75014	48.834055	2.322001
Agence du canal	12 rue beaurepaire  75010 paris	01 42 02 02 33	75010	48.869701	2.363659
Agence du cap	12 rue de saintonge  75003 paris	01 42 74 50 06	75003	48.861567	2.3623
Agence du centre	8 av general de gaulle  78600 maisons laffitte	01 39 62 12 21	78600	48.945168	2.142766
Agence du chalet	77t rue de la tombe issoire  75014 paris	01 43 27 04 04	75014	48.828083	2.332805
Agence du faubourg poissonniere	132 rue fbg poissonniere  75010 paris	01 42 81 99 72 / 01 44 63 58 58	75010	48.880387	2.349874
Agence du golf	77 rue du 19 janvier  92380 garches	01 47 01 18 18	92380	48.851317	2.191862
Agence du huit mai	116 rue charles de gaulle  78840 freneuse	01 30 93 12 53	78840	49.048149	1.601242
Agence du lido - letuc immobilier	77 avenue du bois de guimier  94100 st maur des fosses	01 48 85 08 04	94100	48.799029	2.485018
Agence du louvre	52 rue de l'arbre sec  75001 paris	01 40 20 90 00	75001	48.860934	2.34258
Agence du mont-louis	7 rue delaitre  75020 paris 20ème	01 43 58 29 90	75020	48.867351	2.387371
Agence du musée	231 rue saint honore 75001 paris 1er	01 42 78 08 02	75001	48.866223	2.329201
Agence du parc	01 rue du general leclerc  91540 mennecy	01 69 90 06 15	91540	48.575902	2.448204
Agence du parc monceau	14b avenue foch  75008 paris 8ème	01 42 27 58 30	75016	48.874023	2.290966
Agence du parking	42 rue damrémont  75018 paris	01 42 62 96 42	75018	48.889693	2.333888
Agence du pont de saint cloud - v. i. p.	5 rue dailly  92210 saint cloud	01 46 02 04 05	92210	48.842261	2.221093
Agence du quartier	8 rue liot 92100 boulogne billancourt	01 46 08 00 00	92100	48.831872	2.24104
Agence du village	54 rue pierre brossolette  95200 sarcelles	01 39 90 49 77	95210	48.969231	2.290333
Agence dufour et boutant associes	73 75 rue raymond losserand  75014 paris 14eme	01 40 52 02 02	75014	48.83406	2.318467
Agence dupleix	18 rue de lourmel  75015 paris	01 45 79 76 76	75015	48.849636	2.291347
Agence duroc	27 rue pierre leroux  75007 paris	01 45 66 76 14	75007	48.848402	2.319575
Agence elico immobilier	36 rue pouchet  75017 paris 17ème	06 74 95 91 97	75017	48.893441	2.320114
Agence elysee	43 avenue de la jonchere  78170 la celle st cloud	01 39 69 62 00	77600	48.855579	2.738794
Agence era st sulpice	68 rue de vaugirard  75006 paris	01 53 63 05 23	75006	48.848237	2.330818
Agence et vous	2 rue sadi lecointe  75019 paris 19ème	06 63 70 57 53	75019	48.880653	2.373189
Agence etienne petit - groupe immobilier etienne petit	16 av du general leclerc bp 16 78160 marly le roy cedex	01 39 58 53 32	78160	48.870971	2.096504
Agence etoile	03 bd de magenta  75010 paris	01 44 52 57 57	75010	48.869482	2.361916
Agence faisanderie immobilier	96 rue de la faisanderie  75116 paris	01 45 03 40 40	75116	48.86629	2.27415
Agence farvene	18 rue de bruxelles  75009 paris	01 46 07 11 36	75009	48.883445	2.330861
Agence fbi voltaire  immobilier	3 place leon blum  75011 paris	01 43 73 00 30	75011	48.857742	2.379418
Agence fidim	77 79 rue championnet  75018 paris	01 42 51 21 21	75018	48.895742	2.34394
Agence florence lauret	28 boulevard malesherbes  75008 paris 8ème	01 44 55 38 38	75008	48.873247	2.321251
Agence fur	18, avenue de villiers  75017 paris	01 44 40 49 23	75017	48.882097	2.313532
Agence gambetta	5 rue du cambodge 75020 paris	01 40 33 84 64	75020	48.865698	2.39853
Agence gerloge	33 boulevard berthier  75017 paris	01 42 27 82 07	75017	48.888001	2.300091
Agence gestiva	3 rue isabey 75016 paris	01 40 50 95 97	75016	48.848341	2.263515
Agence gif	28 avenue theophile gautier  75016 paris 16eme	01 40 50 17 33	75016	48.850095	2.272363
Agence gif	77 boulevard exelmans  75016 paris	01 46 51 66 96	75016	48.843306	2.259442
Agence guy hoquet charonne	22 rue d'avron  75020 paris	01 44 64 01 00	75020	48.851607	2.400452
Agence haussmann	95 boulevard haussmann  75008 paris	01 40 06 00 50	75008	48.874798	2.318355
Agence horizon	15 rue godefroy cavaignac  75011 paris 11ème	01 43 71 10 54	75011	48.854796	2.381352
Agence icogest	354 rue saint honoré  75001 paris	01 42 60 39 41	75001	48.866465	2.329074
Agence immo avenir	114 avenue flandre  75019 paris 19ème	01 40 35 45 55	75019	48.891957	2.378837
Agence immobilier la residence	15 place du general leclerc  91430 vauhallan	01 69 41 31 44	91430	48.734506	2.20478
Agence immobiliere bureau d'etudes et realisations	8 boulevard saint marcel  75005 paris 5ème	01 43 37 88 14	75005	48.839879	2.360934
Agence immobilière du 20ème	56 bd menilmontant  75020 paris	01 40 33 00 03	75020	48.863544	2.387139
Agence immobiliere la tour	108 rue de la tour  75016 paris	01 45 03 30 70	75016	48.862659	2.276726
Agence immobilière lacroix	12 avenue jean jaures  94250 gentilly	01 46 63 56 66	94250	48.814326	2.349559
Agence immobiliere lamarck	80 rue lamarck 75018 paris	01 42 55 66 18	75018	48.890096	2.338155
Agence immobiliere lori	26 av gabriel peri  91700 ste genevieve des bois	01 60 16 01 28	91700	48.651779	2.316248
Agence immobiliere pierre hedim	19 avenue de messine  75008 paris	01 53 53 97 97	75008	48.876745	2.311853
Agence immobiliere romy	71 rue de la paroisse bp512  78005 versailles cedex	01 39 50 03 43	78000	48.806064	2.134379
Agence immobiliere trocadero	23 rue des belles feuilles  75016 paris	01 56 26 59 59	75016	48.866659	2.282125
Agence immofidès	3 rue pache  75011 paris	01 43 70 16 05	75011	48.858426	2.382127
Agence immosoult	103 bld soult  75012 paris	01 43 45 55 66	75012	48.843061	2.409624
Agence immosphere	92 rue des entrepreneurs  75015 paris	01 43 92 90 90	75015	48.844052	2.291897
Agence immotep	15 rue brey  75017 paris 17ème	01 45 72 44 91	75017	48.876551	2.295592
Agence in situ	89 rue la boetie  75008 paris 8ème	01 44 63 17 14 / 06 62 50 68 00	75008	48.871716	2.308278
Agence internationale mercure paris	14b avenue bosquet  75007 paris	01 47 53 97 00	75007	48.859674	2.302825
Agence joffard	9 av georges clemenceau  94732 nogent sur marne cedex	01 48 73 47 55	94700	48.806018	2.443212
Agence laforet immobiler paris 11	148 bld voltaire  75011 paris	01 71 18 33 00	75011	48.856383	2.382194
Agence laforet immobilier	63 rue du president wilson  92300 levallois perret	01 41 40 09 09	92300	48.892752	2.289652
Agence laforet immobilier paris 12 daumesnil	240 rue de charenton  75012 paris 12ème	01 55 78 83 10	75012	48.838497	2.389625
Agence leroy	68 rue de babylone  75007 paris 7ème	01 47 05 50 50	75007	48.851819	2.316627
Agence lil-orsay	14 rue de normandie  75003 paris	01 42 77 45 01	75003	48.863988	2.363978
Agence littre	41 rue madame  75006 paris	01 45 44 44 45	75006	48.848963	2.331787
Agence locadelo	5b rue du centre  92200 neuilly sur seine	06 09 02 29 80	92200	48.879153	2.254068
Agence loyer	67 rue de la tour  75116 paris	01 40 72 61 16	75116	48.861287	2.279041
Agence ls	15 rue daumier  75016 paris	01 45 20 48 18	75016	48.839473	2.263488
Agence maillot	18 rue d'armenonville  92200 neuilly sur seine	01 47 22 55 55	92200	48.881427	2.279422
Agence mandar - espace immo	8 rue mandar  75002 paris	01 42 33 50 27	75002	48.865671	2.346082
Agence manestel	27 rue de longchamp 75116	01 43 44 02 32	75116	48.864919	2.29031
Agence martine immobilier	34 rue daguerre  75014 paris	01 43 20 26 35	75014	48.834402	2.328602
Agence menilmontant	87 rue menilmontant  75020 paris	01 46 36 96 18	75020	48.868934	2.390454
Agence mg immobilier	47 rue vaneau  75007 paris	01 42 22 98 70	75007	48.851256	2.319325
Agence micot	6 rue taine 75012 paris	01 43 44 43 87	75012	48.837651	2.391932
Agence nachimmo	203 ave daumesnil  75012 paris	01 56 95 49 00	75012	48.83906	2.397599
Agence nisso immobilier	48 rue de la sablière 75014 paris	01 45 25 03 34	75014	48.832319	2.321315
Agence paris maillot	24 boulevard gouvion saint-cyr  75017 paris 17ème	01 45 74 56 31	75017	48.883788	2.288331
Agence paris seine cherche midi	59 rue du cherche midi  75006 paris	01 45 44 66 00	75006	48.848407	2.324505
Agence paris seine saint honore	49 rue saint roch  75001 paris 1er	01 42 60 77 77	75001	48.866663	2.333029
Agence paris-est transactions	147 rue oberkampf  75011 paris	01 47 00 11 09	75011	48.866832	2.381335
Agence pariszen	29 rue boulard  75014 paris 14ème	06 25 32 64 45	75014	48.833389	2.328646
Agence porte doree	274 avenue de daumesnil  75012 paris 12ème	01 71 19 44 70	75012	48.835777	2.405362
Agence preference	8 rue de colombes  92400 courbevoie	01 43 34 30 30	92400	48.897254	2.256608
Agence prestige immobiliere	59 rue lamarck  75018 paris	01 42 62 51 88	75018	48.889962	2.338194
Agence principale	14 rue damremont  75018 paris 18ème	01 53 09 31 00	75018	48.888033	2.332861
Agence prodi	54 boulevard diderot  75012 paris	01 43 41 32 16	75012	48.846397	2.379736
Agence rive de seine	194 rue paul doumer 78510 triel sur seine	01 39 74 74 74	78510	48.981048	2.003312
Agence rombaut	10 avenue guyener  78170 la celle saint cloud	01 39 18 53 53			
Agence sadone	149 avenue achille peretti 92200 neuilly sur seine	01 47 47 08 30	92200	48.884612	2.267532
Agence saint germain immobilier	49 rue mazarine  75006 paris	01 40 51 05 80	75006	48.853916	2.338383
Agence sap	112 boulevard de rochechouart   75018 paris 18ème	01 42 64 28 66	75018	48.88237	2.340559
Agence seine et cite	81 rue de turenne  75003 paris 3ème	01 53 68 64 02	75003	48.860136	2.36446
Agence solvimo paris 11	124 rue du chemin vert  75011 paris 11ème	01 58 30 89 56	75011	48.862026	2.384144
Agence st louis en l'ile	10 rue boutarel  75004 paris	01 43 29 30 00	75004	48.852474	2.354032
Agence stephane dorai	27 rue jean mermoz  75008 paris	01 40 06 91 92	75008	48.872006	2.312315
Agence stimob	22 rue eugene jumin  75019 paris	01 42 38 02 02	75019	48.887657	2.392371
Agence swixim republique	21 rue de la plaine  75020 paris 20ème	01 77 37 70 97	75020	48.850109	2.40158
Agence t.g.a	39 avenue des gobelins  75013 paris	01 44 08 61 21	75013	48.835705	2.352912
Agence terminus	8 boulevard d'ormesson  95880 enghien les bains	01 34 12 88 47	95880	48.971142	2.309083
Agence thiphone immobilier	53 rue de belleville  75019 paris	01 42 02 80 00	75019	48.873218	2.381326
Agence topim	65 av mozart  75016 paris	01 45 24 55 55	75016	48.854007	2.269143
Agence twinsim	17 ave victor hugo  75116 paris	01 45 00 52 60	75116	48.872239	2.291696
Agence ulys pately immobilier sarl	232 bd voltaire  75011 paris	01 40 24 18 54	75011	48.851944	2.389641
Agence util	99 rue ordener  75018 paris 18ème	01 42 57 02 02	75018	48.892003	2.346678
Agence valere	185 rue de paris  95150 taverny	01 39 60 40 18	95150	49.025871	2.225879
Agence vaneau	25 rue vaneau  75007 paris	01 45 55 46 63	75007	48.852942	2.319264
Agence vaneau	64 avenue raymond poincare  75116 paris	01 47 04 28 00	75116	48.867918	2.285944
Agence vaneau	13 rue vavin  75006 paris	01 44 41 41 41	75006	48.844218	2.331208
Agence vaneau champ de mars	69 avenue de bosquet  75007 paris	01 44 11 75 75	75007	48.855882	2.305157
Agence vaneau denfert rochereau	38 rue boulard  75014 paris	01 45 45 01 85	75014	48.833258	2.328305
Agence vaneau marais	15 rue de sevigne  75004 paris 4ème	01 42 74 16 16	75004	48.856401	2.362494
Agence vaneau neuilly	137 avenue achille peretti  92200 neuilly sur seine	01 46 24 05 00	92200	48.884372	2.268574
Agence vaneau saint charles - etude warbel	38 rue des entrepreneurs  75015 paris 15eme	01 45 79 79 45	75015	48.846398	2.285908
Agence victor hugo	39 rue victor hugo  bp-48 92500 rueil malmaison cedex	01 47 49 09 46	92400	48.893706	2.256332
Agence windsor 92	23 rue madeleine michelis  92200 neuilly	01 41 43 25 25	92200	48.881861	2.27674
Agence windsor invalides	148 rue de grenelle  75007 paris	01 44 18 00 30	75007	48.858163	2.31069
Agenda immobilier	7 rue des quatre vents  75006 paris	01 40 51 79 56	75006	48.851702	2.337932
Agentissimo	32 rue leopold bellan  75002 paris	01 42 21 31 33	75002	48.86674	2.345051
Agentissimo	180 rue lafayette  75010 paris	01 40 34 61 62	77120	48.815255	3.087524
Agentys asnieres réseau immobilier intéractif	2 rue de la comete  92600 asnieres sur seine	01 82 83 13 13	92600	48.912515	2.285118
Agentys nogent	156 grande rue charles de gaulle  94130 nogent sur marne	01 49 77 11 47	92600	48.905773	2.286474
Agentys paris daumesnil	8 rue crozatier  75012 paris 12ème	01 82 28 96 96	75012	48.845671	2.382776
Agentys saint-maur mairie	11 avenue charles de gaulle  94100 st maur des fosses	01 48 83 11 22	94100	48.803785	2.48558
Ages@loc	99 rue legendre  75017 paris 17ème	01 42 28 58 60	75017	48.888483	2.321528
Agi	4 passage du grand cerf  75002 paris	01 40 36 84 92	75002	48.86473	2.349827
Agi prestige et patrimoine	54 avenue hoche  75008 paris 8ème	06 23 54 60 66	75008	48.875072	2.297681
Agim conseil	12 rue du rocher  75008 paris	01 44 67 83 00 / 06 67 50 54 55	75008	48.875984	2.322927
Ah conseil	66 avenue du maine  75014 paris	01 72 87 16 71	75014	48.839451	2.321692
Aici paris	124 avenue victor hugo  75016 paris	01 47 27 26 23	75016	48.867732	2.280469
Aidp	17 rue augereau  75007 paris 7ème	01 73 75 06 58	75007	48.857044	2.302285
Aj consultants	231 rue st honore  75001 paris 1er	01 55 46 83 73	75001	48.866223	2.329201
Ajc immobilier	209 rue saint maur  75010 paris	01 42 01 72 04	75010	48.872538	2.371184
Akoya patrimoine	197 rue du faubourg saint honore  75008 paris 8ème	01 45 63 19 19	75008	48.876023	2.302718
Aktualis conseil en immobilier	168b is r cardinet  75017 paris 17ème	01 40 38 07 10	75017	48.890044	2.317127
Alain rousseau immobilier	10 bd henri arnault  49100 angers	02 41 24 13 70			
Albou blanc	5 rue picot  75116 paris	01 45 53 53 35	75116	48.870831	2.281912
Alesia conseil immobilier	71 avenue du général leclerc  75014 paris	01 42 18 01 01	75014	48.828368	2.3276
Alexandre immobilier	167 rue de la pompe  75016 paris 16ème	09 81 38 19 35	75016	48.870062	2.282592
Alfy immobilier	15 rue notre dame  77100 meaux	01 60 41 09 34	77100	48.961206	2.879997
Alize immobilier	90 rue du dessous des berges 75013 paris	01 44 24 36 26	75013	48.829291	2.372278
Alliance patrimoine	9 rue de la collégiale  75005 paris	01 42 27 26 87	75005	48.837711	2.352156
Allo location	21 rue cheroy 75017 paris	01 45 22 45 22	75017	48.8827	2.318296
Alma transactions	29 rue lubeck  75116 paris 16ème	01 45 05 10 95	75116	48.865154	2.292057
Alpha immobilier	9 rue philibert lucot  75013 paris	01 45 82 98 98	75013	48.822258	2.361738
Alpha realty	59 rue d'amsterdam  75008 paris	01 42 80 67 78	75008	48.880676	2.326976
Alpha saint paul	16 rue ferdinand duval  75004 paris	01 44 61 90 80	75004	48.856405	2.35948
Alt immobilier	242 boulevard voltaire  75011 paris	06 07 57 79 78	75011	48.851389	2.390573
Altamira conseil	25-27 rue danielle casanova 75001 paris 1er	06 60 40 85 45	75001	48.867955	2.331499
Alter gestion	11 rue anatole de la forge  75017 paris 17ème	01 55 37 26 04	75017	48.876341	2.292324
Alterhome	11 rue fin de banlieue  67400 illkirch graffenstaden	03 88 43 10 33	67400	48.546811	7.737781
Althea immobilier	22 rue des boulainvilliers  75016 paris	01 42 88 78 78	75016	48.853788	2.275708
Altice	28b rue jean jaures  94800 villejuif	01 47 26 18 01	94800	48.794128	2.366375
Altim	27 rue froidevaux  75014 paris	01 40 64 70 00	75014	48.835614	2.328418
Altimo	16 avenue hoche  75008 paris	01 45 61 54 24	75008	48.876739	2.301511
Alvarez international real estate	101 avenue des champs elysees  75008 paris 8ème	01 82 83 38 03	75008	48.871656	2.300554
Alvic immo	58 rue beaubourg  75003 paris 3ème	01 40 29 41 88 / 06 22 33 73 93	75003	48.863054	2.354618
Am capital	8 rue vital  75116 paris 16ème	06 22 98 56 79	75116	48.860263	2.27964
Ambassade service immobilier	3 rue des pyramides  75001 paris	01 42 60 20 00	75001	48.864301	2.33241
Ambroise immobilier	15 avenue parmentier 75011 paris	01 55 25 20 50	75011	48.860096	2.378565
Amcp immobilier	117 rue de charenton  75012 paris 12ème	06 07 51 06 46	75012	48.846009	2.379763
Ami	93 rue de monceau  75008 paris 8ème	06 60 48 62 34	75008	48.880524	2.316374
Ammonitia	47 av george v  75008 paris 8eme	01 56 62 08 22	75008	48.870758	2.300657
Andre korchia gestion gerance	lieu dit lanfeust 29810 ploumoguer	06 50 66 61 02			
Andrieux immobilier	112 rue du cherche midi  75006 paris 6eme	01 45 48 03 98	75006	48.846483	2.320518
Anne carole immobilier	81 rue de reuilly  75012 paris	01 43 43 00 60	75012	48.844868	2.389639
Anne carole immobilier	42 boulevard de charonne  75020 paris	01 43 73 02 10	75020	48.851115	2.398793
Anne carole immobilier	avenue daumesnil  75012 paris 12eme	01 40 02 07 02	75012	48.840654	2.390404
Anne carole immobilier	112 avenue ledru rollin  75011 paris	01 43 14 02 03	75011	48.852811	2.377175
Apen immobilier	84 rue joseph de maistre 75018 paris	01 53 31 10 20	75018	48.892582	2.330548
Api	18 rue serpente  75006 paris	01 43 26 11 33	75006	48.852163	2.342507
Apollo	102 ave des champs elysees  75008 paris	01 45 63 88 88	75008	48.871826	2.30229
Appart & immo	64 rue raymond losserand  75014 paris 14ème	01 40 47 82 40	75014	48.834236	2.3184
Appart coaching	49 rue basfroi  75011 paris	06 24 43 77 12	75011	48.85636	2.378121
Appart en vue	45 rue de courcelles 75008 paris 8ème	01 43 59 20 45	75008	48.876174	2.307917
Appart unique	139 avenue de malakoff  75116 paris 16ème	06 23 64 71 71	75116	48.875263	2.283748
Appartement parisien	112 avenue gambetta 75020 paris 20ème	09 51 93 93 51	75020	48.871666	2.404533
Appartissy.com	27 bd gambetta  92130 issy les moulineaux	01 46 45 20 00	92130	48.827637	2.276413
Apparts de paris	85 bis avenue wagram 75017 paris	07 63 31 27 27	75017	48.880758	2.299885
Aptitudes - immobilier	67 rue pauline borghèse   92200 neuilly sur seine	01 55 62 09 09	92200	48.887891	2.272015
Arc-en-ciel immo	37 rue des blancs manteaux 75004 paris	01 71 18 28 60	75004	48.859612	2.355316
Arcales immobilier	181 rue du faubourg saint antoine  75011 paris	01 53 33 04 04	75011	48.850526	2.381185
Arch invest	231 rue saint honore  75001 paris 1er	01 45 72 15 07	75001	48.866223	2.329201
Archives patrimoine	33 rue des archives  75004 paris	01 42 71 90 50	75004	48.859505	2.356156
Archives patrimoine	96 rue rene boulanger  75010 paris 10ème	01 43 54 83 65	75010	48.869242	2.355987
Area immobilier	60 av raymond poincare  75116 paris 16ème	01 47 04 08 08	75116	48.867662	2.28601
Aream vente	53 r francois 1er  75008 paris 8ème	01 58 36 36 58	75008	48.869663	2.301892
Ariane immobilier	25 rue andre joineau  93310 le pre st gervais	01 48 46 41 72	93310	48.886535	2.404042
Arias immo	26 rue guersant 75017 paris	01 53 81 00 33	75017	48.881314	2.289535
Arkade	11 rue lebon  75017 paris 17ème	01 45 72 44 29	75017	48.88097	2.291951
Armor immobilier	95 avenue felix faure  75015 paris	01 45 57 52 13	75015	48.83922	2.283492
Arobase immobilier	2 rue olivier de serres  75015 paris 15eme	09 50 24 25 08	75015	48.837158	2.298629
Arobazimmo	11 rue dulong  75017 paris 17ème	01 42 78 18 74	75017	48.883706	2.317803
Artemis immobilier	41 rue blanche  75009 paris 9ème	01 40 16 00 00	75009	48.88038	2.331334
Arthur immo  odyssee	116 rue de menilmontant  75020 paris	01 40 33 88 21	75020	48.869861	2.394256
Arthur loyd	passy kennedy 104 avenue du président kennedy 75016 paris 16ème	01 41 40 06 00	75016	48.853307	2.281361
Arthurimmo clermont	3 avenue des etats unis  63000 clermont ferrand	04 73 31 24 32	63100	45.779819	3.082061
Artois adb transactions	35 rue de surène  75008 paris	01 47 42 11 11	75008	48.871455	2.319027
Arts - immobilier	39 rue des vinaigriers 75010 paris	01 42 09 69 59	75010	48.873119	2.361638
As immo conseil	40 rue de paris  94220 charenton le pont	01 43 68 05 85	94220	48.819143	2.41686
As immobilier	54 rue assas  75006 paris	01 40 49 01 00	75006	48.846519	2.33069
Asda immobilier investissement	1 avenue alphand  75116 paris 16eme	01 40 67 10 06	75116	48.874892	2.285771
Asie immo conseil	72 avenue de choisy  75013 paris	01 45 83 81 31	75013	48.824003	2.36179
Asinvestimmo	44 rue brunel  75017 paris 17ème	01 40 55 81 81	75017	48.878947	2.287734
Asp conseil	45 rue de boulainvilliers  75016 paris	01 55 74 02 02	75016	48.855804	2.274897
Assetimmo.ks	21 place de la republique  75003 paris 3ème	06 34 18 67 31	75003	48.867713	2.362266
Astim transactions & investissements	16 rue jouffroy d'abbans 75017 paris 17ème	01 40 54 07 72	75017	48.886845	2.312021
Astor	106 avenue de versailles  75016 paris	01 45 01 41 41	75016	48.844354	2.270391
At home immobilier	11 rue eugene varlin  75010 paris	01 42 09 45 46	75010	48.878309	2.364551
At home in paris	15 avenue de friedland  75008 paris 8eme	01 42 12 40 40	75008	48.874433	2.303055
Atelier immobilier	17 rue lazare carnot  92140 clamart	06 98 11 85 34	92140	48.809566	2.271189
Athenes foncier	30 rue vignon  75009 paris	01 43 59 92 21	75009	48.871987	2.326538
Atlanthe immobilier	86 rue de maubeuge  75010 paris 10ème	01 48 74 95 60	75010	48.879749	2.350016
Aton immobilier	48 boulevard des batignolles  75017 paris	01 44 90 88 77	75017	48.882726	2.322447
Atrium gestion	4 rue d' argenson  75008 paris	01 78 94 13 92	75008	48.874535	2.317206
Ats agence tournelle saint germain	33 quai de tournelle  75005 paris	01 43 29 03 23	75005	48.850403	2.353168
Attique	64 bis rue dulong 75017 paris	01 47 66 34 34	75017	48.886076	2.315381
Aurore immobilier	26 rue d'armenonville  92200 neuilly s/seine	01 47 38 25 25	92200	48.881616	2.278606
Auteuil sud immobilier	96 rue chardon lagache  75016 paris 16ème	01 53 92 08 30	75016	48.840183	2.262908
Autour de toits	6 rue du moulin vert  75014 paris 14ème	06 61 88 28 10	75014	48.829347	2.325442
Avant garde immobilier	33 avenue victor hugo 75116 paris	01 53 76 42 05	75116	48.871706	2.290442
Avantages ile de france	91 avenue pierre grenier  92100 boulogne billancourt	01 41 41 95 39	92100	48.833923	2.254197
Avenir spi	51 ave maurice thorez 94200 ivry sur seine	01 46 70 91 50	94200	48.81894	2.374579
Avica	4 avenue du bel air  75012 paris 12ème	01 43 40 17 67	75012	48.845646	2.398362
Avis immobilier	40 rue faidherbe  75011 paris 11ème	01 40 68 01 40	75011	48.853174	2.382991
Avis immobilier	60 avenue victor cresson  92130 issy les moulineaux	01 41 90 10 69	92130	48.822272	2.266046
Avis immobilier - paris 8 immobilier	179 boulevard haussmann  75008 paris	01 56 88 15 15	75008	48.874663	2.305528
Avl immobilier laumière	118 rue de meaux  75019 paris	01 42 00 62 00	75019	48.885704	2.382004
Avocat-immo	bp30507  75825 paris cedex 17	01 46 22 52 22			
Axihome france immobilier	14 rue pasteur  78450 villepreux	06 62 81 28 58	78450	48.833272	2.009457
Aximmo	15 rue notre dame de lorette  75009 paris	01 44 63 01 02	75009	48.87771	2.338132
Axitis vion immobilier	09 rue jeanne d arc  45000 orleans	02 38 54 32 32	45000	47.90156	1.907317
Az transactions	83 rue ordener 75018 paris	01 42 58 90 61	75018	48.89174	2.348099
Azertim	85 boulevard suchet 75016 paris 16eme	06 18 65 30 80	75016	48.850272	2.260405
Azur immo	184 rue de belleville  75020 paris	01 43 49 45 00	75020	48.875274	2.39327
B s i foch	18 rue duret  75016 paris 16ème	01 44 17 72 72	75016	48.874445	2.285981
B&c consulting	49 avenue hoche 75008 paris 8ème	01 45 00 02 02	75008	48.874944	2.298296
B.d.i gestion	99 rue d'aboukir  75002 paris	01 55 80 79 91	75002	48.868339	2.348764
Bakary realty group	40 rue saint honore  75001 paris 1er	01 40 13 08 07	75001	48.861185	2.344656
Balcons et terrasses de paris	6 boulevard pasteur  75015 paris	01 43 06 00 12	75015	48.844634	2.310813
Baratte & a	13 rue paul valery  75116 paris	01 45 53 82 00	75116	48.869657	2.290646
Barbara immobilier	25 route nationale 20  91180 st germain les arpajon	01 64 92 21 70	91180	48.602316	2.247222
Barbottin et associes sas	3 rue de l'arrivée  75015 paris	06 08 78 39 09	75015	48.843662	2.322891
Barnes international rentals	24 rue de l'hotel de ville  92200 neuilly sur seine	01 55 61 92 92	92200	48.884146	2.268943
Barnes location rive gauche	13 rue bonaparte  75006 paris 6ème	01 53 10 17 00	75006	48.85634	2.334583
Baroc holding	51 rue francois 1er  75008 paris 8eme	06 36 43 04 30	75008	48.869526	2.302112
Bastimo - groupe de la bastille	96 bd de beaumarchais  75011 paris	01 43 38 25 29	75011	48.860243	2.367679
Bat'im	4, rue maître albert 75005 paris	01 55 42 55 05	75005	48.851059	2.350037
Batigere	89 rue de tocqueville  75017 paris	01 44 29 84 27	75017	48.8873	2.307622
Batima immobilier	69 rue de la tour  75116 paris	01 45 04 41 00	75116	48.861366	2.278871
Bc immobilier	4 rue theophile roussel  75012 paris	01 44 75 38 84	75012	48.849646	2.377339
Bdeb conseils	20 rue emile duclaux   75015 paris 15ème	06 60 11 59 06	75015	48.842017	2.308921
Beaudoin conseils et investissements	10 rue danville  75014 paris 14ème	01 42 18 18 74	75014	48.834239	2.327459
Beaulieu habitat concept	30 rue du grenier st lazare  75003 paris 3ème	01 44 54 55 66	75003	48.863123	2.353029
Bed and school paris	15 boulevard arago 75013 paris 13eme	09 67 29 86 74	75013	48.836107	2.350331
Belimmo	154 avenue de wagram  75017 paris	01 47 64 66 89	75017	48.886659	2.304647
Bellavita	199 av de la republique 94700 maisons alfort	01 43 76 77 27	94700	48.808346	2.449754
Belleroche	144 rue de la tour  75116 paris	01 45 04 49 13	75116	48.86373	2.273144
Belletoile immobilier	1 avenue gambetta  94700 maisons alfort	01 43 68 27 00	94700	48.810276	2.432877
Beny immobilier	140 avenue parmentier 75011 paris	01 43 38 80 00	75011	48.869254	2.371757
Bepark	283 rue lecourbe  75015 paris 15ème	01 84 16 02 89	75015	48.838097	2.288338
Beralty	12 rue notre dame des victoires  75002 paris 2ème	01 42 86 86 70	75002	48.86699	2.341353
Berri immobilier	38 rue de berri  75008 paris 8eme	01 43 59 29 71	75008	48.873896	2.307001
Bertin immobilier	13 bd d'aulnay  93250 villemomble	01 48 54 10 25	93250	48.892457	2.498422
Bg immobilier	55 bd de grenelle  75015 paris	01 58 01 01 95	75015	48.85128	2.292318
Bhi  immobilier	70 bld st marcel  75005 paris	01 43 31 91 91	75005	48.837697	2.354079
Big ben immobilier	6 rue meissonier  75017 paris 17ème	06 24 62 42 51	75017	48.883118	2.304499
Blg immobilier	11 rue des bergers  75015 paris 15ème	01 45 77 16 33	75015	48.844375	2.282494
Blr partners	13 rue de turbigo  75002 paris 2ème	06 09 35 08 10	75002	48.863981	2.34905
Bm finance	27 av de l opera   75001 paris 1er	01 43 43 43 77	75001	48.866853	2.333724
Bo conseils	33 rue de menilmontant 75020 paris	01 47 97 00 00	75020	48.867656	2.385258
Boetie partners property management	5 rue de la boetie  75008 paris	01 40 76 70 62	75008	48.874299	2.318648
Bonapart immobilier	57 rue de turbigo  75003 paris 3ème	01 71 19 75 65	75003	48.865652	2.356503
Bonsergent immobilier	24 boulevard magenta  75010 paris 10ème	01 42 40 10 10	75010	48.870228	2.361723
Book a flat	18 rue volney  75002 paris 2ème	01 47 03 14 20	75002	48.869863	2.330499
Book your paris	13 rue de turenne  75004 paris 4ème	01 75 77 14 35	75004	48.855449	2.363496
Booking studio	8 rue de remusat   75016 paris 16ème	06 15 02 04 58	75016	48.848089	2.272146
Bouquet immobilier	36 avenue d'eylau  75016 paris	01 73 54 03 40 / 06 10 46 92 17	75016	48.865266	2.283662
Bousquet et associes	137 bd haussmann  75008 paris 8ème	01 42 56 12 12	75008	48.875023	2.312705
Boutique de l'immobilier	etude saint georges31 rue saint lazare  75009 paris	01 55 80 79 73	75009	48.876718	2.33615
Boutique de l'immobilier	46 rue du faubourg poissonniere  75010 paris	01 55 80 79 70	75010	48.874237	2.348031
Bow window agency	25 rue lavoisier  75008 paris 8ème	06 36 36 92 93	75008	48.873779	2.319849
Brennus immobilier	20-22 rue vernier  75017 paris 17ème	06 43 82 71 50	75017	48.883736	2.290939
Breteuil immobilier	8 rue corot  75016 paris	01 42 24 80 00	75016	48.847427	2.269509
Brew's	25 avenue gambetta  75020 paris 20ème	06 26 26 58 66	75020	48.863946	2.391284
Brh transactions	2 rue gabriel laumain  75010 paris 10eme	09 82 39 54 31	75010	48.873352	2.350082
Bridgestreet	10 avenue franklin roosevelt  75008 paris	01 42 94 13 13	75008	48.870756	2.310246
Bright immobilier	4 avenue bugeaud  75116 paris 16ème	01 42 71 71 24	75116	48.869967	2.284302
Broker immo	67 bd de courcelles  75008 paris 8ème	06 63 29 84 09	75008	48.878714	2.301898
Broz  immobilier	131 rue de la roquette  75011 paris 11ème	01 44 64 00 32	75011	48.85851	2.383201
Bs transactions	14 rue lincoln  75008 paris	01 43 59 01 60	75008	48.870529	2.303156
Bsi boulogne nord	37 avenue jean baptiste clement  92100 boulogne	01 41 86 00 90	92100	48.846264	2.238091
Bsi boulogne sud	46 48 avenue du general leclerc  92100 boulogne billancourt	01 46 04 07 07	92100	48.832483	2.239257
Bsi ogipa	41 rue de bayen  75017 paris	01 43 18 22 70	75017	48.881086	2.292885
Building partners	7b rue ernest deloison  92200 neuilly sur seine	01 46 37 09 09	92200	48.876861	2.249891
Building partners	87 rue louis rouquier  92300 levallois perret	01 47 31 01 74	92300	48.891938	2.289608
Buisson immobilier	205 rue du fbg saint denis  75010 paris	01 46 07 43 28	75010	48.883626	2.35909
Bureau bonnet	36 boulevard beaumarchais  75011 paris 11ème	01 43 55 43 31	75011	48.856344	2.368618
Bures immobilier	8 place de la poste  91440 bures sur yvette	01 64 86 10 00	91440	48.697483	2.163078
C h l	71 avenue marceau  75116 paris	01 47 20 30 28	75116	48.870946	2.297198
C.g.a.p immobilier	40 rue bouret  75019 paris 19ème	01 71 19 74 23	75019	48.881963	2.373533
C.i.d.g.	24 rue violet  75015 paris	01 45 79 16 16	75015	48.848396	2.293646
C.i.g. centre immobilier de la goele	15 rue du general de gaulle  77230 dammartin en goele	01 60 03 56 56	77230	49.05354	2.675604
C2i- agence de la mairie	157 avenue du maine  75014 paris	01 40 45 70 00	75014	48.833358	2.324886
Cabinet  j. raimon	96 avenue d'italie  75013 paris	01 45 88 77 95	75013	48.825404	2.357232
Cabinet 7ème gestion	12b place henri bergson  75008 paris 8eme	01 58 56 24 00	75008	48.87623	2.320504
Cabinet apia immobilier	56 rue poussin  75016 paris	01 46 51 63 63	75016	48.848523	2.260934
Cabinet arcourt breuval	11 rue lassus  75019 paris	01 42 01 01 76	75019	48.87566	2.388984
Cabinet ardouin	106 rue des moines  75017 paris	01 46 27 90 75	75017	48.892438	2.322656
Cabinet ardouin	79 avenue saint ouen  75017 paris	01 42 29 44 61	75017	48.892631	2.327145
Cabinet barond	113 blvd sebastopol  75002 paris 2eme	01 53 00 95 55	75002	48.867194	2.352848
Cabinet berard	14 rue du printemps  75838 paris cedex 17	01 43 18 21 21	75017	48.887139	2.309426
Cabinet berger	10 rue georges berger  75017 paris 17ème	01 47 66 18 01	75017	48.881369	2.310777
Cabinet bonvallet	23 avenue felix faure  75015 paris	01 45 57 50 06	75015	48.841885	2.290111
Cabinet bretonniere	36 avenue du general michel bizot  75012 paris	01 42 64 42 64	75012	48.833885	2.399945
Cabinet c.baudrier	127 avenue de clichy 75017 paris 17eme	01 44 85 34 34	75017	48.89041	2.320265
Cabinet chauvet et cie	2 rue raoul berton  93170 bagnolet	01 43 60 72 71	93170	48.868398	2.417711
Cabinet chemin	11 bd pasteur  75015 paris	01 45 66 80 31	75015	48.844602	2.311796
Cabinet cime	20 place de catalogne  75014 paris 14eme	01 40 48 57 38	75014	48.837267	2.319632
Cabinet cogetra	55 rue condorcet  75009 paris	01 48 78 55 36	75009	48.880222	2.342339
Cabinet colin allongue	26 rue george sand  75016 paris	01 45 27 51 58	75016	48.850147	2.268044
Cabinet conseil immobilier	46 rue saint aspais  77000 melun	01 64 37 82 82	77000	48.53905	2.659701
Cabinet courtois	11 boulevard malesherbes  75008 paris	01 53 43 08 20	75008	48.871226	2.322181
Cabinet courtois - etude duquesne	3 avenue duquesne  75007 paris 7eme	01 44 18 00 21	75007	48.853736	2.307301
Cabinet cousin	28 rue de la clef  75005 paris	01 45 35 17 70	75005	48.841263	2.352679
Cabinet credassur	4 rue de cléry  75002 paris	01 77 37 35 06	75002	48.867404	2.344386
Cabinet d'acher	69 71 av raymond poincare  75116 paris	01 56 26 55 00	75116	48.867967	2.28561
Cabinet dai	31 rue cronstadt  75015 paris	09 52 38 58 57	75015	48.83362	2.30157
Cabinet david	4 rue st lazare  75009 paris	01 53 21 99 00	75009	48.876887	2.338728
Cabinet david	39 rue de moscou  75008 paris 8ème	01 42 93 60 05	75008	48.882099	2.321851
Cabinet david abbesses	7 place charles dullin  75018 paris	01 42 54 96 66	75018	48.883305	2.341681
Cabinet david canal saint martin	19 rue jean poulmarch  75010 paris 10eme	01 81 80 40 40	75010	48.872941	2.3633
Cabinet david custine	48 rue custine  75018 paris	01 42 54 16 20	75018	48.88927	2.345178
Cabinet de carne	228 rue de la convention  75015 paris	01 55 76 63 13	75015	48.836148	2.299594
Cabinet de transactions et de gerances	2 rue du patis bp 39 95290 l isle adam	01 34 69 45 08	95290	49.112795	2.213506
Cabinet debayle	16 rue vignon  75009 paris	06 20 83 24 62	75009	48.870999	2.326284
Cabinet delioux	14 rue vignon  75009 paris	01 40 17 05 49	75009	48.870891	2.326257
Cabinet denis & cie	3 rue turgot  75009 paris	01 48 78 36 36	75009	48.879563	2.345585
Cabinet dethezy	240, rue de rivoli  75001 paris	01 42 60 20 75	75001	48.865854	2.325888
Cabinet dollfus	29 rue du fbg st honore  75008 paris	01 42 65 32 98	75008	48.868979	2.320706
Cabinet fabre d'eglantine	21 rue fabre d'eglantine 75012 paris	01 43 44 23 21	75012	48.847041	2.395497
Cabinet fessart	205 rue saint honore  75001 paris	01 70 60 14 24	75001	48.865052	2.331523
Cabinet fetizons	75 avenue aristide briand  94230 cachan	01 46 65 15 17	94230	48.7969	2.322348
Cabinet foncia expansion immobilier	1 place jacques froment  75018 paris	01 42 26 12 42	75018	48.890903	2.330908
Cabinet g mauduit	36 rue jean baptiste pigalle  75009 paris	01 42 80 99 26	75009	48.879896	2.334372
Cabinet g pimo	10 rue doct finlay  75015 paris	01 45 78 81 00	75015	48.852378	2.287659
Cabinet gestia immobiliere	27 rue alexandre dumas  75011 paris	01 55 25 53 53	75011	48.853368	2.391474
Cabinet gicquel gestion immobiliere	28 rue taine  75012 paris 12ème	01 46 28 02 02	75012	48.838631	2.393491
Cabinet godo et fenech	31 avenue de la bourdonnais 75007 paris	01 40 62 63 40	75007	48.858836	2.298532
Cabinet gorin	16 rue beranger  75003 paris	01 48 04 07 70	75003	48.866161	2.363745
Cabinet grand	10 rue jean lantier  75001 paris	01 40 26 67 08	75001	48.858624	2.346235
Cabinet gti	48 boulevard pasteur  75015 paris	01 43 22 00 35	75015	48.841434	2.313381
Cabinet habert	23 rue jean jacques rousseau  75001 paris	06 32 14 45 01	75001	48.862795	2.340986
Cabinet halbout-clerfeuille	131 boulevard de grenelle  75015 paris	01 43 06 63 63	75015	48.848511	2.3004
Cabinet hameon	2 rue louis rousseau  94200 ivry sur seine	01 46 70 52 57	94200	48.8116	2.384027
Cabinet hassler-efgtp	50 rue de rome  75008 paris	01 45 22 67 01	75008	48.878966	2.322276
Cabinet havre saint lazare immobilier	61 rue jouffroy d'abbans  75017 paris 17ème	01 42 60 55 97	75017	48.884329	2.305895
Cabinet immobilier parisien	107 rue du theatre. 75015 paris	01 45 75 81 92	75015	48.846462	2.294616
Cabinet jacques azoulay – etudes & conseils	31 quai de la tournelle  75005 paris	01 55 42 77 77	75005	48.85036	2.353322
Cabinet joseph	61 rue du faubourg poissonniere  75009 paris 9ème	01 42 46 19 77	75009	48.875205	2.348043
Cabinet jsb	13 rue poissonniere  75002 paris	01 40 13 06 32	75002	48.869143	2.347724
Cabinet junege	170 rue du temple  75003 paris	01 48 87 97 81	75003	48.866463	2.361756
Cabinet lecasble et maugee	27 boulevard de courcelles  75008 paris 8ème	01 53 93 77 22	75008	48.880847	2.3139
Cabinet loick fouchet	14 rue euler  75008 paris 8eme	01 44 18 18 44	75008	48.871037	2.298476
Cabinet loick fouchet	19 place republique  75003 paris	01 44 74 74 22	75003	48.867623	2.362416
Cabinet louis-porcheret	92 avenue du president wilson  93106 montreuil cedex	01 48 58 42 00	93100	48.856918	2.439837
Cabinet martignac	95 rue duhesme  75018 paris	01 42 54 44 44	75018	48.89489	2.344698
Cabinet mas rocher	55 rue de lyon  75012 paris	01 53 02 92 20	75012	48.849979	2.370332
Cabinet michau	4 villa d'orleans 75014 paris	01 42 79 90 91 / 06 22 04 04 28	75014	48.828595	2.328389
Cabinet michou	20 rue malher  75004 paris	01 48 87 56 99	75004	48.856508	2.361453
Cabinet minard	55 rue damremont  75018 paris	01 79 97 90 31	75018	48.890903	2.334412
Cabinet morel	56 rue laffitte  75009 paris	01 45 26 69 69	75009	48.875716	2.338753
Cabinet moulin des pres	20 rue linne 75005 paris	01 45 87 23 39	75005	48.845358	2.354798
Cabinet mouyal	3 rue rambuteau  75004 paris	01 42 71 35 02	75004	48.860134	2.356511
Cabinet mouyal	15 rue du grenier st lazare  75003 paris	01 42 71 75 88	75003	48.862824	2.352924
Cabinet ogeti	11b rue du mont cenis  75018 paris	01 53 09 20 00	75018	48.887103	2.340913
Cabinet paris	51 rue henri barbusse  75005 paris	01 44 07 07 07	75005	48.8397	2.337844
Cabinet pg lance et cie	11 rue portalis  75008 paris 8ème	01 49 53 97 61	75008	48.877564	2.319564
Cabinet pierre bonnefoi sa	43 rue letellier 75015 paris	01 45 75 55 30	75015	48.847526	2.297427
Cabinet pierre plisson	6 boulevard edgar quinet  75014 paris	01 43 20 26 06	75014	48.839765	2.32961
Cabinet plaisance	1b avenue villemain  75014 paris	01 45 45 57 75	75014	48.832585	2.315873
Cabinet poillot	10 rue de la paix  75002 paris 2ème	01 42 86 64 80	75002	48.868995	2.331141
Cabinet pyramidimmo	193 avenue du maine  75014 paris	01 45 42 12 88	75014	48.830116	2.326195
Cabinet quenot	21 rue plisson  94160 saint mande	01 43 48 99 89	94160	48.848166	2.416844
Cabinet r.durand	1 avenue faidherbe  92600 asnieres-sur-seine	01 46 88 00 00	92600	48.907555	2.266272
Cabinet ravier	18 avenue mozart  75016 paris	01 45 25 90 90	75016	48.857071	2.272466
Cabinet regy	73 boulevard de grenelle  75015 paris 15ème	01 53 95 23 95	75015	48.850533	2.293951
Cabinet rinaldi christian pierre	100 rue de belleville 75020 paris	01 47 97 05 31	75020	48.87429	2.38621
Cabinet robin immobilier - place villiers	98 boulevard des batignolles  75017 paris	01 77 32 29 43	75017	48.881622	2.317101
Cabinet roche	252 rue de vaugirard  75015 paris	01 45 32 66 10	75015	48.839885	2.301891
Cabinet roger bordat	9 avenue gabriel peri 93400 st ouen	01 40 12 61 08	93400	48.910964	2.333658
Cabinet rolet-bontemps	62/64 avenue emile zola 75015 paris 75007 paris	01 45 78 46 00	75015	48.846368	2.284179
Cabinet rolland	11 rue roquepine 75008 paris 8ème	01 44 51 63 45	75008	48.873266	2.318828
Cabinet rouah et associes	5 rue d'argenson  75008 paris 8eme	06 70 25 87 47	75008	48.874584	2.316937
Cabinet sabimo	23 avenue du 8 mai 1945  95200 sarcelles	01 39 92 78 92	95190	49.027397	2.466954
Cabinet sauvage	9 rue beautreillis  75004 paris	01 42 77 00 77	75004	48.852787	2.363418
Cabinet segine	83 rue la fayette  75009 paris	01 48 74 83 21	75009	48.876946	2.347648
Cabinet senechal	9 rue villebois mareuil  75017 paris	01 45 72 92 41	75017	48.879721	2.293903
Cabinet sgn	72 chemin des postes  93390 clichy sous bois	01 43 02 99 03	93390	48.908394	2.533975
Cabinet sine	espace immobilier 77 rue des archives 75003 paris	01 40 27 77 88	75003	48.862926	2.360111
Cabinet sogiplam	10 rue de la pépinière  75008 paris	01 44 51 62 48	75008	48.875198	2.322588
Cabinet sogiva	44 rue du rendez-vous  75012 paris	01 43 41 07 15	75012	48.84617	2.402309
Cabinet sotto	2 rue de vienne  75008 paris	01 40 08 04 40	75008	48.8763	2.321325
Cabinet stein	40 avenue parmentier  75011 paris	01 43 55 72 21	75011	48.861464	2.377753
Cabinet suire	34 rue saint didier  75116 paris 16ème	01 47 27 64 07	75116	48.866494	2.285638
Cabinet syngeco	61 rue de montreuil  75545 paris cedex 11	01 42 86 59 20	75011	48.85051	2.389836
Cabinet tf & associes	8 rue degas  75016 paris 16ème	09 81 17 29 12	75016	48.848926	2.274594
Cabinet thiout	8, bis, rue jonquoy 75014 paris	01 40 44 00 88	75014	48.829957	2.31442
Cabinet ubelmann	34 rue hamelin  75116 paris	01 47 20 45 65	94160	48.836818	2.413323
Cabinet vaillant	118 avenue de la republique  92120 montrouge	01 46 55 10 07	92120	48.813745	2.316501
Cabinet vassiliades	8 rue du 4 septembre  75002 paris	01 44 77 44 77	75001	48.865174	2.330689
Cabinet verrey	67 rue bobillot  75013 paris 13ème	01 44 16 81 74	75013	48.826599	2.351341
Cabinet vidal	16b rue lauriston  75116 paris	01 45 01 86 36	75116	48.871646	2.292343
Cabinet vincent le nail	5 rue des grands augustins  75006 paris	01 71 18 34 71	75006	48.854767	2.341076
Cabinet vivier-dufraisse	114 rue des dames  75017 paris	01 45 22 32 12	75017	48.88238	2.316105
Cagest conseil	27 avenue rapp  75007 paris	01 45 55 10 11	75007	48.859288	2.300925
Caim (christine arnoux immobilier)	7 rue charlot  75003 paris 3ème	01 44 54 01 40	75003	48.861125	2.360462
Call'immo	115 rue caulaincourt  75018 paris 18ème	01 42 51 18 18	75018	48.889814	2.340809
Camar immobilier	28 rue marbeuf  75008 paris 8ème	01 43 59 60 00	75008	48.869186	2.304752
Campel & partners etoile	89 avenue victor hugo  75116 paris	01 45 00 31 21	75116	48.869928	2.286251
Campel & partners maillot	227 boulevard pereire  75017 paris 17ème	01 40 55 05 55	75017	48.87978	2.288112
Campel&partners monceau	6 boulevard de courcelles  75017 paris	01 44 40 05 55	75017	48.881263	2.314635
Canal street immobilier	4 rue de la grange aux belles  75010 paris	01 42 38 02 06	75010	48.873293	2.36438
Canizo et cie	20 rue augereau  75007 paris	01 45 51 79 73	75007	48.856824	2.302325
Capi france	zac aeroport l'aeroplane bat c 99 impasse adam smith 34470 perols	04 67 92 46 77			
Capitale centre immobilier	39 rue de chateaudun  75009 paris	01 40 08 06 01	75009	48.876042	2.336081
Capitale immobilier	11 place gambetta  75020 paris 20ème	01 75 77 61 02	75020	48.865163	2.398031
Capitale partners	23 rue la boetie  75008 paris	01 42 68 35 60	75008	48.873949	2.316605
Carnet adresses	37 rue chaillot  75116 paris	01 40 70 09 94	75116	48.867715	2.297832
Carnot immobilier	89 rue cardinet  75017 paris	01 44 40 08 08	75017	48.884694	2.30995
Cases immobilier	46 rue laffitte  75009 paris 9ème	06 99 32 00 10	75009	48.874769	2.338379
Cassil	78 rue de sevres  75007 paris	01 53 69 12 50	75007	48.847463	2.318155
Castel immobilier de france	38 rue du colisee  75008 paris	01 40 75 04 45	75008	48.871559	2.310695
Castim	69 rue d'alesia  75014 paris	01 43 35 06 07	75014	48.827735	2.329304
Castin gilles villaret	4 rue des colonnes 75002 paris	01 42 44 11 44	75002	48.86934	2.339523
Catherine gautier immobilier	79b rue lepic  75018 paris	06 86 66 88 96	75018	48.887396	2.336465
Catinvest	8 rue port mahon  75002 paris	01 47 42 37 50	75002	48.869519	2.334108
Cattalan johnson immobilier (cji)	67 rue saint honore  75001 paris 1er	01 45 74 87 77	75001	48.861082	2.344468
Cazals immobilier	59 grande rue  91850 bouray sur juine	01 60 82 64 80	91850	48.52112	2.300824
Cbh immobilier	10 rue jean de la fontaine  75016 paris 16ème	01 44 05 15 25	75016	48.852482	2.274912
Cd immobilier paris real estate	5 rue paul valery  75116 paris 16ème	06 22 79 12 56	75116	48.869349	2.291052
Cda	71 av foch  75016 paris 16ème	01 53 70 41 60	75016	48.871499	2.279585
Cdp immobilier	163 rue de la convention 75015 paris	01 42 50 33 33	75015	48.83857	2.293712
Cedo immobilier	50 rue des dames  75017 paris	01 53 42 32 00	75017	48.883941	2.321737
Censier immobilier	2 rue bazeilles  75005 paris	01 45 35 54 54	75005	48.839016	2.350129
Centre immobilier diderot	82 bd diderot  75012 paris	01 40 01 01 55	75012	48.846755	2.382879
Centre immobilier parisien	263 rue des pyrenees  75020 paris	01 43 49 20 20	75020	48.867041	2.396653
Century 21	19b rue legendre  75017 paris	01 43 18 27 27	75017	48.883402	2.312832
Century 21	104 avenue de flandre  75019 paris	01 40 05 55 55	75019	48.891212	2.377892
Century 21	36 rue scheffer  75116 paris 16ème	01 44 05 05 06	75116	48.862088	2.282136
Century 21	2 cours de vincennes  75012 paris	01 43 45 42 02	75012	48.847693	2.399398
Century 21 action pierre	20 rue desnouettes  75015 paris	01 56 08 56 21	75015	48.836116	2.291496
Century 21 agence des pyrenees	373 rue des pyrenees  75020 paris	01 40 33 32 00	75020	48.873456	2.389735
Century 21 agence des ternes	203 boulevard pereire  75017 paris 17ème	01 58 05 31 21	75017	48.881217	2.29077
Century 21 agence jaurès	247b boulevard jean jaures  92100 boulogne	01 46 10 42 20	92100	48.82836	2.246619
Century 21 agimmo	49 rue vouille  75015 paris	01 48 28 90 50	75015	48.833833	2.308609
Century 21 alexandre dumas	11 rue de bagnolet  75020 paris	01 40 24 24 40	75020	48.85676	2.395368
Century 21 alpha en l'ile	6 rue le regrattier  75004 paris 4ème	01 55 42 10 21	75004	48.851969	2.354496
Century 21 alpha hoche	225 rue du faubourg st honore 75008 paris	01 45 63 06 60	75008	48.877205	2.299779
Century 21 alpha marais	45 rue de turenne  75003 paris	01 42 72 70 81	75003	48.857708	2.364359
Century 21 arago	44 avenue des gobelins 75013 paris	01 85 34 19 69	75013	48.83448	2.353162
Century 21 arts et metiers	4 rue du vert bois  75003 paris	01 44 61 04 04	75003	48.866611	2.360084
Century 21 auteuil immobilier	110 avenue mozart 75016 paris	01 55 74 09 09	75016	48.85055	2.266966
Century 21 bolivar jourdain	36 avenue simon bolivar 75019 paris	01 53 19 86 86	75019	48.877899	2.37425
Century 21 cabinet leclere	162 boulevard davout  75020 paris	01 40 30 11 11	75020	48.863204	2.409159
Century 21 cadet-rochechouart	41 rue de maubeuge 75009 paris	01 40 09 70 16	75009	48.878829	2.346382
Century 21 chaumont	81 avenue jean jaures  75019 paris	01 42 00 12 00	75019	48.885118	2.378552
Century 21 chorus gestion	77 rue ledru rollin  75012 paris 12ème	01 53 46 60 05	78800	48.925452	2.173225
Century 21 cirque d hiver	8 10 rue oberkampf  75011 paris	01 55 28 94 10	75011	48.862946	2.36822
Century 21 conseil immobilier	22 rue de l'abreuvoir  92400 courbevoie	01 46 67 02 04	92400	48.892072	2.254
Century 21 daumesnil	57 boulevard de reuilly  75012 paris	01 43 44 92 93	75012	48.839789	2.398136
Century 21 etude duvernet - eurl bow window	47 rue boulard 75014 paris	01 45 41 11 00	75014	48.832148	2.327641
Century 21 etude saint-georges	34 rue notre dame de lorette  75009 paris	01 53 25 17 21	75009	48.878733	2.337267
Century 21 fortis immo	18 rue molière  75001 paris	01 53 00 98 98	75001	48.865168	2.336127
Century 21 fraka immobilier	131 boulevard raspail  75006 paris	01 42 22 72 18	75006	48.844059	2.32919
Century 21 gambetta immobilier	83 avenue gambetta  75020 paris	01 44 62 67 67	75020	48.865409	2.398757
Century 21 habitat espace conseil	126 rue lecourbe 75015 paris	01 53 68 99 99	75015	48.842398	2.301644
Century 21 immobiliere du theatre	181 rue de paris  93260 les lilas	01 43 60 03 03	93260	48.880987	2.419848
Century 21 immonov	130 boulevard brune  75014 paris	01 45 43 51 51	75014	48.823427	2.323762
Century 21 joffrin immobilier	122 rue ordener  75018 paris 18ème	01 42 55 21 21	75018	48.893322	2.339385
Century 21 k.b. immobilier	38 40 rue de la convention  94270 le kremlin bicetre	01 53 14 10 87	94270	48.812226	2.358388
Century 21 lutèce immobilier	164 rue de tolbiac  75013 paris	01 53 62 13 21	75013	48.826037	2.352818
Century 21 lutèce immobilier	11 rue de l'amiral mouchez  75013 paris	01 53 80 21 21	75013	48.825545	2.341707
Century 21 magenta lafayette	129 rue la fayette  75010 paris	01 56 35 08 08	75010	48.878753	2.354484
Century 21 mk immo	15 bd saint marcel  75013 paris	01 55 43 14 20	75013	48.839101	2.359745
Century 21 montparnasse	42 boulevard du montparnasse  75015 paris	01 42 84 21 21	75015	48.844781	2.320574
Century 21 olympiades	72 rue tolbiac  75013 paris 13ème	01 58 89 21 21	75013	48.82721	2.367231
Century 21 olympierre	42 rue monge  75005 paris	01 40 51 06 07	75005	48.845555	2.351873
Century 21 parmentier saint maur	74 avenue de la republique  75011 paris	01 55 28 55 55	75011	48.864363	2.37856
Century 21 patrimoine 17	203 boulevard pereire  75017 paris	01 58 05 31 21	75017	48.881217	2.29077
Century 21 patrimoine 17	52 rue des moines  75017 paris	01 42 26 08 00	75017	48.889984	2.320589
Century 21 plaisance pernety	103 rue raymond losserand  75014 paris 14ème	01 40 44 04 80	75014	48.833105	2.31666
Century 21 prestige montmartre	56 rue caulaincourt  75018 paris	01 44 92 75 21	75018	48.889407	2.335509
Century 21 prestimmo conseil	5 avenue du general leclerc  92100 boulogne billancourt	01 55 20 20 20	92100	48.833114	2.242439
Century 21 quai  ouest	3 boulevard victor  75015 paris 15ème	01 42 19 00 00	75015	48.835874	2.279971
Century 21 quai ouest	32 avenue félix faure  75015 paris	01 45 57 21 21	75015	48.841689	2.289054
Century 21 republique	17 avenue de la republique  75011 paris 11eme	01 40 21 00 50	75011	48.866217	2.370261
Century 21 saint martin immobilier	212 rue du faubourg saint martin 75010 paris	01 55 26 90 40	75010	48.879768	2.363721
Century 21 saint-fargeau	100 avenue gambetta  75020 paris	01 40 30 20 90	75020	48.87097	2.403896
Century 21 sorim	43 rue ordener  75018 paris	01 42 59 09 09	75018	48.890867	2.35285
Century 21 voltaire	139 boulevard voltaire  75011 paris	01 40 09 52 90	75011	48.855893	2.383628
Cep	34 avenue des champs elysees  75008 paris	01 43 59 03 88	75008	48.869957	2.308155
Cepi	158 avenue de suffren  75015 paris 15ème	01 53 69 58 12	75015	48.846819	2.307462
Ceti immobilier	17 rue riquet  75019 paris	01 42 05 30 35	75019	48.888258	2.374666
Cfab gerance	1 boulevard diderot  75012 paris 12ème	01 40 02 92 08	75012	48.84542	2.368602
Cfti	1  voie felix eboué 94000 creteil	06 26 57 27 96	94000	48.798137	2.450263
Cgap immobilier	23 avenue louis cordelet  72000 le mans	02 43 28 99 28	72000	48.012509	0.187977
Challenge immobilier	99 rue monge  75005 paris	01 43 36 70 10	75005	48.841028	2.35203
Chambre avec vue	25 bd garibaldi  75015 paris	01 43 06 41 05	75015	48.847243	2.304591
Champion immobilier	111b rue championnet  75018 paris 18ème	06 18 26 29 92	75018	48.895694	2.340116
Chandelon et associes	11 rue de la fontaine du but  75018 paris 18ème	01 42 64 87 93	75018	48.890239	2.338879
Chardeau & mazeret	149 rue de la pompe  75116 paris 16ème	06 62 47 23 09	75116	48.868797	2.281665
Charonne immobilier	37 - 41 boulevard de charonne, 75011 paris 11ème	01 43 48 52 52	75011	48.851695	2.397819
Chasseurdappartement.com	48 rue de sevres  92100 boulogne billancourt	01 46 21 60 30	92100	48.834301	2.228172
Chlb	6 rue henri heine  75016 paris	01 42 88 01 58	75016	48.851278	2.266789
City home	60 boulevard paul vaillant couturier  94200 ivry sur seine	01 75 43 57 20	94200	48.817799	2.398152
City real	18 rue du temple  75004 paris 4eme	01 42 77 91 57	75004	48.858545	2.353483
Citya etoile	12b rue kepler  75116 paris	330156525050	75116	48.869937	2.297106
Citya pecorari	9 rue de joinville  75019 paris	01 40 36 82 09	75019	48.890574	2.378499
Citya teissier sabi	68 rue des cevennes  75015 paris	330144262262	75015	48.84152	2.282391
Citya urbania paris	35 rue de rome  75008 paris 8ème	01 44 70 21 30	75008	48.877326	2.322863
Cityreal partners	18 av franklin roosevelt 75008 paris	06 84 98 71 41	75008	48.871616	2.310236
Civel immobilier	56 avenue marceau  75008 paris	01 47 20 36 28	75008	48.869757	2.298496
Claude bernard immobilier	5 rue claude bernard 75005 paris	01 43 36 17 36	75005	48.838643	2.349933
Cld immobilier	98 rue du pdt f mitterand  91160 lonjumeau	01 69 34 43 14			
Cle de sol immobilier	64 rue de longchamp  75116 paris 16ème	01 44 96 75 44	75116	48.865175	2.286208
Cler immobilier	5 rue du champ de mars  75007 paris 7ème	01 47 05 78 26	75007	48.856462	2.306165
Clic & biens	17 rue madeleine  78220 viroflay	01 30 24 65 05	78220	48.80033	2.163424
Cmb	101 rue de prony  75017 paris	01 42 12 79 02	75017	48.884475	2.298791
Cmc patrimoine	38 av de la motte picquet  75007 paris	01 44 42 97 77	75007	48.855061	2.306361
Cmdi et associes	39 rue francois 1er  75008 paris 8ème	01 56 62 36 36	75008	48.868721	2.303394
Cmh invest	77 rue brancion  75015 paris 15ème	01 48 42 93 04	75015	48.831752	2.302842
Cmre	78 avenue des champs elysées 75008 paris	01 81 70 98 00	75008	48.871233	2.304148
Cnti	6 rue baudin 94160 saint-mandé	06 17 42 68 98	94160	48.838201	2.41427
Cocojet immobilier	8 rue de la grande chaumiere  75006 paris 6ème	06 43 27 27 27	75006	48.842388	2.330848
Codaci	39 rue de palestro  75002 paris 2ème	01 42 36 32 42	75002	48.866947	2.352298
Cofim	46 rue paul valery  75116 paris 16ème	01 40 07 99 74	75116	48.872088	2.287795
Cogefim	60 rue francois 1er  75008 paris	01 56 88 38 38	75008	48.869886	2.301931
Cogespro	151 av jean baptiste clement  92140 clamart	01 46 32 23 40	92140	48.791343	2.262928
Cogestra	100 av kleber  75116 paris	01 48 54 15 55	75116	48.865593	2.288829
Cogim	47 avenue de la resistance  93341 le raincy cedex	01 43 02 86 60	93340	48.893686	2.512437
Cogimmo	105 rue l'abbe groult  75015 paris 15ème	01 45 33 44 20	75015	48.837423	2.29987
Coldwell banker demeure prestige	8 rue lamennais  75008 paris 8ème	01 83 53 53 53	75008	48.873941	2.302992
Coldwell banker groupe demeure	8 rue lamennais 75008 paris	01 83 53 53 53	75008	48.873941	2.302992
Coldwell banker® alcapa invest	52 rue de longchamp  92200 neuilly sur seine	01 47 22 03 45	92200	48.881831	2.25493
Colleu immobilier	4 rue archange  91400 orsay	01 69 86 12 86	91400	48.698158	2.186883
Colombus groupe	214 rue de rivoli  75001 paris 1er	06 62 12 19 59	75001	48.864665	2.329557
Come in house	117 rue de charenton  75012 paris 12ème	06 64 34 65 39	75012	48.846009	2.379763
Compagnie business immobilier	21 rue de fécamp  75012 paris	09 53 44 20 80	75012	48.835324	2.398846
Compagnie d'immeubles reunis	77 boulevard malesherbes  75008 paris 8ème	09 51 82 71 67	75008	48.877234	2.31667
Compagnie de gestion immobiliere & associes	19 rue claude pouillet  75017 paris 17ème	01 43 80 74 99	75017	48.88405	2.314804
Compagnie francaise de commercialisation immobiliere	20 rue de longchamp  75116 paris	06 18 95 79 05	75116	48.865004	2.291065
Compagnie immobiliere de la boetie - cib	6 rue la boétie 75008 paris	01 40 07 90 90	75008	48.874444	2.318435
Comptoir immo paris	11 rue du pont aux choux  75003 paris 3ème	01 42 72 67 10	75003	48.861069	2.366113
Concept loft	38 rue francois 1er  75008 paris 8ème	01 47 18 33 20	75008	48.868219	2.304592
Concorde invest	24 rue de caumartin  75009 paris 9ème	01 75 00 04 85	75009	48.871861	2.328246
Concordia	51 rue sainte anne 75002 paris	01 42 96 04 04	75002	48.867402	2.335975
Connectim	31 avenue de ségur  75007 paris 7ème	06 11 14 19 00	75007	48.851019	2.309646
Connexion immobilier	82 rue monge  75005 paris 5eme	01 55 43 00 10	75005	48.842027	2.351904
Connexion immobilier	72 avenue henri ginoux  92120 montrouge	01 46 73 07 07	92120	48.816605	2.321143
Connexion immobilier	44 boulevard du general leclerc  92110 clichy	01 77 37 10 10	92110	48.902031	2.314533
Connexion location / gestion	62 rue d'orsel  75018 paris	01 53 09 28 08	75018	48.883588	2.340228
Conseil immobilier	155 rue de vaugirard  75015 paris 15ème	01 42 19 98 54	75015	48.843732	2.315455
Conseil immobilier parisien	287 289 rue de belleville  75019 paris 19ème	01 42 00 22 22	75019	48.876051	2.401409
Conseil rive gauche	38 rue des cinq diamants 75013 paris	01 43 31 53 68	75013	48.828478	2.350274
Consortium français immobilier	3 bd garibaldi  75015 paris	06 72 79 71 12	75015	48.847757	2.302851
Constantgestion	243b boulevard pereire  75017 paris	01 44 69 31 20	75017	48.879061	2.286783
Consultant immobilier	79 boulevard de courcelles  75008 paris	01 48 88 02 02	75008	48.878346	2.300182
Consultants immobilier	67 avenue de breteuil  75007 paris	01 45 67 25 25	75007	48.847905	2.312183
Consultants immobilier	8 rue corot  75016 paris	01 46 47 27 27	75016	48.847427	2.269509
Consultants immobilier	27 rue de chartres  92200 neuilly sur seine	01 41 92 09 09	92200	48.881442	2.278106
Consultants immobilier	27 rue de la ferme 92200 neuilly sur seine	01 41 43 99 99	92200	48.877852	2.251355
Consultants immobilier	79b rue j b clement 92100 boulogne	01 41 22 99 99	93200	48.938521	2.369396
Consultants immobilier	1 place du costa rica 75016 paris	01 42 88 96 96	75016	48.858705	2.284495
Consultants immobilier	62 avenue felix faure  75015 paris 15ème	01 44 26 22 22	75015	48.840497	2.286097
Consultants immobilier	77 rue voltaire  92300 levallois perret	01 47 30 53 53	92300	48.89374	2.28831
Contact invest	33 bd magenta  75010 paris	06 23 44 53 51	75010	48.87171	2.35992
Convention realisation immobiliere	179 rue de la convention  75015 paris	01 45 33 44 24	75015	48.837925	2.29513
Cordal immo	8 rue bois le vent  75016 paris 16ème	01 55 74 62 62	78940	48.805137	1.757761
Cordissimmo sival	156 rue montmartre  75002 paris	01 42 33 60 81 / 01 56 08 15 00	75002	48.869788	2.342988
Corinne orbach immobilier	111-113 rue saint charles  75015 paris	01 45 77 98 54	75015	48.845137	2.284322
Cosemiic	28 avenue de messine  75008 paris 8ème	01 45 63 39 04	75008	48.877004	2.312003
Costes immobilier	71 grande rue charles de gaulle  94130 nogent sur marne	01 48 73 76 76	92600	48.905773	2.286474
Cosy home	141 rue vaugirard  75015 paris	01 47 83 91 00	75015	48.844144	2.31682
Cote 15	62 rue blomet  75015 paris	01 45 67 42 26	75015	48.842166	2.304148
Côté 18	19 rue ramey  75018 paris 18eme	01 56 55 53 03	75018	48.888004	2.346913
Cote bois	37 rue raymond du temple  94300 vincennes	01 53 66 95 55	94300	48.847343	2.438079
Cöte particuliers boulogne billancourt	274 boulevard jean jaures  92100 boulogne billancourt	01 41 41 93 90	92100	48.826093	2.247643
Cote particuliers paris 15	239b rue de vaugirard 75015 paris 15ème	01 42 19 02 86	75015	48.840933	2.306267
Cote particuliers paris 8 monceau	3 avenue de messine  75008 paris 8ème	01 40 08 08 48	75008	48.875794	2.313933
Cote prestige	7 9 rue de la felicite  75017 paris	06 14 66 48 54	75017	48.886609	2.309586
Cote racines	39 rue de la fontaine au roi 75011 paris 11ème	07 60 17 05 79	75011	48.868277	2.371781
Cotragi (sarl)	20 rue sarrette  75014 paris	01 40 47 96 02	75014	48.826751	2.330023
Cour interieure	3 rue cernuschi 75017 paris 17eme	06 19 88 06 94	75017	48.886234	2.307006
Courcelles immobilier	36 rue washington  75008 paris 8ème	01 42 67 53 53	75008	48.873819	2.304139
Cours saint-germain	2 rue de la ville neuve  75002 paris 2ème	01 53 24 10 95	75002	48.869381	2.348593
Cph immobilier - paris 12 eme	266 rue de charenton  75012 paris 12eme	01 44 68 80 93	75012	48.836885	2.391436
Cph immobilier agence de paris 15	195 rue de la convention  75015 paris	01 53 68 78 00	75015	48.837028	2.297439
Cph immobilier italie 2	30 avenue d'italie centre commercial italie 2 bp 1043 75013 paris	01 45 88 16 66	75013	48.829242	2.355802
Cph immobilier paris 14	52 rue de la tombe issoire  75014 paris	01 43 35 29 50	75014	48.829875	2.33379
Craunot transactions	6 rue du fbg poissonniere  75010 paris	01 48 01 87 45	75010	48.871187	2.347977
Crdi	182 rue legendre  75017 paris	06 79 53 22 27	75017	48.891662	2.325987
Credassur xixeme	26 rue david d angers  75019 paris 19ème	06 84 87 97 71	75019	48.882071	2.391985
Crédit agricole immobilier	37 avenue pierre 1er de serbie 75008 paris	01 44 31 44 28	75008	48.867971	2.300045
Crespin immobilier	71 rue nollet  75017 paris	01 53 06 35 35	75017	48.887521	2.320272
Cric - balzano transaction	75 77 rue du pere corentin 75014 paris	01 45 40 40 65	75014	48.823441	2.327208
Cristal patrimoine	39 rue richard lenoir  75011 paris 11ème	01 43 56 67 20	75011	48.8563	2.381225
Csm gestion	13 rue de presles  75015 paris 15ème	01 42 73 92 76	75015	48.852234	2.296594
Cyrus immobilier	153 boulevard haussmann  75008 paris	01 53 76 49 10	75008	48.874943	2.310606
D v immobilier	95 rue de montreuil  75011 paris	01 43 70 31 21	75011	48.850575	2.39337
D'hier a demain immobilier	1 rue bourdaloue 75009 paris	01 55 07 97 74 / 06 13 01 27 03	75009	48.876162	2.338465
D'un appart a l'autre	25 rue saint marc  75002 paris 2ème	09 80 63 41 16	75002	48.87046	2.339756
D.degueldre gestion	86 rue de monceau  75008 paris	01 44 70 70 35	75008	48.880322	2.316305
D.l.d. conseils	89 rue du faubourg saint martin  75010 paris	01 42 02 26 76	75010	48.873021	2.357761
D.p.l. degaine paris lyon	11 rue d'odessa  75014 paris 14ème	06 03 04 47 45	75014	48.842406	2.324646
Dames immobilier	66 rue des dames  75017 paris	06 60 67 68 97	75017	48.883542	2.320049
Daniel feau location	21 rue d'artois  75008 paris	01 56 88 24 94	75008	48.873215	2.307181
Daniel feau location 17ème	33 avenue de villiers  75017 paris	01 42 27 73 82	75017	48.882831	2.308744
Daniel feau location 5ème	111 rue monge  75005 paris	01 55 43 37 33	75005	48.839761	2.351467
Daniel feau location 7ème	118 rue saint dominique  75007 paris	01 47 05 85 69	75007	48.85812	2.301261
Daniel feau location 8ème	21 rue d'artois  75008 paris	01 56 88 24 91	75008	48.873215	2.307181
Daniel feau location neuilly	105 avenue achille peretti  92200 neuilly sur seine	01 47 45 97 36	92200	48.883765	2.27122
Daniel feau passy	11 chs muette  75016 paris	01 53 92 00 06	75016	48.858046	2.27373
Daniel feau saint germain des près	21 rue bonaparte  75006 paris	01 55 42 15 74	75006	48.855591	2.334065
Daniel feau victor hugo	86 avenue victor hugo  75116 paris	01 45 53 25 25	75116	48.869281	2.28413
Daniel glaise sarl	3 rue chasseloup laubat  75015 paris	01 47 83 47 65	75015	48.847888	2.305394
Dauchez	26 rue d'oradour sur glane cs71502  75725 paris cedex 15	01 53 98 58 58	71230	46.667796	4.380158
Daumesnil gestion	231 ave daumesnil  75012 paris	01 43 41 08 21	75012	48.838027	2.400413
Dauphine rive gauche	12 rue vavin  75006 paris 6ème	01 53 10 11 00	75006	48.844293	2.331132
Dauphine rive gauche	24 rue dauphine  75006 paris 6eme	01 43 54 43 43	75006	48.854832	2.339307
Dauphine rive gauche	81 rue du bac 75007 paris 7ème	01 53 63 09 09	75007	48.854427	2.324144
Db transactions	101 avenue des champs elysees immeuble louis vuitton 5ème etage 75008 paris 8ème	01 56 52 93 27	75008	48.871656	2.300554
De ferla immobilier	220 av du maine  75014 paris 14ème	01 53 90 49 00	75014	48.828994	2.326151
De la fourniere immobilier	75 rue boissiere  75016 paris 16ème	06 20 48 93 01	75016	48.868872	2.286478
Deberne administrateur de biens	23 rue des cloys  75018 paris	01 46 06 71 58	75018	48.89275	2.339339
Dechermont immobilier	1 square racan 75016 paris	01 44 96 82 70	75016	48.849252	2.258961
Deferla immobilier	53 rue daguerre  75014 paris 14ème	01 83 79 10 70	75014	48.834872	2.326966
Deffim	102b av george clemenceau  94360 bry sur marne	06 63 14 47 39			
Defina	2 avenue jean jaures  92120 montrouge	01 42 31 26 51	92120	48.818431	2.318621
Delon immobilier real estate company	4 place etienne pernet  75015 paris	01 55 76 55 00	75015	48.843572	2.292553
Delon immobilier real estate company	35 bd de grenelle  75015 paris	01 58 01 01 40	75015	48.85217	2.29143
Delphine patou & associés	23 rue d'amsterdam  75008 paris 8ème	06 16 66 57 50	75008	48.878095	2.326869
Demeures a paris	6 avenue de breteuil  75007 paris	01 44 42 08 88	75007	48.852691	2.311782
Demeures de l' etoile	3 rue de la renaissance  75008 paris 8ème	01 45 62 24 54	75008	48.867277	2.302742
Denicourt & associés sas	2 rue de l'exposition  75007 paris	01 45 55 21 37	75007	48.858228	2.302507
Desport gerances	5 rue de rome  75008 paris 8ème	01 53 42 64 90	75008	48.874482	2.325132
Desrue immobilier	19 av du mal de lattre de tassigny  94220 charenton le pont	01 43 96 15 58	92500	48.889071	2.181498
Devim	11 rue du jura  75013 paris	01 55 43 02 88	75013	48.837329	2.356132
Diagonale agence guy hoquet immobilier	50 rue de paris  92100 boulogne	01 46 99 60 60	92100	48.84011	2.245222
Diderot immobilier	143 boulevard diderot  75012 paris	01 44 73 06 06	75012	48.848309	2.393967
Didierlaurent immobilier	111 avenue victor hugo 75116 paris	01 40 72 74 14	75116	48.868516	2.282913
Dimo	265 rue de belleville  75019 paris	01 48 03 81 81	75019	48.875735	2.399558
Dionis	89 av gambetta  75020 paris	01 46 36 24 42	75020	48.86592	2.3992
Direct immo	91 rue de belleville  75019 paris	01 40 40 30 31	75019	48.873777	2.384724
Distinct- immo	55 rue de prony  75017 paris 17ème	01 47 64 04 51	75017	48.882353	2.303865
District	31 rue des deux ponts  75004 paris	01 43 29 15 11	75004	48.852142	2.35672
District bosquet	56 avenue bosquet  75007 paris	01 40 62 77 80	75007	48.855355	2.304896
District george v	9 rue de la tremoille  75008 paris 8ème	01 40 70 03 03	75008	48.867074	2.302884
District immobilier	14 rue d'alexandrie  75002 paris	01 53 40 74 40	75002	48.868247	2.350415
Diwann	10 rue des cordelières  75013 paris	01 47 07 01 00	75013	48.835162	2.348639
Dj conseil   etudes immobilieres	115 rue st dominique  75007 paris 7ème	06 80 27 86 23	75007	48.859108	2.304836
Dk immobilier	27 rue belgrand  75020 paris	01 40 31 96 57	75020	48.86469	2.406246
Dl&associés	48 rue gassendi  75014 paris 14ème	01 53 90 75 83	75014	48.833	2.325275
Dla	1 rue bourdaloue  75009 paris 9ème	01 55 07 97 77	75009	48.876162	2.338465
Dodim	116 avenue du général leclerc  75014 paris 14ème	01 56 08 32 20	75014	48.825419	2.325807
Domiere	18b rue pierre demours  75017 paris	01 45 74 08 08	75017	48.880484	2.293074
Domus rome	38 rue de constantinople  75008 paris 8eme	01 71 19 97 77	75008	48.880999	2.317509
Dpmb gestion	9 rue dareau  75014 paris 14eme	01 45 88 21 10	75014	48.831538	2.338428
Dream-eo	21 rue nollet 75017 paris 17eme	01 71 97 56 41	75017	48.885687	2.323269
Ds real estate paris	78 avenue raymond poincare  75116 paris 16ème	01 83 62 90 14	75116	48.869086	2.285644
Du breuil immobilier	31 avenue georges mandel  75116 paris 16ème	06 70 41 92 73	75116	48.863156	2.28292
Du coté de chez soi	1 rond point henri dunant  93600 aulnay sous bois	01 48 69 70 00			
Dual immo	3 rue pierre demours  75017 paris 17ème	0892 23 02 65	75017	48.879821	2.291384
Dunelle et associes	1 passage rauch  75011 paris	06 68 11 68 68	75011	48.853961	2.37864
Dupouy flamencourt sarl	118 130 avenue jean jaures  75019 paris	01 42 02 68 90	75019	48.88619	2.383784
Dvi - l'adresse	21 rue las cases  75007 paris 7eme	01 44 18 07 07	75007	48.858482	2.320125
Dynagest	33 rue des belles feuilles  75016 paris	01 47 27 03 87	75016	48.867105	2.281702
E b conseil	56 place st charles  75015 paris	01 45 71 01 02	75015	48.849091	2.287194
Easy immobilier	27 rue des plantes  75014 paris	01 45 40 34 00	75014	48.829617	2.323007
Ecg	77 rue d'aboukir  75002 paris 2ème	01 45 77 46 10	75002	48.867874	2.347202
Efida	206 bd pereire  75017 paris	01 45 72 02 87	75017	48.880472	2.288446
Eiffel housing	91 rue du faubourg saint honore 75008 paris 8eme	06 29 72 92 94	75008	48.871989	2.31304
Eiffel immo	68 av de la bourdonnais  75007 paris 7ème	01 40 62 93 74	75007	48.85539	2.303418
Eiffel rive gauche	2 rue cler  75007 paris	01 53 59 52 20	75007	48.859049	2.305147
Eis immobilier	10 rue de la paix  75002 paris 2ème	01 71 50 15 85	75002	48.868995	2.331141
Ejc quadral immobilier	4 rue rambervillers  75012 paris	01 43 44 23 90	75012	48.841283	2.40527
Elan immobilier	49 rue de naples  75008 paris 8ème	06 82 65 42 90	75008	48.879147	2.316093
Elcimmo	116 rue cardinet 75017 paris	01 40 53 04 90	75017	48.886092	2.312432
Elger immobilier	26 rue general beuret  75015 paris	01 44 49 72 66	75015	48.840843	2.302411
Eliott	68 rue singer  75016 paris 16ème	09 50 27 64 54	75016	48.857161	2.273538
Elite french property	48 rue de bassano  75008 paris 8ème	01 84 06 53 89	75008	48.870729	2.299413
Elyse avenue	33 rue desnouettes  75015 paris 15ème	01 56 56 80 30	75015	48.835775	2.289404
Elysée transactions	76 78 avenue des champs elysees  75008 paris	01 53 53 07 04	75008	48.871169	2.304349
Embassy service	27 avenue pierre 1er serbie  75116 paris 16ème	01 47 20 30 05	75116	48.866918	2.297969
Emile garcin paris rive gauche	5 rue de l'universite  75007 paris	01 42 61 73 38	75007	48.856561	2.330859
Emouna	26 rue duroc  75007 paris	01 40 56 00 67	75007	48.847574	2.312504
Emporio estate group	250 rue de rivoli 75001 paris 1er	01 47 03 66 00	75001	48.866268	2.324607
Eppler immobiliere	12 ave jean jaures  94220 charenton	01 48 93 27 67	94220	48.822158	2.414183
Epsim	68b boulevard pereire  75017 paris 17ème	01 42 12 04 04	75017	48.887368	2.302667
Equinimo	9 11 rue benoit malon  92150 suresnes	01 84 20 40 37	92150	48.872476	2.232775
Era agence lutece	15 rue claude bernard  75005 paris 5ème	01 45 87 08 08	75005	48.839024	2.348962
Era auteuil	12 rue d auteuil  75016 paris 16ème	01 46 47 55 55	75016	48.847584	2.267874
Era buttes chaumont	62 avenue simon bolivar  75019 paris	01 40 40 04 20	75019	48.877899	2.37425
Era charonne bastille	91 rue de charonne  75011 paris 11ème	01 43 70 75 75	75011	48.854095	2.382482
Era emile zola immobilier	91 rue du theatre  75015 paris	01 53 95 31 30	75015	48.847058	2.293062
Era esimmo	318 rue saint martin  75003 paris 3ème	01 42 74 62 50	75003	48.868096	2.355248
Era haussmann st-lazare	1 place de budapest  75009 paris 9ème	01 45 26 18 18	75009	48.877048	2.327181
Era immobilier	61 rue voltaire  92300 levallois perret	01 80 48 20 62	92300	48.892944	2.286438
Era immobilier	27 av de la republique  93300 aubervilliers	01 48 11 15 95	93300	48.911836	2.384271
Era immobilier - beaubourg gti	10 rue brantome  75003 paris	01 44 61 80 80	75003	48.861904	2.352911
Era monceau montaigne	127 boulevard haussmann  75008 paris 8ème	01 82 28 50 95	75008	48.875059	2.313648
Era montmartre	18 rue durantin  75018 paris 18ème	01 56 55 50 70	75018	48.885883	2.33699
Era neuilly sur marne	avenue du general de gaulle  93330 neuilly sur marne	01 43 08 51 51	93330	48.857852	2.533794
Era perimo	143 boulevard pereire  75017 paris	01 43 18 07 99	75017	48.883582	2.295129
Era sabim	181 rue d'alesia  75014 paris	01 45 45 07 45	75014	48.831098	2.316911
Era saint charles immobilier	44 rue des entrepreneurs  75015 paris	01 58 01 00 22	75015	48.846111	2.286647
Era victor hugo	32 rue copernic  75116 paris	01 45 05 29 00	75116	48.869379	2.288147
Era villiers/mh conseil immobilier	55 boulevard des batignolles  75008 paris 8ème	01 44 70 16 00	75008	48.881472	2.318306
Ere	59 rue de ponthieu  75008 paris 8eme	01 53 76 28 32	75008	48.872119	2.304919
Espace immobilier	125 avenue parmentier  75011 paris	01 43 38 56 30	75011	48.868872	2.371706
Espace jouffroy	36 rue jouffroy d'abbans  75017 paris	01 43 18 22 40	75017	48.885888	2.308999
Espaces & prestige	60 rue françois 1er 75008 paris 8ème	07 61 15 20 00	75008	48.869886	2.301931
Espaces atypiques	64 rue des tournelles  75003 paris 3ème	01 42 71 03 84	75003	48.85713	2.36741
Espassimo	28 rue du laos  75015 paris	01 43 06 16 30	75015	48.849037	2.301207
Estimmo	20 rue fabre d'eglantine  75012 paris	01 43 07 15 15	75012	48.847015	2.395835
Etik immo	84 avenue de verdun  93230 romainville	01 48 91 20 78	93230	48.882787	2.434924
Etoile carnot immobilier	14 av carnot  75017 paris	01 40 55 97 84	75017	48.87594	2.293429
Etoile immobilier	6b rue lamartine  06000 nice	04 93 87 01 57	6300	43.701663	7.269406
Etoile prestige	33 rue duret  75116 paris 16ème	01 75 77 32 85	75116	48.875549	2.28661
Etude amboise immobilier	191 boulevard pereire  75017 paris	01 53 81 71 73	75017	48.881752	2.291763
Étude avdl terrasses-balcons.com	12 rue dombasle  75015 paris 15ème	06 07 10 60 04	75015	48.836391	2.296634
Etude caraudrey	31 rue st antoine  75004 paris	01 42 74 59 58	75004	48.853699	2.365119
Etude carnot 5	5 avenue carnot  75017 paris	06 62 33 71 40	75017	48.875245	2.293392
Etude chaligny	10 bis rue de chaligny  75012 paris 12ème	01 44 67 80 90	75012	48.845721	2.383692
Etude conseil immobilier	50 52 rue edouard pailleron  75019 paris 19ème	01 42 00 67 60	75019	48.881253	2.379599
Etude constantin pecqueur	95 rue caulaincourt  75018 paris	01 42 52 01 01	75018	48.889717	2.338365
Étude couderc	18 avenue de la republique  75011 paris	01 43 55 89 44	75011	48.866279	2.368458
Etude de la butte	4 rue damremont  75018 paris	01 42 64 03 64 / 01 42 64 18 26	75018	48.887151	2.332661
Etude dll	6 boulevard jules ferry  75011 paris 11eme	01 53 19 49 49	75011	48.867116	2.369053
Etude du theatre	96 98 rue du theatre  75015 paris	01 45 79 89 49	75015	48.846783	2.293453
Etude finzi	39 rue damremont  75018 paris	01 53 09 98 98	75018	48.889806	2.333752
Etude gite	18 rue didot  75014 paris 14eme	01 45 43 88 60	75014	48.832842	2.320711
Etude gordolon	83 rue ordener  75018 paris	01 42 64 96 66	75018	48.89174	2.348099
Etude immobilière ori	75 avenue mozart  75016 paris	01 45 25 50 23	75016	48.853184	2.268696
Etude jan	184 bis avenue daumesnil 75012 paris	01 43 46 11 76	75012	48.838583	2.397723
Etude la roquette	77 rue de la roquette  75011 paris	01 43 73 73 75	75011	48.856731	2.377547
Etude lacuee	18 rue lacuée 75012 paris	01 40 01 07 35	75012	48.84916	2.370365
Etude lepic	45 rue lepic 75018 paris 18ème	01 42 58 11 11	75018	48.886857	2.333717
Etude lodel	62 rue gioffredo  06000 nice	04 93 80 75 24	6300	43.69859	7.270648
Etude mocler	21 rue cambronne  75015 paris	01 45 67 20 10	75015	48.846226	2.302016
Étude monge	27 rue monge  75005 paris	01 43 29 53 14 / 01 43 29 28 00	75005	48.847081	2.351411
Etude ms	15 place d'aligre  75012 paris	01 55 78 23 56	75012	48.848842	2.378851
Étude rive gauche	122 boulevard raspail  75006 paris	01 42 22 70 63	75006	48.843829	2.32884
Etude s.mayorkas	176 rue de la convention  75015 paris	01 42 50 12 13	75015	48.838204	2.294036
Etude sainclair	142 rue de vaugirard  75015 paris	01 45 67 01 22	75015	48.84465	2.318293
Etude saint dominique	112 rue saint dominique  75007 paris 7ème	01 42 50 02 04	75007	48.858469	2.302219
Etude saint fargeau	35 rue haxo  75020 paris	01 43 61 84 09	75020	48.871272	2.404486
Etude saint louis	16 quai orléans  75004 paris	01 56 81 17 81	75004	48.851509	2.354784
Etude st lambert	174 rue lecourbe  75015 paris	01 53 68 64 00	75015	48.841441	2.29833
Etude valri	130 boulevard voltaire  75011 paris	01 43 79 11 11	75011	48.857468	2.380373
Etude wagram	75 av de wagram  75017 paris	01 47 64 44 77	75017	48.87937	2.298878
Eureka immobilier	1 rue jean moreas  75017 paris	01 47 63 37 54	75017	48.886587	2.292575
Euro conseil immobilier	41 avenue kleber  75116 paris	01 53 65 18 18	75116	48.868763	2.291671
Euro invest	2 rue chaptal  75009 paris	01 42 80 99 99	75009	48.880637	2.334427
Euro transactions	58 rue crozatier  75012 paris	01 44 74 07 46	75012	48.849287	2.379887
Europa	24 rue du champ de mars  75007 paris	01 47 05 24 10	75007	48.856052	2.303854
Evolis	21 rue de la banque  75002 paris 2ème	01 81 72 00 00	75002	48.868359	2.341094
Excel immobilier	17 avenue mathurin moreau  75019 paris	01 40 03 00 10	75019	48.878306	2.372362
Excel pro immo	85 rue de tolbiac  75013 paris	06 08 91 43 31	75013	48.827048	2.367383
Exclusives demeures - doris simon conseil eurl	42 rue de bellechasse  75007 paris	01 47 53 00 01	75007	48.857609	2.322174
Expert viager	12 rue de la cordonnerie  77100 meaux	01 64 35 74 81	77100	48.959377	2.879298
Extea patrimoine	2 rue henri marrou  92290 chatenay malabry	01 41 28 57 07	92290	48.766729	2.279581
F-transactions	120 av victor hugo  75116 paris 16ème	06 77 55 73 07	75116	48.867887	2.280834
F. petitjean & associes	56 rue de la pompe  75016 paris	01 70 08 09 12	75016	48.862207	2.276121
F.g.d.i pereire	217 boulevard pereire  75017 paris	01 44 09 92 17	75017	48.880723	2.289852
Fables de murs	14 rue charles v  75004 paris 4ème	01 43 08 56 69	75004	48.853325	2.362026
Fagimo sas	88 avenue de villiers  75017 paris	01 47 66 44 00	75017	48.884527	2.301652
Fair play immobilier	39 rue dupleix 75015 paris 15ème	01 42 22 00 80	75015	48.850698	2.29578
Faurie immobilier	55 rue de tocqueville  75017 paris 17ème	01 40 54 13 12	75017	48.885374	2.310227
Feau 9ème	52 rue des martyrs  75009 paris 9ème	01 55 31 94 77	75009	48.879662	2.34022
Fgp immobilier	7 rue felix faure  94300 vincennes	01 58 64 38 09	94300	48.847491	2.452212
Fiac	18-26 rue goubet  75019 paris 19ème	01 44 52 51 50	75019	48.885823	2.390105
Fidef	22 rue lacharriere 75011 paris	01 49 23 86 96	75011	48.862447	2.379225
Fiduciaire wayenberg	16 18 avenue de villars  75007 paris	01 53 58 05 01	75007	48.851682	2.313583
Figam	3 passage lepic 75018 paris	01 42 23 11 07	75018	48.884676	2.334142
Figam	17 19 rue mesnil  75116 paris	01 77 13 53 33	75116	48.867916	2.284311
Fimmassur	49 rue de maubeuge  75009 paris 9eme	01 55 32 28 46	75009	48.879071	2.347197
Financiel immobilier	141 rue cardinet  75017 paris	01 58 60 30 80	75017	48.8869	2.313364
Finordev	5 rue de logelbach  75017 paris 17ème	01 47 64 65 90	75017	48.881502	2.308166
Finorgest - safar	49 avenue de la grande armee  75116 paris 16ème	01 56 99 99 82	75116	48.875515	2.288469
First address	22 rue des carmes  75005 paris	01 56 24 83 02	75005	48.848595	2.347198
First city conseils	65 rue saint dominique  75007 paris 7ème	01 45 55 43 59 / 06 61 40 18 19	75007	48.859892	2.310887
First habitat	82 rue des rigoles  75020 paris 20eme	01 43 58 33 77	75020	48.873722	2.390145
Flashabitat	29 rue brochant  75017 paris	01 42 26 14 12	75017	48.889436	2.318468
Fleuron immobilier	32 avenue rapp  75007 paris 7ème	01 42 66 53 93	75007	48.858205	2.300088
Fmp consults	24 avenue philippe auguste 75011 paris 11ème	01 44 93 74 79	75011	48.850943	2.394546
Foncia avenir	70 rue guy moquet 75017 paris	01 53 04 16 60	75017	48.892748	2.326649
Foncia cardinet	112t rue cardinet 75017 paris	01 44 15 70 00	75017	48.885824	2.312009
Foncia coulée verte	186 rue de charenton  75012 paris 12eme	01 75 77 55 70	75012	48.843509	2.384895
Foncia courcelles	3 rue rossini 75009 paris	01 42 81 42 81	75009	48.872848	2.340869
Foncia fjb conseil	79 rue riquet  75018 paris 18ème	01 40 05 09 26	75018	48.890057	2.360948
Foncia franco suisse	70 rue saint lazare 75009 paris	01 53 04 15 15	75009	48.876205	2.330644
Foncia gobelins	100 boulevard du montparnasse 75014 paris	01 44 08 80 90	75014	48.842398	2.327803
Foncia h3m immo	38 rue faidherbe  75011 paris 11ème	01 77 72 66 66	75011	48.853044	2.383069
Foncia jussieu	8 rue linne  75005 paris 5ème	01 44 08 05 27	75005	48.844443	2.354939
Foncia karena	43 rue boulard  75014 paris	01 45 39 76 00	75014	48.832356	2.327811
Foncia lafayette	96 rue du faubourg poissonniere  75010 paris 10ème	01 48 00 01 00	75010	48.87814	2.34924
Foncia paris	70 rue saint lazare 75009 paris	01 53 41 42 43	75009	48.876205	2.330644
Foncia segg	100 boulevard du montparnasse 75014 paris	01 44 78 60 78	75014	48.842398	2.327803
Foncia suffren	157 av de suffren  75015 paris 15ème	01 53 58 03 90	75015	48.846308	2.309019
Foncia transaction location	85 avenue de wagram 75017 paris	01 56 33 98 21	75017	48.880659	2.299813
Foncia transaction location	178 avenue daumesnil 75012 paris	01 56 95 07 90	75012	48.838768	2.397218
Foncia transaction location	57 avenue mozart 75016 paris	01 55 74 41 30	75016	48.854741	2.269589
Foncia transaction location	38 40 avenue des gobelins 75013 paris	01 45 87 69 02	75013	48.835443	2.352497
Foncia transaction location	28 rue rambuteau 75003 paris	01 48 04 77 00	75003	48.861103	2.354004
Foncia transaction location	54 avenue du docteur arnold netter 75012 paris	01 53 04 15 57	75012	48.844999	2.405941
Foncia transaction location	31 avenue felix faure 75015 paris	01 53 98 28 00	75015	48.841531	2.28923
Foncia transaction location	11 avenue laumiere 75019 paris	01 55 30 10 50	75019	48.883278	2.380875
Foncia transaction location	70 rue saint lazare 75009 paris	01 55 30 10 43	75009	48.876205	2.330644
Foncia transaction location	76 rue de tolbiac 75013 paris	01 53 04 15 05	75013	48.827146	2.366751
Foncia transaction location	64 boulevard magenta 75010 paris	01 55 26 90 90	75010	48.87415	2.358212
Foncia transaction location	100b rue ordener 75018 paris	01 42 64 61 41	75018	48.893001	2.341715
Foncia transaction location	238 rue des pyrenees 75020 paris	01 43 15 14 00	75020	48.8677	2.39644
Foncia transaction location	27 boulevard du montparnasse 75006 paris	01 49 54 77 78	75006	48.8453	2.320254
Foncia transaction location	12 rue mandar 75002 paris	01 53 45 84 20	75002	48.865742	2.345497
Foncia transaction location	75 avenue de la republique 75011 paris	01 58 30 66 66	75011	48.864389	2.379897
Foncia transaction location	81 avenue bosquet 75007 paris	01 47 05 63 73	75007	48.855243	2.305465
Foncia transaction location	104 avenue de flandre 75019 paris	01 53 26 86 85	75019	48.891212	2.377892
Foncia transaction location	129 avenue du maine 75014 paris	01 56 80 16 70	75014	48.835153	2.324131
Foncia transaction location	25 boulevard voltaire 75011 paris	01 53 36 13 00	75011	48.865003	2.368333
Foncia transaction location	22 rue des ecoles 75005 paris	01 55 30 10 70	75005	48.848769	2.348298
Foncia transaction location	70 rue saint lazare 75009 paris	01 53 04 15 60	75009	48.876205	2.330644
Foncia transaction location	226 rue de vaugirard 75015 paris	01 44 38 71 05	75015	48.840691	2.304945
Foncia trocadero	20 rue scheffer  75016 paris 16ème	01 56 28 06 20	75016	48.861214	2.283237
Foncier logis	151 rue ordener  75018 paris	01 42 62 02 82	75018	48.893215	2.338712
Fonciere de ville	30 av simon bolivar  75019 paris 19ème	01 48 05 60 00	75019	48.877899	2.37425
Fonciere des beaux arts	16 rue du colisee  75008 paris 8ème	09 54 51 72 87	75008	48.870778	2.308546
Fonciere du louvre	28 rue saint charles  75015 paris	01 45 75 99 95	75015	48.850638	2.288913
Fonciere et immobiliere de paris	52 rue sebastien mercier  75015 paris	01 45 78 33 34	75015	48.843818	2.279886
Fonciere perignon	23 rue d'ouessant   75015 paris 15ème 75014 paris 14ème	01 45 67 70 79	75015	48.849822	2.29819
Fonciere saint jean	1 rue castex  75004 paris	01 44 78 84 38	75004	48.852419	2.36595
Fortagest immobilier	7 rue lacordaire  75015 paris 15ème	06 46 12 04 09	75015	48.843861	2.28424
Fortim	46 rue decamps 75016 paris 16ème	01 45 03 37 11	75016	48.863185	2.27721
France ermitage	5 rue berryer  75008 paris	01 42 56 23 42	75008	48.875163	2.30396
France immobilier mairie	7 avenue de la republique  94100 st maur des fosses	01 45 11 00 00	94100	48.803582	2.486172
France lodge immobilier	2 rue meissonier  75017 paris 17ème	01 56 33 85 88	75017	48.882488	2.304421
France viager	102b rue de miromesnil  75008 paris	01 55 12 11 59	75008	48.880269	2.31549
Francois premier real estate	19 rue de la tremoille 75008 paris 8eme	06 74 57 69 30	75008	48.867782	2.304136
Francois querrec immobilier	23b rue du surmelin  75020 paris 20eme	01 43 64 26 51	75020	48.868487	2.404029
Frank pila immobilier	22 place du marche au ble face bnp  77400 lagny sur marne	01 64 30 09 75			
Freestone	20 avenue de messine 75008 paris	01 47 20 32 18	75008	48.876361	2.313402
French home paris - rive gauche	3 rue sedillot  75007 paris 7ème	01 47 05 25 20	75007	48.859128	2.301602
Ftim	14 rue notre dame de lorette  75009 paris 9ème	01 42 55 46 00	75009	48.877669	2.338385
G.c.p.i.	30 rue de saint petersbourg  75008 paris	01 45 22 67 05	75008	48.882243	2.32612
G.e.r / gerimmo	58 rue saint honore  75001 paris 1er	01 53 90 11 21	75001	48.861274	2.343736
G.immo	40 rue louis blanc  75010 paris 10ème	01 53 26 46 56	75010	48.88164	2.364387
G.r.i (gestion réalisations immobilieres)	96 rue victoire  75009 paris	01 48 74 26 98	75009	48.874829	2.330564
G.s.i.m	162 bd du general de gaulle bp 41 92380 garches	01 47 95 31 00	92380	48.838963	2.187311
Galichon dominique - cga transaction	53 rue de rome  75008 paris 8ème	01 53 20 44 03	75008	48.87905	2.321944
Galilee gestion	22 rue des volontaires  75015 paris	01 47 83 68 09	75015	48.842091	2.307424
Garance immobilier	226 avenue daumesnil  75012 paris	01 53 44 77 88	75012	48.837355	2.401069
Garance immobilier	46 rue d'alesia  75014 paris	01 40 64 90 00	75014	48.827933	2.328655
Garance immobilier	17 avenue de villiers  75017 paris	01 78 09 54 80	75017	48.881812	2.313539
Gay lussac immobilier (cabinet gerpi)	45 rue gay lussac  75005 paris	01 43 25 97 16	75005	48.841829	2.343433
Gb immobilier	8 rue corvetto  75008 paris	01 42 56 13 22	75008	48.877562	2.314958
Gemofis	251 boulevard pereire siege 75017 paris 17ème	01 40 55 82 92	75017	48.87874	2.286183
Générale immobilière du nord	87 boulevard sebastopol  75002 paris	01 45 08 56 68	75002	48.864974	2.351608
Generation immo	13 rue de wattignies  75012 paris 12ème	01 43 40 44 70	75012	48.836729	2.393045
Genillard investissements	8 rue blanche  75009 paris 9ème	06 71 00 52 01	75009	48.87728	2.332232
Geralpha gestion	25 av jean moulin  75014 paris 14ème	01 45 45 36 82	75014	48.826273	2.323491
Gerando immobilier	2 rue gerando  75009 paris	01 42 81 55 00	75009	48.88194	2.345272
Gerard safar sa	49 avenue de la grande armee  75116 paris 16ème	01 58 05 40 00	75116	48.875515	2.288469
Gesic	30 rue pierre lescot  75001 paris	01 44 88 99 55	75001	48.863537	2.349056
Gessim	65, avenue versailles  75016 paris	01 40 50 87 32	75016	48.84712	2.273662
Gestim	88 rue saint louis en l ile  75004 paris 4ème	01 40 02 93 47	75004	48.852762	2.354072
Gestim	25 rue robert de flers  75015 paris	01 45 78 79 79	75015	48.848935	2.283505
Gestimad	35 avenue la motte picquet  75007 paris	01 53 24 94 96	75007	48.854826	2.306675
Gestion capital partners	20 rue des fosses saint bernard  75005 paris	01 84 79 16 79	75005	48.848524	2.354723
Gestion immobiliere daumesnil	5 rue du docteur goujon  75012 paris	01 43 43 76 24	75012	48.839955	2.397857
Gestion immobiliere de l'ensemble parisien	28 rue leon frot  75011 paris	01 55 25 26 00	75011	48.854833	2.387542
Gestion immobiliere francaise (gif)	42 rue galande  75005 paris 5eme	01 42 50 89 55	75005	48.851607	2.347076
Gestion passion	8 avenue de la république 75011 paris	01 40 21 48 38	75011	48.866653	2.366493
Gestion passy	7 rue poussin  75016 paris 16ème	01 45 20 02 00	75016	48.848788	2.265008
Gestissimmo paris	15 rue ruhmkorff  75017 paris 17ème	01 45 74 39 09	75017	48.881562	2.286488
Gestya	6 rue dugommier  75012 paris 12ème	09 81 72 46 66	75012	48.839488	2.390676
Getahomeinfrance.co.uk	11 rue christophe colomb  75008 paris	06 09 33 91 68	75008	48.869725	2.29929
Getrim 5	4 avenue de l'opera  75001 paris	01 43 07 88 40	75001	48.864573	2.335369
Gf immobilier	34 rue singer  75016 paris	06 27 94 06 34	75016	48.856625	2.276686
Gfi conseil	36 rue de paris  93100 montreuil	01 48 59 84 84	93100	48.857803	2.434214
Giep giv	28 rue paroisse  78000 versailles	01 39 07 30 66	78000	48.807681	2.127679
Gifom	3 rue jean mace  75011 paris 11ème	01 43 56 16 77	75011	48.852846	2.384189
Gil immo	1 avenue gallieni  77000 melun	01 64 37 60 73	77000	48.529287	2.654899
Gimcovermeille	81b boulevard de la republique  92420 vaucresson	01 47 95 50 50	92420	48.837501	2.155632
Gimcovermeille	15 avenue carnot  78700 conflans sainte honorine	01 39 19 27 64	78700	48.995429	2.094783
Ginza	39 rue taitbout  75009 paris 9ème	06 52 22 87 62	75009	48.874057	2.335237
Gipemya	8 rue commandant schloesing  75116 paris	01 53 70 49 49	75116	48.861839	2.284251
Glamour apartments	100 avenue kleber  75116 paris 16ème	06 98 76 57 75	75116	48.865593	2.288829
Global real estate services (gres)	10 avenue de salonique  75017 paris 17ème	06 77 58 99 64	75017	48.882131	2.284219
Globe immobilier	76b rue de la federation  75015 paris 15ème	01 40 65 90 90	75015	48.853061	2.29666
Gma	9 avenue de villiers  75017 paris 17ème	01 47 55 15 27	75017	48.881683	2.314151
Godo et fenech gestion	104 rue marcadet  75018 paris 18ème	01 42 26 26 79	75018	48.891209	2.344
Goldwelling	26 rue george sand  75016 paris 16ème	01 43 06 94 39	75016	48.850147	2.268044
Gpti sabim	122 124 rue de l ouest  75014 paris	01 45 45 46 94	75014	48.833392	2.314303
Grech immobilier	46 boulevard jean jaures  92100 boulogne billancourt	01 46 99 14 60	92100	48.841352	2.238996
Green park immobilier	14 place du commerce 75015 paris	01 45 32 08 09	75015	48.844619	2.293311
Gregoire de tours	35b rue gregoire de tours  75006 paris 6ème	01 43 29 27 25	75006	48.852044	2.337538
Griffaton sa	13 rue du docteur roux  75015 paris	01 47 34 75 75	75015	48.841148	2.311862
Grl gestion	4 rue du cdt riviere  75008 paris	01 53 83 74 81	75008	48.872836	2.309498
Groupama  immobilier	21 boulevard malesherbes  75008 paris 8ème	01 55 07 38 22	75008	48.87211	2.321551
Groupe adm	6 avenue langres  78310 maurepas	01 30 50 43 50	78310	48.763109	1.946215
Groupe artus	29 rue de bassano  75008 paris 8ème	01 43 25 92 04	75008	48.87042	2.298874
Groupe babylone	13 rue paul valéry  75116 paris 16ème	01 42 02 72 88	75116	48.869657	2.290646
Groupe cop	50 rue moxouris  78150 le chesnay	01 39 54 92 00 / 06 84 90 09 44	78150	48.831914	2.116601
Groupe esprimmo	369 rue des pyrenees  75020 paris	01 40 33 03 03	75020	48.873102	2.390203
Groupe foncier de l ile de france	30 avenue de messine  75008 paris 8ème	01 53 77 28 38	75008	48.877175	2.311628
Groupe franklin transaction	60 rue greneta  75002 paris	01 42 33 61 73	75002	48.865584	2.347626
Groupe immobilier europe	51 rue de rome  75008 paris	01 45 22 00 90	75008	48.878887	2.322032
Groupe invest	98 rue claude decaen  75012 paris	01 43 45 51 55	75012	48.838834	2.396221
Groupe k	1 rue charles lamoureux 75116 paris	06 07 17 43 31	75116	48.868462	2.278516
Groupe mobilis	14b rue marbeuf 75008 paris	01 45 55 05 05	75008	48.868051	2.303052
Groupe mobilis agence du champ de mars	133 rue saint dominique  75007 paris	01 47 05 50 00	75007	48.858285	2.302065
Groupe owner	8 rue euler 75008 paris	01 53 30 29 90	75008	48.871031	2.298952
Groupe trade	9 boulevard voltaire  75011 paris	01 48 07 57 65	75011	48.866152	2.366403
Groupe trade immobilier	9 boulevard voltaire  75011 paris 11ème	01 48 07 57 64	75011	48.866152	2.366403
Groupe v m h	97b rue jouffroy d'abbans  75017 paris	01 42 67 79 79	75017	48.882111	2.301898
Groupement haussmann de gestion immobilière	140, boulevard haussmann  75008 paris	01 53 77 11 19	75008	48.875351	2.313357
Grpe esprimmo-l'esprit immobilier	25 av de laumiere  75019 paris	01 42 03 12 12	75019	48.883594	2.380588
Gsd immobilier	37 rue de liege  75008 paris 8ème	06 17 45 52 18	75008	48.879309	2.325415
Gt immobilier	2 place armand carrel  75019 paris 19ème	01 42 38 97 96	75019	48.882681	2.382818
Gtf	58 rue de chateaudun 75009 paris	01 48 00 88 48	75009	48.876419	2.332939
Gtf - etude warbel	38 rue des entrepreneurs  75015 paris 15ème	01 45 79 32 30	75015	48.846398	2.285908
Gtf agence des princes	41 route de la reine  92100 boulogne	01 46 04 60 60	92100	48.839009	2.246176
Gtf immobilier d'entreprise	50 rue de chateaudun  75009 paris	01 48 00 88 88	75009	48.87636	2.333876
Guy hoquet	31 boulevard de magenta  75010 paris 10ème	01 44 52 18 18	75010	48.871609	2.360011
Guy hoquet	41 rue gabriel péri  92300 levallois perret	01 41 05 00 40	92300	48.892456	2.287282
Guy hoquet	95 avenue pierre grenier  92100 boulogne billancourt	01 46 21 56 71	92100	48.834295	2.254455
Guy hoquet b-c-i	13 rue jean jaures  94240 l'hay les roses	01 49 08 09 10	94240	48.778309	2.334799
Guy hoquet buttes chaumont	123 rue de meaux  75019 paris 19ème	01 73 73 00 50	75019	48.884726	2.379115
Guy hoquet convention	234 rue de la convention  75015 paris 15ème	01 45 32 40 40	75015	48.836003	2.30018
Guy hoquet immobilier	88 av du gal michel bizot  75012 paris	01 40 01 00 03	75012	48.837309	2.403839
Guy hoquet immobilier	23 rue condorcet 75009 paris	01 44 63 52 52	75009	48.879748	2.34544
Guy hoquet immobilier	73 rue oberkampf  75011 paris	01 40 21 15 15	75011	48.864966	2.373872
Guy hoquet immobilier	243b rue de vaugirard  75015 paris	01 53 58 58 88	75015	48.840672	2.305351
Guy hoquet immobilier	47, rue custine 75018 paris	01 53 09 92 00	75018	48.889367	2.344149
Guy hoquet immobilier	36 boulevard richard wallace  92800 puteaux	01 41 38 33 83	92800	48.879984	2.239782
Guy hoquet l'immobilier	30 rue estienne d'orves  92270 bois colombes	01 47 84 04 04	92270	48.915665	2.27164
Guy hoquet l'immobilier	5 rue d'hauteville  75010 paris	01 45 23 10 10	75010	48.871421	2.349783
Guy hoquet l'immobilier	67 rue caulaincourt  75018 paris	01 53 09 26 27	75018	48.889628	2.336179
Guy hoquet l'immobilier	36 rue gallieni  92600 asnieres sur seine	01 47 90 75 75	92600	48.908799	2.28698
Guy hoquet lagny	3 pl de l hotel de ville  77400 lagny sur marne	01 60 31 77 88	77400	48.877123	2.705585
Guy hoquet nation	246b rue du faubourg saint antoine  75012 paris 12eme	01 75 43 74 60	75012	48.849103	2.390249
Guy hoquet patrimoine	8 cite condorcet  75009 paris 9ème	01 42 81 42 62	75009	48.879575	2.344488
Guy hoquet saint ouen	7 rue charles schmidt  93400 saint ouen	01 49 48 48 48	93400	48.905696	2.332572
Guy hoquet sarl garnier	273 rue des pyrenees  75020 paris	01 40 33 30 00	75020	48.867958	2.395935
Habitat ideal	93 avenue d'italie  75013 paris	01 45 85 17 50	75013	48.82355	2.358363
Habitat projet	128 avenue mozart  75016 paris	01 45 27 35 17	75016	48.849387	2.266332
Hampton immobilier	33 rue de meaux  75019 paris 19ème	01 40 03 64 67	75019	48.880058	2.372189
Hanser immobilier	94 avenue denfert rochereau  75014 paris	01 43 35 32 08	75014	48.835815	2.333565
Haussmania	88 avenue de wagram  75017 paris 17ème	01 40 08 08 08	75017	48.882721	2.30177
Haussmann immobilier conseil	156 boulevard haussmann  75008 paris	01 42 25 98 98	75008	48.875263	2.31107
Hauteville conseil immobilier	21 rue d hauteville  75010 paris	01 44 83 95 97	75010	48.872805	2.350167
Hazan immobilier	145 r st dominique  75007 paris 7ème	01 53 59 59 53	75007	48.857866	2.300903
Hbeb immobilier	1 rue aumont thieville 75017 paris 17eme	07 60 50 77 03	75017	48.883557	2.289106
Hd immobilier	112 rue des pyrenées  75020 paris	01 43 71 10 00	75020	48.856712	2.40477
Hegma conseils	231 rue st honore  75001 paris 1er	06 98 14 24 28	75001	48.866223	2.329201
Henri beauclerc sarl	3 cite rougemont  75009 paris	01 48 24 85 72	75009	48.872038	2.34539
Henri james immobilier	47 rue pierre charron  75008 paris 8ème	01 45 61 52 40	75008	48.86898	2.302034
Hf2g immobilier	12 rue blanche  75009 paris	01 40 82 90 45	75009	48.87759	2.3321
Hilde immobilier	66 bld saint germain  75005 paris	01 40 51 78 00	75005	48.850427	2.34771
Histoire et patrimoine gestion	30 crs de l'ile seguin  92100 boulogne billancourt	01 46 09 30 70	92100	48.827577	2.234171
Hiving immo	113 rue de la paix  94170 le perreux sur marne	01 43 24 89 36	94170	48.846555	2.496133
Hm immobilier	6 rue jean renoir  94410 saint-maurice	01 42 83 76 34	94410	48.81427	2.459495
Holding financiere	72 rue claude bernard 75005 paris 5eme	01 55 43 39 01	75005	48.840458	2.345857
Home and co	128 rue la boetie  75008 paris 8ème	01 47 93 14 20	75008	48.870955	2.305981
Home management	11 rue royale  75008 paris 8ème	01 43 12 98 00	75008	48.867825	2.322636
Home passion concept	202 rue paul vaillant couturier  92000 nanterre	330141180000	92000	48.87978	2.207165
Home real estate	16 bd saint germain 75005 paris 5ème	06 10 21 36 81	75005	48.849589	2.354052
Home square	110 rue du fbg saint denis  75010 paris 10ème	01 71 18 30 30	75010	48.875335	2.356116
Homelatitude	142 faubourg saint denis  75010 paris	01 48 04 86 08	75010	48.877505	2.356446
Homeseize	3 rue davioud  75016 paris 16ème	01 42 24 52 21	75016	48.856368	2.271917
I - ti	13 rue du docteur lancereaux  75008 paris	01 53 89 02 30	75008	48.87624	2.310979
I p f conseils	10 avenue des gobelins  75005 paris	01 43 31 58 00	75005	48.837836	2.350836
I p h conseil	160 avenue charles de gaulle  92200 neuilly sur seine	01 46 37 25 59	92200	48.884704	2.261768
Iam - agence du temple	7 rue de fontaines du temple  75003 paris 3ème	01 42 72 10 15	75003	48.865555	2.359395
Ib transactions	34 rue grande  77300 fontainebleau	01 60 74 56 40	77300	48.4046	2.701041
Ibc immobilier	88 avenue ledru rollin  75012 paris 12ème	01 43 46 02 02	75012	48.850474	2.375422
Iburoshop	28 rue beautreillis  75004 paris 4eme	01 78 94 85 20	75004	48.853668	2.364498
Icade property management	7 place de la defense  92974 paris la defense	0825 16 75 75	92800	48.892407	2.239429
Icade transaction	45 avenue victor hugo  93538 aubervilliers cedex	01 89 44 80 82	93430	48.96471	2.341371
Icf habitat atlantique	26 rue de paradis  75010 paris 10ème	01 55 33 96 00	75010	48.875083	2.352617
Icf la sabliere	24 rue de paradis  75010 paris 10ème	01 43 91 64 00	75010	48.875018	2.352904
Icf novedis	83 85 bd vincent auriol  75013 paris 13ème	0810 90 11 93	75013	48.834391	2.367117
Ideal investissement	6 rue du dobropol  75017 paris 17ème	01 42 23 47 65	75017	48.882799	2.285988
Idm conseil	8 rue de thorigny  75003 paris	01 42 71 51 94	75003	48.859606	2.362649
Idpl immobilier	23 rue de la boetie  75008 paris	01 45 74 99 99	75008	48.873949	2.316605
Imax	2 avenue gallieni  92400 courbevoie	01 46 91 00 00	92400	48.904243	2.268504
Imax	187 avenue achille peretti  92200 neuilly sur seine	01 49 01 00 00	92200	48.885449	2.263911
Imax	34 rue trebois  92300 levallois perret	01 41 49 00 00	92300	48.891678	2.289479
Imax paris	198 rue championnet  75018 paris 18ème	01 42 29 05 05	75018	48.894087	2.331785
Immo + morillon	48 rue de la sante  75014 paris	01 43 37 54 00	75014	48.832594	2.341096
Immo 112	112 avenue de saint ouen  75018 paris	01 42 26 77 66	75018	48.89456	2.328124
Immo 17	8 boulvard berthier  75017 paris 17eme	01 42 29 08 31	75017	48.894044	2.31211
Immo 40	40 rue de la montagne ste genevieve  75005 paris	01 43 26 92 90	75005	48.84784	2.348478
Immo 75	246 rue du faubourg saint antoine 75012 paris	01 43 70 51 51	75012	48.849135	2.390051
Immo carre	7 rue guichard  75116 paris	01 45 25 99 79	75116	48.858714	2.276978
Immo city	23 bd voltaire  75011 paris	01 48 05 28 28	75011	48.865339	2.367769
Immo conseil	15 rue chante coq  92800 puteaux	01 47 74 92 50	92800	48.883133	2.237743
Immo conseils paris	33 boulevard de charonne 118 rue de montreuil 75011 paris	01 55 25 52 00	75011	48.851098	2.398201
Immo de france paris ile de france	20 rue treilhard  75415 paris cedex 08	01 40 82 69 52	75008	48.877082	2.313704
Immo de france paris ile-de-france	85 avenue general de gaulle  91170 viry chatillon	01 69 56 54 41	91170	48.677967	2.382655
Immo de sevres	46 rue lecourbe  75015 paris	01 47 83 43 99	75015	48.844101	2.307407
Immo discount mairie	33 avenue de la republique  94100 st maur des fosses	01 55 12 21 22	94100	48.801213	2.486076
Immo express	128 rue du chevaleret  75013 paris	01 45 70 73 72	75013	48.833671	2.368977
Immo express	6 rue bobillot 75013 paris	01 45 80 82 84	75013	48.830288	2.354343
Immo fan	56 rue hermel  75018 paris	01 42 54 61 56	75018	48.893973	2.345934
Immo marais	60 rue du roi de sicile  75004 paris	01 42 74 61 43	75004	48.856888	2.356076
Immo passion	47 ch de vassieux  69300 caluire	04 78 23 31 87	69300	45.7962	4.868172
Immo plus	16 rue de l'arcade  75008 paris	01 47 42 71 17	75008	48.871782	2.323741
Immo port royal	10 boulevard arago  75013 paris	01 42 17 07 07	75013	48.836382	2.349945
Immo reseau	32 rue mallet stevens bat e  30900 nimes	09 71 21 10 12	75016	48.85496	2.265914
Immo sur - bien sur immobilier	9 place d'italie  75013 paris	01 45 82 18 18	75013	48.831683	2.356868
Immo time	54 avenue de la motte picquet  75015 paris 15ème	09 75 57 74 05 / 06 89 95 34 40	75015	48.850485	2.299638
Immo xiv	2 rue remy dumoncel  75014 paris	06 60 40 61 56	75014	48.829842	2.333659
Immo'land	259 av daumesnil  75012 paris	01 56 95 07 07	75012	48.836588	2.404328
Immo-contact	19 rue leon jost  75017 paris	01 47 66 44 77	75017	48.880999	2.302019
Immo-wel.com	30 rue de malleville  95880 enghien les bains	01 34 17 37 15	95880	48.968401	2.306629
Immob est of the best	59 boulevard st marcel  75013 paris	01 55 43 01 40	75013	48.837534	2.354819
Immobilere europe sevres	109 rue de sévres 75006 paris	01 44 39 09 41	75006	48.848251	2.320393
Immobili.fr	7 rue francoeur 75018 paris 18ème	06 20 54 62 63	75018	48.890186	2.341957
Immobilier 120 haussmann	120 boulevard haussmann 75008 paris 8ème	01 84 17 47 50	75008	48.875084	2.318273
Immobilier agimmopp	3 rue clotaire  75005 paris	01 46 34 12 12	75005	48.845628	2.344694
Immobilier bracke	52b boulevard de la republique  92250 la garenne colombes	01 42 42 98 27	92250	48.906353	2.249322
Immobilier corvisart	29 boulevard auguste blanqui 75013 paris	01 45 88 86 86	75013	48.830101	2.352503
Immobilier de la marne.fr	14 r charles v  75004 paris 4ème	06 99 63 33 88	75004	48.853325	2.362026
Immobilier des ternes	104 av des ternes  75017 paris	01 45 72 39 39	75017	48.880705	2.286023
Immobilier en l'ile saint louis	62, rue saint louis en l'ile  75004 paris	01 43 26 22 63	75004	48.852187	2.355672
Immobilier montmartre	81 rue lamarck  75018 paris	01 42 64 81 81	75018	48.890252	2.336088
Immobilier paris clichy	42 bld du general leclerc  92110 clichy	01 42 70 20 80	92110	48.901916	2.314676
Immobilier parisien	28 rue caulaincourt  75018 paris 18ème	01 44 92 70 00	75018	48.887681	2.333671
Immobilier standing	82 boulevard malesherbes  75008 paris	01 45 61 99 99	75008	48.879882	2.314032
Immobiliere @gency	295 rue saint jacques  75005 paris 5ème	01 72 74 68 88	75005	48.839697	2.340296
Immobilière beaumarchais	107 109 boulevard beaumarchais 75003 paris	01 44 54 29 19	75003	48.860512	2.367111
Immobiliere bellechasse	180 avenue victor hugo  75116 paris 16ème	06 08 94 54 92	75116	48.865957	2.276283
Immobiliere champ de mars	64 ave de la bourdonnais 75007 paris	01 45 55 82 33	75007	48.855612	2.303072
Immobiliere convention era	196 rue de la convention  75015 paris	01 53 68 16 00	75015	48.837316	2.295989
Immobiliere cyrano	112t rue marcadet  75018 paris	01 42 58 31 10	75018	48.891322	2.342512
Immobiliere de boulogne	225 boulevard jean jaures  92100 boulogne billancourt	01 47 79 47 47	92100	48.830968	2.245143
Immobiliere de la bourdonnais	97 avenue de la bourdonnais 75007 paris	01 45 56 93 66	75007	48.855582	2.303607
Immobiliere de passy	50 rue vital  75016 paris	01 42 88 31 97	75016	48.858251	2.277549
Immobiliere de vilers	84 rue de l assomption  75016 paris	01 45 25 65 00	75016	48.855509	2.267548
Immobiliere des arcades	56 avenue ledru rollin  75012 paris	01 44 75 77 77	75012	48.848353	2.372377
Immobilière des arènes	26 rue monge  75005 paris 5ème	01 43 54 23 98	75005	48.846799	2.351325
Immobiliere des bords de marne	54 grande rue charles de gaulle  94360 bry sur marne	01 55 09 30 50	92600	48.905773	2.286474
Immobilière des etangs	50 rue de st cloud  92410 ville d'avray	01 47 50 61 13	92410	48.828544	2.192379
Immobiliere des victoires dp	3 rue d'aboukir  75002 paris	01 44 82 02 22	75002	48.866055	2.341857
Immobiliere didot	95 rue didot  75014 paris	01 45 42 66 99	75014	48.828643	2.316561
Immobilière du centre	25b rue anatole france  93600 aulnay sous bois	01 48 68 77 80	93700	48.924775	2.447504
Immobiliere du maine gerance	172 avenue du maine  75014 paris 14ème	01 45 45 99 99	75014	48.832587	2.32468
Immobilière du moulin vert	19 rue saulnier  75009 paris 9eme	01 53 43 84 83	75009	48.875315	2.344377
Immobiliere et fonciere du mantois	38 avenue de la republique  78200 mantes la jolie	01 34 78 21 21	78200	48.990033	1.71212
Immobiliere fortuny	42 rue fortuny  75017 paris	01 46 22 87 24	75017	48.882775	2.30791
Immobiliere ftg	37 rue ampère  paris  75017 paris 17éme	01 46 22 96 40	75017	48.885144	2.304176
Immobiliere galiot	29 rue dareau  75014 paris	01 45 80 20 20	75014	48.830863	2.33686
Immobiliere georges paltsou -  i.g.p	247 rue vaugirard  75015 paris	01 45 31 10 26	75015	48.840483	2.304855
Immobiliere guyot	22 rue de l orangerie  78000 versailles	01 39 49 02 02	78000	48.800174	2.122208
Immobiliere ile de france	22 place saint andre des arts  75006 paris 6ème	01 44 41 05 05	75006	48.853123	2.342613
Immobiliere initiale de paris lowendal	20 avenue de lowendal  75015 paris	01 45 67 33 00	75015	48.849104	2.302903
Immobiliere lutece	6 rue de penthievre  75008 paris	01 42 68 33 43	75008	48.873167	2.317245
Immobiliere madet	4 rue frederic sauton  75005 paris	01 46 33 03 80	75005	48.85114	2.349129
Immobiliere miguere	6 8 rue du general camou  75007 paris	06 19 95 41 03	75007	48.859083	2.299891
Immobiliere outel	14 rue richard lenoir  75011 paris	01 43 56 81 87	75011	48.854978	2.382205
Immobiliere paris 15	1 rue fremicourt  75015 paris	01 45 71 07 07	75015	48.847243	2.296382
Immobiliere paris 17 guy hoquet	17 rue jouffroy d'abbans  75017 paris 17eme	01 75 43 18 90	75017	48.886507	2.311583
Immobiliere paris ouest	183 boulevard murat 75016 paris	01 42 88 27 45	75016	48.839253	2.264833
Immobiliere richaud	15 rue de montreuil 78000 versailles	01 39 50 87 15	78000	48.805269	2.143082
Immobiliere rolline	52 rue du montparnasse  75014 paris	01 43 35 58 97	75014	48.842207	2.325576
Immobiliere sainte catherine	3 place du marche sainte catherine  75004 paris	01 42 78 88 88	75004	48.855438	2.362631
Immobiliere selection	167 rue de vaugirard 75015 paris	01 45 67 54 54	75015	48.84341	2.314404
Immobiliere soleil	133 boulevard voltaire  75011 paris 11ème	06 22 18 64 37	75011	48.85633	2.382895
Immocible	1bis avenue de st cloud 78000 versailles	01 30 21 66 00	78000	48.805054	2.127781
Immoconsulting	76 rue d'auteuil  75016 paris 16ème	01 40 71 97 87 / 06 07 08 89 59	75016	48.84798	2.260633
Immodeal gestion	14 rue de marignan  75008 paris 8ème	01 45 61 93 17	75008	48.868643	2.306488
Immofonctionnaires	38 boulevard voltaire  75011 paris	01 48 07 55 55	75011	48.863832	2.369689
Immokov	17 rue des fermiers  75017 paris	01 40 54 72 72	75017	48.886938	2.311765
Immomoinscher.fr	167 rue de la pompe  75016 paris	01 45 53 33 33	75016	48.870062	2.282592
Immopolis	7 rue de ravignan  75018 paris	01 42 51 22 00	75018	48.885545	2.337748
Immopolis	78 av de st ouen  75018 paris 18eme	01 53 31 09 04	75018	48.892123	2.3273
Immopolis	17 rue ramey  75018 paris 18ème	01 42 23 84 05	75018	48.887798	2.347033
Immopolis gestion	7 rue ravignan 75018 paris 18ème	01 42 51 05 00	75018	48.885545	2.337748
Immopolis immobilier	105 rue caulaincourt  75018 paris	01 53 41 33 00	75018	48.889745	2.339079
Immostop	20 boulevard poissonniere  75009 paris	01 48 24 73 73	75009	48.871275	2.345366
Immotec	16 avenue emile zola  75015 paris 15ème	01 45 78 79 05	75015	48.846109	2.279555
Immotop	3 rue du docteur pesque 93300 aubervilliers	01 41 58 12 60	93300	48.914356	2.383078
Immovac  paris	37 avenue de lowendal  75015 paris	01 56 58 53 57	75015	48.848523	2.302835
Immovideo	67 avenue de la bourdonnais  75007 paris	01 47 05 02 02	75007	48.856897	2.301556
Imonova	58 bd national  30150 roquemaure	04 13 60 00 28	30150	44.052581	4.779992
Imovina	4 rue de nice  75011 paris 11ème	01 72 34 67 44	75011	48.85464	2.390765
Impact immo	48 rue rivay  92300 levallois perret	01 47 56 98 98	92300	48.895357	2.288709
Impact immo 9ème	74 rue de clichy  75009 paris 9eme	01 48 74 09 09	75009	48.882503	2.327986
In media patrimonia gestion	1 rue bastien lepage  75016 paris 16eme	01 42 24 01 50	75016	48.848453	2.266362
Ingencia	30 rue de lourmel 75015 paris	01 45 79 50 90	75015	48.848752	2.290574
Initiales	3 rue de sevigne  75004 paris	01 70 08 66 90	75004	48.855309	2.36174
Inside transactions immobilières	55 rue bellechasse  75007 paris	01 43 17 36 80	75007	48.855295	2.320252
Inter immobilier crosnier	13 rue du vieux colombier  75006 paris 6ème	01 42 22 27 97	75006	48.851462	2.331307
Inter-projets	39 rue duris  75020 paris	01 47 97 55 50	75020	48.866077	2.387098
Inter-urbis	31 rue de monceau  75008 paris	01 45 63 17 77	75008	48.876917	2.308874
International immobilier joubert	44 rue monge  75005 paris	01 46 34 04 85	75005	48.845424	2.351921
Intuitu gestion - g f b	86 rue du faubourg saint denis 75010 paris	01 48 78 31 36	75010	48.87394	2.355229
Invest immo	187 rue du faubourg saint martin 75010 paris	01 40 05 26 26	75010	48.87929	2.362741
Isambert	25 rue du bac 42 rue de l'universite 75007 paris	01 42 96 68 00	75007	48.857786	2.328099
Isambert sa	93 rue blomet  75015 paris	01 44 19 62 62	75015	48.840912	2.300666
Isis (immobilier selectif)	33 rue nicolo  75016 paris	01 45 04 39 39	75016	48.859485	2.279214
Ism gestion	35 r olivier de serres  75015 paris 15ème	01 45 80 07 81	75015	48.835054	2.296304
Iva immobilier	15 rue poussin 75016 paris	01 45 24 21 20	75016	48.848663	2.263744
J s conseil	77 rue riquet 75018 paris	01 40 38 06 66	75018	48.890037	2.36115
J.a.c immobilier	108 bd de courcelles  75017 paris	01 47 54 60 30	75017	48.878933	2.301329
J.l castan agent immobilier	75 rue de lourmel 75015 paris	01 47 04 64 44	75015	48.845503	2.287949
Jacar immobilier	10 rue saint saens  75015 paris	0811 09 03 03	75015	48.85371	2.29156
Jacques de carne immobilier	24 boulevard saint marcel  75005 paris	01 40 46 78 08	75005	48.839416	2.359479
Jafis	2 rue leconte de lisle  75016 paris 16eme	01 53 83 74 20	75016	48.848362	2.269659
Jaures immobilier	26 bis avenue jean jaurès  93220 gagny	01 41 53 04 04	93220	48.88334	2.528386
Jb consultant	41 bd henri iv  75004 paris	06 11 51 51 50	75004	48.852575	2.366639
Jb pierre invest	97 rue nollet  75017 paris 17ème	01 55 62 02 03	75017	48.888768	2.318134
Jbm ecouen	8b place de l'eglise  95440 ecouen	01 39 90 04 45	95480	49.02303	2.1551
Jbm immobilier	10 rue du gal de gaulle bp55 95270 luzarches	01 30 35 08 18	95220	48.990653	2.166713
Jean louis thouard immobilier	21, rue bonaparte  75006 paris	01 53 10 19 19	75006	48.855591	2.334065
Jean pierre sabiani immobilier	25 boulevard de reuilly  75012 paris	01 43 44 44 05	75012	48.839403	2.391948
Jean-luc martens	PARIS 17EME (75017)	06 81 85 58 04			
Jerome peter transactions	50 rue nicolo  75116 paris 16eme	06 13 24 22 15	75116	48.860537	2.277411
Jft gestion	30 rue bargue  75015 paris	01 47 34 39 78	75015	48.838644	2.307844
Jmc immobilier	21 rue brezin  75014 paris	01 40 44 55 55	75014	48.831389	2.326887
Jobard immobilier paris	27 rue de lisbonne  75008 paris	01 42 25 78 24	75008	48.877604	2.313807
Jober immobilier	2 avenue de joinville  94130 nogent sur marne	01 41 95 15 15	94130	48.834888	2.472878
John arthur et tiffen	1 ave charles de gaulle  94160 st mande	01 43 98 21 54	94100	48.804363	2.485665
John arthur et tiffen	130 avenue victor hugo  75116 paris 16ème	01 56 90 11 00	75116	48.867638	2.280247
John cook transactions	223 boulevard raspail  75014 paris	01 40 47 55 00	75014	48.840171	2.330542
John taylor paris	32 avenue pierre 1er de serbie  75008 paris 8ème	01 80 18 79 40	75008	48.867704	2.299964
Jolies demeures sotheby's international realty	12 place de la liberation  78490 montfort l amaury	01 34 86 71 78	78670	48.939639	1.997729
Jourdain immobilier	2b rue du jourdain  75020 paris 20ème	01 46 36 01 01	75020	48.87401	2.389652
Jp2l	35 rue croulebarbe 75013 paris	06 83 52 82 97	75013	48.83264	2.351103
Js consulting	20 rue montgolfier  75003 paris	01 48 33 57 63	75003	48.866844	2.357663
Junot investissements montmartre	27 avenue junot  75018 paris	01 42 55 20 00	75018	48.888569	2.335348
K'gerim	42 rue pastourelle   75003 paris 3eme	01 42 78 52 40	75003	48.863197	2.358745
Ka&a	34 avenue des champs elysees  75008 paris	01 40 76 03 05	75008	48.869957	2.308155
Kapital prestige	46 rue spontini  75116 paris 16ème	01 79 73 75 75	75116	48.868433	2.277402
Ker transactions	10 rue de duras  75008 paris	01 42 66 30 33	75008	48.871064	2.318132
Keranlay conseil	5 rue lalo  75116 paris 16ème	06 13 54 49 62	75116	48.873637	2.280267
Kgm immobilier	26 bd magenta  75010 paris	01 40 03 83 16	75010	48.870352	2.361612
Khs- « appartements de charme et de prestige », paris	17 rue michel-ange  75016 paris	06 76 09 91 44	75016	48.846665	2.263216
Kl real estate	29 rue de bassano  75008 paris 8ème	06 11 87 79 62	75008	48.87042	2.298874
Kleber immobilier	66 avenue kleber  75116 paris	01 45 53 62 82	75116	48.868054	2.290613
Klesia immobilier	5 9 rue van gogh 75591 paris cedex 12	01 40 02 19 15	75012	48.843939	2.37118
Kms gestion	27 avenue rapp  75007 paris 7ème	01 47 63 59 08	75007	48.859288	2.300925
Knight frank	7 place vendome  75001 paris	01 43 16 88 88	75001	48.867284	2.328352
Kretz & partners	19b av robert schuman  92100 boulogne billancourt	09 65 13 75 19	92100	48.84285	2.249188
L immobiliere mogador	27 rue de mogador  75009 paris 9ème	01 53 25 00 10	75009	48.875505	2.331195
L u a immobilier	7 rue biot  75017 paris 17eme	09 51 57 67 78	75017	48.884077	2.326298
L' adresse secretan	61 rue de meaux  75019 paris 19eme	01 42 41 87 32	75019	48.881874	2.373883
L'adresse	118 boulevard gabriel peri  92240 malakoff	01 46 54 04 04	92240	48.819134	2.303665
L'adresse - l'e-mmobilière	366t rue de vaugirard  75015 paris 15ème	01 53 68 02 15	75015	48.83472	2.29128
L'adresse adj gestion	15 avenue gallieni  94340 joinville le pont	01 48 83 34 98	94250	48.815993	2.353464
L'adresse belleville	18 boulevard de la villette  75019 paris 19ème	01 42 08 73 37	75019	48.873549	2.375719
L'adresse du canal	89 quai de valmy  75010 paris	01 40 05 01 08	75010	48.873291	2.363335
L'adresse fac immo	4 rue fourcroy  75017 paris 17ème	01 81 70 97 30	75017	48.879939	2.295308
L'adresse harry's	21 boulevard maurice berteaux  94100 saint maur des fossés	01 42 83 60 61	94100	48.810033	2.471143
L'adresse immogef fontenay	place moreau david  94120 fontenay sous bois	01 45 14 13 13	94120	48.843887	2.465256
L'adresse jourdain	124 rue de belleville  75020 paris 20ème	01 77 36 70 20	75020	48.874693	2.388441
L'adresse massena	117 boulevard massena  75013 paris	01 45 85 45 85	75013	48.819547	2.364212
L'adresse novae	34 rue de tolbiac  75013 paris 13ème	01 53 79 19 30	75013	48.82846	2.372676
L'adresse valerie immobilier	99 rue veron  94140 alfortville	01 41 79 05 18	94140	48.810379	2.41436
L'adresse valerie immobilier	8 av de la republique  94700 maisons alfort	01 45 18 02 02	94700	48.800589	2.430894
L'agence	résidence ténérélla 20166 porticcio	04 95 21 19 99			
L'agence de levallois	5 place de la republique  92300 levallois perret	01 47 48 00 00	92300	48.892872	2.28901
L'agence de paris	14 rue falguiere  75015 paris 15ème	01 45 48 88 60	75015	48.843437	2.316827
L'agence des 3 frères	23 rue des trois freres  75018 paris 18eme	01 42 57 00 72	75018	48.884618	2.34103
L'agence du 15	56 rue de mademoiselle  75015 paris 15ème	01 83 96 20 13	75015	48.843229	2.300273
L'agence du coin	111 rue de la croix nivert  75015 paris	01 45 30 30 20	75015	48.842401	2.294439
L'agence montmartre	38 rue damremont  75018 paris 18ème	01 42 58 70 48	75018	48.889443	2.333737
L'agence parisienne	50 52 rue la fontaine  75016 paris 16ème	01 42 24 35 62	77000	48.550367	2.664711
L'appartement	17 rue de longchamp  75116 paris	01 45 05 19 40	75116	48.864891	2.291006
L'etoile real estate	111 avenue victor hugo  75784 paris	06 29 46 16 63	75116	48.868516	2.282913
L'immobilier  de paris	44 rue des batignolles 75017 paris	01 42 93 15 62	75017	48.885783	2.319651
L'immobilier du quartier	15 avenue de paris  94300 vincennes	01 75 64 06 20	94300	48.845038	2.432618
L'immobilier international	71 bd malesherbes  75008 paris	01 43 87 10 68	75008	48.876896	2.317084
L'immobilier parisien	16 rue des moines  75017 paris	01 53 06 37 00	75017	48.888082	2.318764
L'immobilier parisien	187 rue du faubourg st martin  75010 paris 10eme	01 70 61 60 00	75010	48.87929	2.362741
L'immobilier parisien	9 rue ramey  75018 paris	01 53 09 23 53	75018	48.887387	2.347264
L'immobilier parisien	38 boulevard des batignolles  75017 paris	01 42 93 10 00	75017	48.882915	2.323374
L'immobiliere de boulogne	122 rue de paris  92100 boulogne billancourt	01 48 25 07 17	92100	48.84158	2.238169
L'immobiliere de reseau	1 rue villebois mareuil  75017 paris 17ème	01 45 53 61 19	75017	48.879208	2.293018
L'immobiliere des dames	4 rue truffaut  75017 paris 17ème	06 98 60 07 22	75017	48.884397	2.323407
L'immobilière dorfeuil	86 avenue mozart  75116 paris	01 44 96 80 96	75116	48.852013	2.267767
L'immobilière du 20ème	30 avenue gambetta  75020 paris	01 46 36 10 04	75020	48.864888	2.396561
L'immobiliere du parc	28 avenue laumiere   75019 paris	01 42 08 60 60	75019	48.88438	2.380288
L'immobiliere du parc monceau	58 avenue de wagram  75017 paris 17ème	06 68 55 94 29	75017	48.87921	2.299213
L'immobiliere moderne	25 avenue philippe auguste  75011 paris	01 43 56 73 73	75011	48.851108	2.394002
L'immobiliere sas	9b boulevard jules ferry  75011 paris 11ème	01 40 35 68 65	75011	48.867234	2.368044
L'immobiliere sentier réaumur  i.s.r.	78 rue reaumur  75002 paris	01 45 08 48 68	75002	48.866519	2.35165
L'or de l'immobilier	6 rue victor schoelcher  75014 paris 14ème	01 53 91 01 20	75014	48.836585	2.331036
La bonne agence	27 rue perignon  75015 paris 15ème	06 73 71 39 90	75015	48.84687	2.30671
La boutique de l'immobilier	28 rue du temple  75004 paris 4ème	01 55 80 79 74	75004	48.85919	2.353913
La boutique de l'immobilier - etude montorgueil	16 rue mandar  75002 paris	01 55 80 79 78	75002	48.865796	2.345051
La chambre claire	23 rue richard lenoir  75011 paris 11ème	01 44 64 00 24	75011	48.855567	2.381675
La city immobilier	1 av gambetta  75020 paris	01 47 97 50 00	75020	48.863298	2.388745
La clef de l'immobilier	22 24 rue de montreuil  75011 paris	01 44 93 85 85	75011	48.850404	2.385369
La clef du sol	9 rue des trois bornes  75011 paris	09 84 38 74 08	75011	48.866393	2.371712
La compagnie immobiliere de paris	50 rue de la chaussee d'antin  75009 paris 9ème	06 60 61 38 40	75009	48.873939	2.332964
La cote immobiliere	11 avenue du docteur arnold netter  75012 paris	01 43 07 26 26	75012	48.841781	2.404799
La coulee verte immobilier / abv	134 bis rue de charenton  75012 paris 12ème	01 44 68 09 91	75012	48.845817	2.379859
La fonciere de rehabilitation	17 rue de poitou  75003 paris 3ème	01 42 78 12 32	75003	48.861512	2.362954
La fonciere de réhabilitation	17 rue réaumur  75003 paris	01 44 54 01 30	75003	48.864996	2.357798
La fonciere dieulafoy	2 rue du dr landouzy  75013 paris	01 45 88 35 57	75013	48.823233	2.353842
La fonciere du xvii	109 rue des dames  75017 paris	01 43 87 95 97	75017	48.882806	2.317562
La fontaine immobilier	27 rue jean de la fontaine  75016 paris	01 42 88 68 00	75016	48.851256	2.272795
La fourmi immo	2a avenue de l'energie  67800 bischheim	03 88 62 97 69	67800	48.630048	7.765291
La française immobilière	56 rue de maubeuge 75009 paris	01 42 85 01 05	75009	48.878627	2.346233
La galerie de l'immobilier	48 rue mazarine  75006 paris	01 56 24 44 26	75006	48.855117	2.337769
La garçonnière	38, rue sainte croix de la bretonnerie 75004 paris	01 44 54 20 40	75004	48.858661	2.354894
La gestion fonciere de paris	3 rue victor masse  75009 paris	01 45 26 59 94	75009	48.880475	2.339808
La grandiere immobilier	31 avenue raymond poincaré  75116 paris 16ème	01 76 71 07 40	75116	48.865561	2.286226
La grandiere immobilier	79 avenue mozart  75016 paris	01 42 24 77 00	75016	48.853031	2.268612
La parisienne immobilier	180 boulevard berthier  75017 paris	01 46 22 70 26	75017	48.886007	2.29326
La plaine immobilier	43 av du president wilson  93210 la plaine st denis	01 48 21 80 80	93200	48.902922	2.358281
La porte de paris	16-18 boulevard st martin 75010 paris	01 40 18 78 78	75010	48.868914	2.356986
La reale immobilier	20 rue de longchamp 75116 paris	06 10 44 08 81	75116	48.865004	2.291065
La residence	71 avenue de stalingrad  95100 argenteuil	01 34 26 13 10	95100	48.951412	2.26526
La tour immo	142 avenue daumesnil  75012 paris 12eme	01 43 45 14 14	75012	48.840654	2.390404
La tour immo	119 boulevard murat  75016 paris	01 46 51 30 00	75016	48.837425	2.258608
La vie immobiliere / agences reunies	4 rue berthollet  75005 paris	01 43 36 20 83	75005	48.839945	2.345859
La vie parisienne	128 rue lecourbe 75015 paris 15ème	01 45 33 46 46	75015	48.842303	2.301332
La villa 92	86 avenue de la marne  92600 asnieres sur seine	01 47 33 99 53	92600	48.909817	2.287555
La vitrine concept immobilier	63 rue de meaux  75019 paris	01 71 19 77 19	75019	48.88199	2.37403
Labri promotion	114 rue montmartre  75002 paris	01 42 33 34 34	75002	48.867684	2.343929
Laforet bastille	7 rue trousseau  75011 paris 11eme	01 43 38 19 48	75011	48.851306	2.378606
Laforêt batignolles	67 avenue de clichy  75017 paris 17ème	01 40 08 00 40	75017	48.887679	2.324995
Laforêt gare de lyon	44 boulevard diderot  75012 paris	01 43 40 10 10	75012	48.846243	2.378383
Laforet immobilier	16 rue saint ferdinand  75017 paris 17ème	01 58 05 00 45	75017	48.878543	2.289456
Laforet immobilier	52 rue montmartre  75002 paris 2eme	01 40 41 15 40	75002	48.865279	2.345011
Laforet immobilier	161 rue de belleville  75019 paris	01 48 03 71 71	75019	48.875523	2.391307
Laforet immobilier	214 rue du faubourg saint martin  75010 paris 10ème	01 40 35 05 10	75010	48.87987	2.363842
Laforêt immobilier	42 boulevard pasteur  75015 paris	01 56 54 14 00	75015	48.841727	2.313109
Laforêt immobilier	273 rue des pyrenees  75020 paris	01 40 33 50 60	75020	48.867958	2.395935
Laforêt immobilier	106 av gambetta 75020 paris 20ème	01 40 30 04 94	75020	48.871362	2.40424
Laforêt immobilier	10 avenue de laumiere  75019 paris	01 53 19 88 00	75019	48.883518	2.381065
Laforêt immobilier	4 avenue jean jaures  94220 charenton le pont	01 41 79 19 19	94220	48.821721	2.414383
Laforêt immobilier	46 48 rue d'avron  paris 75020	01 44 64 81 81	75020	48.851974	2.40251
Laforêt immobilier	66, rue monge 75005 paris	01 47 07 03 03	75005	48.843705	2.352152
Laforêt immobilier - bdo immobilier	19 rue rambuteau  75004 paris	01 49 96 64 40	75004	48.860673	2.354899
Laforêt immobilier - bdo immobilier	114 rue de turenne  75003 paris	01 44 54 11 11	75003	48.863182	2.364764
Laforet immobilier - jpc immobilier	92 rue de levis  75017 paris	01 56 33 12 34	75017	48.884816	2.311656
Laforêt immobilier - montmartre real estate	110 rue caulaincourt  75018 paris	01 42 57 12 10	75018	48.88963	2.341173
Laforêt immobilier - s.a.r.l esna	26 avenue félix faure  75015 paris	01 53 78 04 04	75015	48.841949	2.289721
Laforêt immobilier - tolbiac immobilier	174 rue de tolbiac  75013 paris	01 43 13 29 39	75013	48.82598	2.351774
Laforêt immobilier - xveme associes	20 rue de lourmel  75015 paris	01 40 59 60 70	75015	48.849551	2.291274
Laforêt immobilier / lv immobilier conseil	36 rue de versailles  78150 le chesnay	01 39 23 95 00	78150	48.818271	2.127305
Laforet immobilier 18eme  marx dormoy	96 / 98 rue riquet  75018 paris	01 55 26 93 93	75018	48.89018	2.360786
Laforêt immobilier 9ème avenue	38 rue des martyrs  75009 paris 9ème	01 40 16 47 47	75009	48.878991	2.339924
Laforet immobilier accessim	56 rue jean bleuzen  92170 vanves	01 46 44 46 00	92170	48.82224	2.294431
Laforêt immobilier arago	7 9 bld arago  75013 paris 13ème	01 55 43 20 20	75013	48.836301	2.350943
Laforet immobilier guy moquet	69 rue guy moquet  75017 paris 17eme	01 58 60 10 10	75017	48.892906	2.326507
Laforêt immobilier issy-les-moulineaux	40 rue ernest renan  92130 issy les moulineaux	01 46 48 64 64	92130	48.827527	2.280114
Laforêt immobilier j.r.l immobilier	98 bd magenta  75010 paris	01 40 38 80 00	75010	48.877769	2.354961
Laforêt immobilier neuilly realtors	44 rue madeleine michelis  92200 neuilly sur seine	01 41 43 20 80	92200	48.883812	2.278019
Laforêt immobilier ordener immo conseil	128 rue ordener  75018 paris	01 53 09 96 30	75018	48.893382	2.338954
Laforêt immobilier paris 13	10 rue jeanne d'arc  75013 paris 13ème	01 44 24 03 03	75013	48.829287	2.369472
Laforêt immobilier philae	283 rue de vaugirard  75015 paris	01 56 56 82 56	75015	48.839465	2.301279
Laforêt immobilier sarl beaulieu immobilier	49 rue boulard  75014 paris	01 53 90 15 15	75014	48.83185	2.327392
Laforêt immobilier septième arr.	31 avenue rapp 75007 paris	01 45 55 29 29	75007	48.859006	2.300839
Laforêt immobilier sopilim sarl	70-72 rue raymond losserand  75014 paris	01 40 52 80 40	75014	48.834125	2.318192
Laforêt immobilier vixit	1b avenue marceau  92400 courbevoie	01 47 88 29 29	92400	48.897183	2.245761
Laforêt kremlin	98 avenue de fontainebleau  94270 le kremlin bicetre	01 49 60 50 50	94270	48.810016	2.362018
Laforêt les lilas	44 rue de paris  93260 les lilas	01 43 62 68 70	93260	48.878492	2.41176
Laforêt parmentier	94 avenue parmentier  75011 paris 11ème	01 55 28 32 40	75011	48.865932	2.374214
Laforêt passy-muette	20 avenue mozart  75016 paris 16ème	01 45 27 07 07	75016	48.856921	2.272223
Laforet prestige	38 rue vaugirard  75006 paris	01 43 54 47 00	75006	48.849245	2.335189
Laforet prestige paris 8e	48 rue de berri  75008 paris 8ème	01 56 43 30 89	75008	48.874569	2.308114
Laforêt sèvres - chaville	10 place du théâtre  92310 sèvres	01 55 64 09 49	92310	48.823039	2.21141
Laforet xvième l'immobiliere murat	72 rue d'auteuil  75016 paris	01 47 43 20 00	75016	48.847985	2.261043
Lalanne immobilier	1 boulevard de reuilly  75012 paris 12ème	01 44 75 74 21	75012	48.839236	2.389436
Lamennais adb	4 rue lamennais  75008 paris	01 49 53 60 00	75008	48.873731	2.303242
Lamirand et associes	36 rue du faubourg montmartre  75009 paris	01 42 46 44 86	75009	48.87423	2.342254
Lamirand et associes	66 rue des pyrénées  75020 paris	01 40 09 17 00	75020	48.853287	2.406075
Lamirand et associes	55 boulevard voltaire  75011 paris	0892 70 10 15	75011	48.86208	2.37324
Larboullet immobilier	173 rue courcelles  75017 paris	01 56 21 22 22	75017	48.885535	2.296541
Laroppe immobilier	82 rue maubeuge 75009 paris	01 53 25 10 70	75009	48.879462	2.349055
Lassay transactions	3 rue de l'amiral courbet  75116 paris 16ème	01 47 04 51 47	75116	48.869082	2.282966
Latour immobilier	170 rue de grenelle 75007 paris	01 45 56 97 98	75007	48.858018	2.308252
Laurent michel administrateur de biens sa	24 avenue opera  75001 paris	01 42 60 82 02	75001	48.866316	2.334381
Lb transactions	19 avenue mac mahon  75017 paris	01 45 74 04 40	75017	48.876779	2.29428
Ldj immo conseils	23/25 rue pouchet  75017 paris 17ème	01 44 85 00 00	75017	48.892869	2.319447
Ldl selection	94 rue jean de la fontaine  75016 paris	01 44 14 65 00	75016	48.849677	2.267997
Le bel avenir	103 rue du cherche midi  75006 paris 6eme	01 53 61 18 95	75006	48.846419	2.320741
Le bon agent immobilier	161 bis avenue de suffren   75015 paris 15ème	01 48 25 26 27	75015	48.845965	2.309554
Le cabinet de paris	167 boulevard du montparnasse  75006 paris	01 44 07 20 00	75006	48.840252	2.335487
Le cabinet parisien	43 avenue bosquet 75007 paris 7ème	01 47 53 76 62	75007	48.85784	2.304218
Le cap immobilier	13 rue d'alesia  75014 paris 14eme	01 82 83 39 39	75014	48.827413	2.334619
Le chapitre immobilier	23 rue notre dame de nazareth  75003 paris 3ème	01 42 71 72 57	75003	48.867226	2.359479
Le chemin immobilier	9 rue de maubeuge 75009 paris	01 40 16 46 40	75009	48.876965	2.341953
Le chene vert immobilier	62 rue de lancry  75010 paris 10ème	01 42 40 73 95	75010	48.87277	2.363632
Le dome immobilier	4 avenue philippe auguste  75011 paris 11ème	01 43 73 60 51	75011	48.849687	2.395326
Le home de france	36 bd saint germain  75005 paris	01 43 54 14 28	75005	48.849689	2.351494
Le kiosque de l'immobilier	2 avenue paul déroulède  75015 paris	01 53 69 97 98	75015	48.850634	2.29915
Le paris de dorothee	104 rue de saussure  75017 paris	01 42 63 15 21	75017	48.887346	2.312071
Le pic immobilier	5 rue constance  75018 paris 18eme	01 42 54 99 99	75018	48.885358	2.33343
Le square immobilier	24 rue charles baudelaire  75012 paris 12ème	01 43 40 30 30	75012	48.850009	2.377261
Le tuc immobilier chatillon	58 rue gabriel peri  92320 chatillon	01 46 12 04 80	92320	48.800666	2.286438
Le village des batignolles	68 place du doct felix lobligeois  75017 paris	01 40 25 99 19	75017	48.886599	2.318597
Leader immo	164 boulevard massena 75013 paris	01 46 58 88 88	75013	48.819335	2.36015
Leaders-et-partenaires	5 place du general de gaulle  78990 elancourt	01 34 82 02 09	78990	48.768454	1.948499
Leaseo	43 rue la fayette  75009 paris 9ème	01 80 96 03 00	75009	48.8749	2.33983
Lecoeur immobilier	233 rue du faubourg saint honore  75008 paris 8ème	01 45 74 16 04	75008	48.877332	2.299253
Leconte immobilier	39 rue daguerre  75014 paris 14ème	01 43 22 81 23	75014	48.834476	2.32807
Lefranc immobilier	30 avenue felix faure  75015 paris 15ème	01 40 60 18 18	75015	48.841843	2.289456
Legi immobilier	166 boulevard montparnasse  75014 paris	01 43 22 62 62	75014	48.839903	2.335353
Leigniel	14 place victor hugo  89100 sens	03 86 65 20 58	89100	48.195387	3.283663
Les cedres de l immobilier	60 rue des entrepreneurs  75015 paris	01 45 77 17 07	75015	48.845531	2.288122
Les cles de lutece	89 bis rue lauriston  75116 paris 16ème	01 47 04 12 60	75116	48.867818	2.288554
Les comptoirs de l'immobilier	25 rue poncelet  75017 paris	01 56 33 30 40	75017	48.879554	2.297852
Les comptoirs de l'immobilier	6 avenue secretan  75019 paris	01 40 18 52 52	75019	48.882112	2.370975
Les jardins de pereire	11-13 rue guersant  75017 paris	01 40 68 94 02	75017	48.880294	2.29046
Les pavés du 20e	249b rue des pyrenees  75020 paris 20ème	01 46 36 54 54	75020	48.86585	2.397585
Les racines	58 rue jean pierre timbaud  92130 issy les moulineaux	01 47 36 40 61	92130	48.818043	2.249346
Les terrasses d'aptitudes	54 rue de longchamp  92200 neuilly	01 41 43 20 20	92200	48.88148	2.254624
Lfb	25 rue de la folie mericourt  75011 paris 11ème	01 58 30 85 10	75011	48.862699	2.373295
Lieu-dit	18 rue de montmorency  75003 paris 3ème	09 80 42 60 47	75003	48.862943	2.355704
Lieux select	34 avenue des champs elysees  75008 paris 8ème	01 40 76 58 01	75008	48.869957	2.308155
Link	26 rue des rigoles  75020 paris 20eme	06 11 24 32 03	75020	48.872027	2.393568
Lionceau immobilier	45, rue falguière 75015 paris	01 43 20 41 10	75015	48.842064	2.315154
Ll partners	18 rue des gatines  75020 paris 20eme	06 61 18 99 91	75020	48.865891	2.3987
Lloyd & davis	109 rue faubourg saint honore  75008 paris 8ème	01 75 44 98 53	75008	48.872606	2.311025
Locare	14 16 rue des capucines 75002 paris	01 40 40 64 00	75002	48.869122	2.329222
Locat immo	160 rue de la pompe  75116 paris 16ème	01 56 90 30 30	75116	48.869939	2.282682
Lodgis	21 rue st marc 75002 paris 2ème	01 70 39 11 11	75002	48.87044	2.339962
Loft & vous	192 rue du fbg st martin  75010 paris	01 40 36 87 10	75010	48.87886	2.362632
Loft app'art & co	34 rue de l'echiquier / 16 rue hauteville  75010 paris 10ème	01 48 01 67 51	75010	48.871624	2.350103
Logedis	9 boulevard du general de gaulle les pleiades  27950 saint marcel	02 32 64 76 20			
Logestim immobilier	34b rue de wattignies 75012 paris 12ème	01 44 68 96 16	75012	48.835884	2.395756
Loiselet et daigremont transactions	15 avenue mac mahon  75017 paris 17ème	01 55 37 37 55	75017	48.876248	2.29437
Lokim	17 rue de l echiquier  75010 paris	01 42 33 00 65	75010	48.871236	2.35166
Longchamp investissements	71 avenue foch 75116 paris 16ème	01 53 70 41 54	75116	48.871499	2.279585
Longueil immobilier	40 avenue longueil  78600 maisons laffitte	01 39 62 14 34	78600	48.94679	2.145334
Lonsdale immobilier services	12 place henri bergson  75008 paris 8ème	01 53 81 95 81	75008	48.876227	2.320761
Lordimmo	70 avenue kleber  75116 paris	01 56 90 01 01	75116	48.867666	2.290333
Loreto immobilier	30 rue dauphine  75006 paris 6ème	01 46 34 26 00	75006	48.854666	2.339219
Lpi laurence pascoli	3 place wagram  75017 paris 17ème	06 11 23 23 17	75017	48.887008	2.304358
Lutece avenue	14 rue du pont neuf  75001 paris 1er	06 26 89 70 48	75001	48.860114	2.344307
Lutecimmo	3 rue nicolas flamel  75004 paris 4ème	01 42 71 01 05	75004	48.858701	2.349338
Luxe-france	101 avenue des champs elysees 75008 paris 8ème	06 10 25 84 66	75008	48.871656	2.300554
Luxury real estate  cedric korb	9 / 11 avenue theophile gautier  75016 paris	01 45 27 50 11	75016	48.850825	2.274691
Lvi - leonard vercken immobilier	33 rue de moscou  75008 paris 8eme	01 43 87 33 33	75008	48.881401	2.323161
Lvm & cie	7 rue du printemps  75017 paris	06 83 84 67 98	75017	48.887246	2.309357
M.p. immobilier	11 rue bridaine  75017 paris 17ème	06 09 17 25 15	75017	48.885753	2.320072
M2	49 rue rouelle  75015 paris 15ème	01 45 75 67 35	75015	48.849494	2.289908
Maison mere immobilier	125 rue de la pompe  75116 paris 16eme	06 78 01 30 95	75116	48.866206	2.279748
Majord'homes	3 impasse gomboust  75001 paris 1er	06 64 90 00 05	75001	48.867622	2.331277
Manager	35 avenue des champs elysees  75008 paris	01 45 61 00 13	75008	48.869807	2.306424
Manon lemoine	2 rue d'ankara  75016 paris 16ème	06 14 72 60 00	75016	48.854704	2.283501
Marc foujols groupe immobilier	15 avenue paul doumer  75116 paris	01 53 70 00 00	75116	48.861324	2.284857
Marchal syngest	23 rue des mathurins  75008 paris	01 42 65 47 73	75008	48.873151	2.325995
Marchand immobilier	3 rue antoine vollon75012 paris	01 46 28 62 68	75012	48.85038	2.376651
Marie louise albert-roulhac	33 rue galilee  75016 paris	01 45 03 33 06	75016	48.869333	2.295123
Marigny immobilier	21 rue du cirque  75008 paris	01 47 42 70 72	75008	48.871042	2.315242
Marin immobilier	88b av sadi carnot  91160 saulx les chartreux	06 47 99 78 73	91160	48.67069	2.268267
Market properties	231 rue saint honore  75001 paris 1er	06 89 19 83 80	75001	48.866223	2.329201
Marnier seine	69 rue de seine  75006 paris 6eme	01 43 29 28 27	75006	48.854218	2.336988
Marnier st germain	207 boulevard saint germain  75007 paris 7ème	01 42 22 69 50	75007	48.856287	2.325228
Martel immobilier | agence lancry	55 rue de lancry  75010 paris 10ème	01 44 52 00 88	75010	48.871832	2.362366
Martel immobilier agence martel	7 rue martel  75010 paris	01 53 24 14 18	75010	48.873864	2.352864
Martine masson immobilier	1456 chemin hugues berenguier  06610 la gaude	04 93 24 88 82			
Marvel immobilier	49 avenue raymond poincare  75116 paris 16ème	01 47 27 27 77	75116	48.866767	2.285917
Mary's home immobilier	80 rue d'hauteville  75010 paris 10ème	01 42 46 36 98	75010	48.876073	2.351272
Masson immobilier	60 bd de charonne  75020 paris	01 43 56 01 00	75020	48.85238	2.397946
Masson immobilier	13b rue de chaligny 75012 paris 12ème	01 55 78 21 10	75012	48.846139	2.383467
Materre et mollica immobilier	68 rue de vaugirard  75006 paris 6ème	01 71 18 28 50	75006	48.848237	2.330818
Matimo	13 rue de turenne  75004 paris	01 42 72 33 25	75004	48.855449	2.363496
Maury-schwob.	7 boulevard pereire  75017 paris	01 47 66 44 44	75017	48.887547	2.312849
Maville immobilier	53 rue du general delestraint  75016 paris	01 77 75 08 82	75016	48.840204	2.256811
Mazet engerand et gardy	5 rue de la boetie  75008 paris 8ème	01 40 76 70 56	75008	48.874299	2.318648
Mc immo	32 avenue kleber  75116 paris 16ème	01 45 00 11 21	75116	48.870488	2.292379
Mcd	5 boulevard richard lenoir 75011 paris	01 47 00 02 22	75011	48.855243	2.369651
Mcdi international	20 rue longchamp  75116 paris	01 47 27 07 02 / 06 14 51 32 99	75116	48.865004	2.291065
Mdb	10 rue mollien  92100 boulogne billancourt	01 46 05 13 55	92100	48.845782	2.238239
Meilleursbiens immobilier	19 bd malesherbes  75008 paris 8ème	01 55 27 35 83	75008	48.872	2.321629
Mercure immobilier	124 boulevard pereire  75017 paris 17ème	01 40 55 00 55	75017	48.884615	2.296114
Meridian residential	16 avenue hoche  75008 paris 8ème	01 49 53 08 03	75008	48.876739	2.301511
Merlin et associés	16 rue servandoni  75006 paris	01 46 33 42 38	75006	48.8497	2.334727
Messieurs langlois et cie	105b bd malesherbes 75008 paris	01 53 43 33 00	75008	48.879632	2.313744
Mestrade immo conseil	24 rue malar  75007 paris	01 47 05 22 62	75007	48.85984	2.306041
Metropolis	48 rue laugier  75017 paris 17ème	01 46 22 60 60	75017	48.882713	2.294019
Mg aparte	16 rue de la fontaine du but  75018 paris	01 42 55 69 69	75018	48.890779	2.33946
Michel dourdin dehollain & associes	10 rue mesnil  75116 paris 16ème	06 09 44 21 20	75116	48.868351	2.284369
Michel hectus (sarl)	25 boulevard arago  75013 paris	01 45 35 07 09	75013	48.835288	2.349239
Midi a ma porte	115 rue st dominique  75007 paris 7ème	06 07 46 53 77	75007	48.859108	2.304836
Mimas patrimoine	39 rue proudhon 75012 paris 12ème	01 53 33 89 40	75012	48.837341	2.390815
Minclert immobilier	44 rue des martyrs  75009 paris	01 48 78 08 02	75009	48.879269	2.340039
Mister property	70 rue aristide briand  92300 levallois perret	01 40 89 01 01	92300	48.892233	2.288094
Miyako immobilier international	6 rue de beaugrenelle  75015 paris 15ème	01 74 30 44 65	75015	48.847793	2.284943
Mk immobilier	57 rue du rendez-vous  75012 paris	01 44 74 74 74	75012	48.846296	2.40158
Modern'imm	62 cours de vincennes  75012 paris	01 44 68 87 28	75012	48.847215	2.404339
Mon grand appartement	19 rue lambert  75018 paris	01 42 23 08 00	75018	48.888913	2.3453
Monceau expansion immobilier	76 rue de levis  75017 paris	01 46 22 10 10	75017	48.88442	2.312479
Monceau rive droite immobilier	3 rue de thann 75017 paris	06 59 72 06 36	75017	48.88135	2.30953
Moncim	92 rue monceau  75008 paris	01 44 90 84 84	75008	48.880604	2.316983
Mondial immo general	17 avenue d italie porte 177  75013 paris	01 45 86 42 80	75013	48.829267	2.356793
Monge patrimoine	38 rue monge  75005 paris 5ème	01 46 34 89 44	75005	48.845815	2.351778
Monique le bon	92 boulevard des batignolles  75017 paris 17ème	06 60 20 14 14	75017	48.881725	2.317611
Monseaux immo	6 rue monseaux  91360 epinay sur orge	01 64 54 02 73	91360	48.672972	2.328987
Monterey	1 rue des bauches 75016 paris 16eme	01 45 24 72 00	75016	48.855515	2.274833
Montfort & bon	5 rue d'auteuil  75016 paris	01 45 20 88 54	75016	48.847448	2.268293
Montmartre immobilier	6b rue ravignan  75018 paris	01 42 58 80 52	75018	48.885362	2.337874
Morgand daniel bernard marcel	35 bd bourdon  75004 paris 4ème	06 72 08 02 48	75004	48.85203	2.3676
Morvan et edgar quinet	20 22 rue edgar quinet  92400 courbevoie	01 41 16 50 50	92400	48.904903	2.268154
Mouly & associes	61 avenue secretan  75019 paris 19eme	06 98 80 26 26	75019	48.880302	2.375604
Mpc	10 rue dagobert  92110 clichy	01 55 90 00 00	92110	48.902761	2.305296
Mt habitat	22 rue didot  75014 paris 14ème	01 45 43 16 09	75014	48.832698	2.320618
Mti	106b av de villiers  75017 paris 17eme	01 42 67 26 26	75017	48.884821	2.299311
Muriel errera immobilier	80 rue de longchamp  92200 neuilly sur seine	06 62 62 76 04	92200	48.878191	2.251948
Muter loger immo	8 chemin du jubin  69570 dardilly	04 37 49 61 90	69570	45.813172	4.760809
Mutuelle immobiliere des lilas	7 bld de la liberte  93260 les lilas	01 43 62 09 37	93260	48.879923	2.417494
My home connexion immobilier	24 rue eugene flachat  75017 paris 17ème	01 75 57 25 28	75017	48.887177	2.299157
N et h immobilier	48 50 rue singer 75016 paris	01 46 51 58 58	75016	48.857041	2.275299
N.m. immobilier	6 rue fourcade  75015 paris	01 45 33 04 22	75015	48.837411	2.297767
Nadlane immobilier	78 rue de la villette  75019 paris 19ème	01 40 18 06 08	75019	48.878366	2.388265
Naima's agency	42 rue de miromesnil  75008 paris 8ème	06 08 78 06 27	75008	48.874198	2.315937
Naos immobilier	5 rue hassard  75019 paris	09 84 02 01 00	75019	48.878581	2.384125
Narval invest	20 rue saint lazare 75009 paris	06 69 18 12 34	75009	48.876829	2.337552
Natimmo	133 avenue du maine  75014 paris	01 56 54 01 02	75014	48.834675	2.324351
Natimo	101 rue de la tour  75016 paris	01 56 91 03 04	75016	48.862526	2.276709
Nation immobilier	2 rue marsoulan 75012 paris 12ème	01 56 95 09 00	75012	48.845208	2.402765
Naudet gestion patrimoine	7 rue d'estienne d'orves  92270 bois colombes 92270 bois colombes	01 41 32 28 90	92270	48.91532	2.271038
Nb intermediaires	16 rue nicolo  75116 paris	01 42 24 42 21	75116	48.858867	2.280201
Nbgi	19 rue la tour   75116 paris 16ème	01 42 15 80 01	75116	48.859337	2.282591
Negovalor	16 rue le sueur 75116 paris 16ème	01 45 00 15 15	75116	48.874793	2.287564
Nemrod immobilier	7 rue de la tour  75116 paris 16ème	01 42 88 87 47	75116	48.858868	2.283682
Neopolis	86 rue du faubourg saint denis 75010 paris 10eme	06 80 59 17 93	75010	48.87394	2.355229
Nesmond immobilier	20 rue robert fleury  75015 paris 15ème	06 03 99 68 21	75015	48.843667	2.300876
Nexity bureaux et commerces	41b avenue bosquet  75007 paris 7ème	01 73 73 46 46	75007	48.857941	2.30417
Nexity gestion privée gérance	41 bis avenue bosquet 75007 paris	01 73 73 46 46	75007	48.858071	2.304108
Nexity gip richardiere	19 rue de vienne tsa90033  75801 paris cedex 08	01 73 73 47 03	90000	47.632623	6.836156
Nexity grands investisseurs privés	41 bis avenue bosquet 75007 paris	01 55 30 16 00	75007	48.858071	2.304108
Nexity paris bureaux commerces	19 reu de vienne 75008 paris	01 73 73 46 46	75008	48.877453	2.322023
Nexity paris buttes chaumont	43 bis rue d'hautpoul 75019 paris	01 40 18 70 00	75019	48.883779	2.387571
Nexity paris etoile	7 rue de sfax 75016 paris	01 53 64 53 20	75016	48.870915	2.284054
Nexity paris nation	22 rue du sergent bauchat 75012 paris	01 44 68 86 30	75012	48.845328	2.392722
Nexity paris république	89 rue de turbigo 75003 paris	01 44 54 16 53	75003	48.866809	2.361507
Nexity paris trocadero	4 rue galilée 75016 paris	01 53 64 53 20	75016	48.86732	2.290824
Nexity paris vincent auriol	83 bd vincent auriol 75013 paris	01 43 37 65 16	75013	48.834391	2.367117
Nexity résidentiel	41 bis avenue bosquet 75343 paris	01 73 73 43 78	75007	48.858071	2.304108
Next flat	14 avenue de wagram  75008 paris 8eme	06 58 02 48 80	75008	48.875931	2.296873
Nicolas devillard immobilier	28 avenue raphael 75016 paris 16ème	06 50 17 43 46	75016	48.858126	2.266911
Nicolay & associes	40 avenue hoche 75008 paris 8ème	06 11 97 40 24	75008	48.875537	2.298797
Niel and co	9 rue lauriston  75116 paris 16eme	01 47 66 32 11	75116	48.871941	2.292747
Nina immobilier	62b avenue georges clemenceau  94700 maisons alfort	01 43 76 76 76	94700	48.810876	2.443662
Nisis	8 r de berri  75008 paris 8ème	06 81 15 58 30	75008	48.872266	2.304009
Norma performances norma conseil rh	3 rue de la bourse  75002 paris 2ème	01 70 95 95 75	75002	48.869378	2.339846
Notre-dame immobilier et la rente viagere	9, rue lagrange 75005 paris	01 46 33 71 47	75005	48.851497	2.347977
Nouallet immobilier	59 avenue de saint ouen 75017 paris	01 40 25 02 32	75017	48.891551	2.326783
Nouvelle demeure	74 bld st michel  75006 paris	01 46 34 52 12	75006	48.843145	2.338316
Novagence immobilier	82 boulevard de picpus  75012 paris 12ème	01 82 83 17 40	75012	48.845955	2.401477
Novestia immobilier	59 avenue marceau  75116 paris 16ème	01 72 34 81 51	75116	48.869944	2.297804
Np transactions	3 rue troyon  75017 paris 17ème	01 81 29 54 08	75017	48.875782	2.29554
O.i.p	25 rue clapeyron  75008 paris 8ème	06 64 54 94 37	75008	48.882397	2.3234
Objectif immobilier et entreprise	13 rue gay lussac  75005 paris	01 53 10 32 00	75005	48.845779	2.341453
Obs immobilier	82 avenue des ternes  75017 paris	01 45 74 08 88	75017	48.88006	2.288805
Oc-immobilier	37 bd fernand hostachy  78290 croissy sur seine	01 34 80 47 47	78290	48.878252	2.14307
Oce immobilier	29b rue monge  75005 paris	01 40 46 93 94	75005	48.846563	2.351892
Oce immobilier	11 rue de turenne  75004 paris	01 44 54 18 00	75004	48.855375	2.363439
Oce immobilier	193 boulevard voltaire  75011 paris	01 44 93 04 04	75011	48.853385	2.387834
Odeon immobilier	8 rue casimir delavigne  75006 paris	01 43 25 12 12	75006	48.850388	2.33916
Odgamm prime realty	67 avenue marceau  75116 paris 16eme	01 42 25 19 00	75116	48.870427	2.297521
Odi immobilier	18 rue pierre guerin  75016 paris	01 46 47 60 60	75016	48.848907	2.266643
Office immo	8082 rue du chemin vert  75011 paris 11ème	01 43 38 18 18	75011	48.862731	2.387025
Office metre carre	7 rue de surene  75008 paris 8ème	01 40 07 18 18	75008	48.870564	2.321869
Ofim agence laforet immobilier paris 16	134 rue de la pompe  75016 paris 16ème	01 47 04 47 12	75016	48.868428	2.281575
Olivier clement immobilier	37 rue jean pierre timbaud  92130 issy les moulineaux	01 55 95 81 20	92130	48.818215	2.249542
Olympe commercialisation	7 cite paradis  75010 paris	01 49 49 05 70	75010	48.874847	2.350507
Omnium	7 rue du faubourg poissonniere  75009 paris	01 44 83 11 22	75009	48.871321	2.347803
Onger immobilier	3 rue bayen  75017 paris 17eme	01 47 03 08 36	75017	48.878669	2.295646
Onim s.a.r.l	8 rue lemercier  75017 paris 17ème	01 44 07 32 05	75017	48.885679	2.324929
Opal gestion transaction	19 rue boursault  75017 paris 17ème	01 42 93 18 98	75017	48.883664	2.320204
Open conseil immobilier	37 rue de lappe 75011 paris 11ème	01 40 01 01 12	75011	48.853386	2.373418
Opportunity	3 rue de montreuil  94300 vincennes	01 43 98 10 10	94300	48.845698	2.434582
Optim	26 rue du chateau  21000 dijon	03 80 44 17 00	21000	47.324516	5.038333
Optimo	56 rue de wattignies  75012 paris	01 43 41 46 63	75012	48.835434	2.397497
Optimum - paris 19eme	87 rue de crimee 75019 paris	01 42 00 02 02	75019	48.883479	2.384901
Optimum - paris 20eme	350 rue des pyrenees 75020 paris	01 43 49 26 26	75020	48.873919	2.387514
Option 13	56 rue jenner  75013 paris 13ème	01 82 83 81 61	75013	48.83644	2.359847
Optireal	5 rue berryer  75008 paris 8eme	01 84 16 14 15	75008	48.875163	2.30396
Oralia agence immobiliere mozart	89 avenue mozart  75016 paris	01 53 92 50 00	75016	48.852043	2.268073
Oralia cabinet lescallier	12 bis rue de la victoire 75009 paris	01 53 21 23 27	75009	48.875089	2.339922
Oralia fay & cie	15 rue d argenteuil  75001 paris	01 53 45 12 12	75001	48.865268	2.333817
Oralia garraud-maillet	7 - 13 rue de bucarest  75008 paris 8ème	01 53 42 33 33	75008	48.880651	2.326315
Oralia lepinay malet	66 rue de la chaussee d'antin  75009 paris	01 56 59 10 96	75009	48.875711	2.332187
Oralia meillant & bourdeleau	28 rue du chateaudun  75009 paris 9ème	01 55 07 50 00	75009	48.876141	2.337387
Oralia pierre & gestion	54 rue daguerre  75014 paris 14ème	01 44 10 72 05	75014	48.834836	2.327399
Oriel immobilier	21 av de la republique  75011 paris	01 48 06 63 69	75011	48.866118	2.370788
Orpi champ de mars	29b av de la motte picquet 75007 paris	01 45 55 25 25	75007	48.855109	2.30709
Orpi convention vaugirard	354 rue de vaugirard 75015 paris	01 53 68 05 55	75015	48.835782	2.293151
Orpi gestion viala	210b avenue daumesnil 75012 paris	01 43 42 42 54	75012	48.837839	2.399758
Orpi l'agence félix faure	7 avenue felix faure 75015 paris	01 44 25 23 23	75015	48.842442	2.291496
Orpi luxembourg	97 boulevard raspail 75006 paris	01 44 39 10 10	75006	48.846661	2.32844
Orpi montsouris pl	95 rue barrault 75013 paris	01 45 81 21 21	75013	48.822743	2.346873
Orpi porte dorée	210b avenue daumesnil 75012 paris	01 43 42 42 52	75012	48.837839	2.399758
Oseide	50 rue du ranelagh  75016 paris 16ème	06 61 82 32 03	75016	48.854688	2.274126
Otimo	15 rue ginoux  75015 paris 15ème	06 79 11 86 57	75015	48.8479	2.287456
Oustal transaction	105 rue mademoiselle  75015 paris 15eme	01 56 58 50 30	75015	48.842991	2.302035
Owwi l'agence	16 rue du plateau  75019 paris 19ème	01 80 81 67 67	75019	48.878076	2.384573
P&p partners	43 rue de gergovie 75014 paris	01 75 57 17 06	75014	48.833161	2.316135
P.b.i.	51 rue laugier  75017 paris 17ème	01 40 54 80 08	75017	48.882745	2.293818
P.k.r. ( paris kleber realtors)	71 avenue kleber  75116 paris 16ème	06 46 31 47 90	75116	48.865578	2.289361
Palisseaux immobilier	23 avenue trudaine  75009 paris	01 42 85 02 52	75009	48.881263	2.343778
Paname immobilier	19 21 rue chapon  75003 paris 3eme	06 19 15 49 15	75003	48.863454	2.355746
Parc immo	100 ave simon bolivar 75019 paris	01 42 02 92 00	75019	48.877998	2.37428
Paris 1er immobilier	17 place du marche saint honore  75001 paris	01 42 86 88 44	75001	48.866584	2.331123
Paris chez soi	66 rue de sevres  75007 paris 7ème	06 79 23 59 29	75007	48.8479	2.319288
Paris corporate housing	11 rue tronchet  75008 paris 8ème	01 70 71 99 22	75008	48.871631	2.325423
Paris demeures	57 rue pierre charron  75008 paris	01 56 43 41 41	75008	48.869625	2.303305
Paris dream home	15 rue des boulangers  75005 paris 5eme	06 95 21 77 57	75005	48.845732	2.353542
Paris elysées investissements	23 rue la boetie  75008 paris	01 58 18 32 33	75008	48.873949	2.316605
Paris en vue	20 rue st didier  75116 paris 16ème	06 17 98 58 23	75116	48.866256	2.287501
Paris est immobilier	17 avenue claude vellefaux  75010 paris	01 42 02 39 39	75010	48.875402	2.37016
Paris estate services	50 rue greneta  75002 paris 2ème	06 11 10 02 22	75002	48.865477	2.348155
Paris euro immobilier	10 rue pergolèse   75116 paris	01 53 70 25 25	75116	48.875584	2.285465
Paris france immobilier	61 rue fbg montmartre  75009 paris	01 40 16 98 78	75009	48.876257	2.339779
Paris gestion immo	53 bd saint marcel  75013 paris 13ème	01 75 77 05 75	75013	48.837785	2.355607
Paris globe realty	3 avenue de breteuil  75007 paris 7ème	06 64 73 49 84	75007	48.85258	2.31273
Paris green apartments	84 av de wagram  75017 paris 17eme	06 79 72 73 42	75017	48.8824	2.301538
Paris home / casa parigi	100 quai rapee  75012 paris	06 28 04 66 52	75012	48.846273	2.367239
Paris immobilier	100 rue du faubourg saint martin  75010 paris	01 48 03 94 44	75010	48.873169	2.358116
Paris immobilier	33 rue tiquetonne  75002 paris	01 53 40 94 44	75002	48.864725	2.347331
Paris intra-muros invest	79 rue fondary  75015 paris 15ème	06 08 48 47 15	75015	48.846448	2.297601
Paris locations meublees	60 rue du roi de sicile   75004 paris 4eme	01 42 74 06 17	75004	48.856888	2.356076
Paris montmartre transactions	69 rue caulaincourt  75018 paris 18ème	01 42 62 04 04	75018	48.889636	2.336384
Paris neuilly immobilier	167 bd pereire  75017 paris	01 40 55 07 77	75017	48.882939	2.293953
Paris ouest gestion	78 bd st marcel  75005 paris	01 45 87 70 00	75005	48.837488	2.353422
Paris ouest sotheby's international realty	138 av victor hugo  75116 paris 16ème	01 77 37 67 67	75116	48.867334	2.279531
Paris pierre gestion	22 avenue victoria 75001 paris 1er	01 40 20 44 77	75001	48.85829	2.346195
Paris promo (sarl)	25 avenue hoche  75008 paris	01 45 63 25 60	75008	48.876565	2.302184
Paris property international	23 rue j j rousseau  75001 paris 1er	06 13 25 26 23	77520	48.479292	3.098405
Paris quinze	44 rue gutenberg  75015 paris 15ème	01 45 54 16 43	75015	48.843091	2.280106
Paris real estate	21 rue bayard  75008 paris 8ème	01 45 54 43 21	75008	48.866958	2.307663
Paris real estate advisors	28 rue palloy  92110 clichy	01 40 56 37 31	92110	48.902822	2.308866
Paris transac immo	1 rue alexandre parodi  75010 paris 10eme	01 42 41 91 56	75010	48.879291	2.366493
Paris trocadero immobilier	91 av kleber  75016 paris 16eme	01 47 04 83 99	75016	48.863947	2.288179
Paris xv immobilier	90 boulevard de grenelle  75015 paris	01 58 01 10 10	75015	48.849882	2.294647
Paris-streets	6 rue de lamartine  75009 paris 9ème	01 42 81 01 01	75009	48.876592	2.343707
Paris-villages immo	46 rue bichat  75010 paris 10eme	01 42 06 02 02	75010	48.873846	2.364575
Parisearch	20 rue saint didier  75016 paris 16ème	06 12 26 27 97	75016	48.866256	2.287501
Parismmo	64 avenue de la republique  75011 paris 11ème	01 75 77 29 47	75011	48.864637	2.377119
Paristay	16 rue j j rousseau  75001 paris 1er	09 51 40 45 98	77520	48.479292	3.098405
Park avenue immobilière	6 rue royale  75008 paris 8ème	01 55 35 34 00	75008	48.86747	2.322805
Partners residentiel	45 avenue joffre  94100 saint maur	01 48 86 44 14	94100	48.80338	2.499264
Pascale laisne immobilier	53 rue d'orsel  75018 paris	01 42 57 41 41	75018	48.883484	2.340436
Passy muette	72b rue de la tour 75016 paris	01 45 04 16 16	75016	48.860813	2.280098
Patream	10 rue cloitre notre dame 75004 paris 4ème	01 78 91 91 00	75004	48.853389	2.350196
Patrimoine 17 - century 21	55 rue de la jonquiere  75017 paris	01 53 31 31 50	75017	48.893743	2.321941
Patrimoine et immobilier	23 cours edouard vaillant  33300 bordeaux	05 56 39 35 35	33090	44.860084	-0.55757
Pegase real estate	51 rue francois 1er 75008 paris 8ème	06 68 86 66 66	75008	48.869526	2.302112
Pelissolo immobilier	63 rue pierre charron  75008 paris	01 45 62 06 60	75008	48.869926	2.303898
Pensim	64 rue de longchamp  75116 paris	01 47 04 46 46	75116	48.865175	2.286208
Perenium gestion privée immobilière	33 avenue de l'opera  75002 paris 2ème	01 49 70 93 30	75002	48.867778	2.333322
Pernety h.c	24 rue raymond losserand 75014 paris	01 45 38 53 22	75014	48.835562	2.32099
Perspectiv'immo	229 boulevard raspail 75014 paris	01 40 47 80 80	75014	48.839883	2.330652
Perspectives	63 avenue des champs elysees  75008 paris 8ème	06 27 95 48 21	75008	48.870442	2.304422
Philippe menager et nicolas hug	31 rue de tournon  75006 paris	01 53 10 22 60	75006	48.849706	2.337448
Pierre de france	62 rue ranelagh  75016 paris	01 40 50 50 00	75016	48.854929	2.272905
Pierre de taille conseil immobilier	7 rue daru  75008 paris	01 47 63 89 34	75008	48.877725	2.301289
Pierre immobilier	256 rue de charenton  75012 paris	01 49 28 51 61	75012	48.837619	2.390712
Pierre invest	40 rue des poissonniers 92200 neuilly sur seine	01 55 62 02 03	92200	48.885495	2.262729
Pierre neff immobilier	56 rue du faubourg st antoine75012 paris 12ème	01 46 59 02 75	75012	48.851953	2.373142
Pierres de paris	15 rue emile duclaux  75015 paris	01 47 34 31 42	75015	48.842287	2.308967
Pierres de paris	80 rue vaneau  75007 paris 7ème	01 42 84 10 00	75007	48.848992	2.320197
Pierres s.a.	5 7 rue de l'amiral roussin 75015 paris	01 45 66 47 47	75015	48.845731	2.299015
Pif immobilier	238b rue du fbg st antoine  75012 paris	01 40 09 66 64	75012	48.849261	2.389275
Pinel immobilier	11 place pinel  75013 paris	01 53 60 05 06	75013	48.833598	2.361257
Pit immo	17 bld de la villette  75010 paris	01 40 40 98 26	75010	48.873037	2.37557
Pl immobilier	53 rue de seine 75006 paris 6ème	01 42 23 33 40	75006	48.854852	2.336896
Plisson immobilier	40 rue brunel  75017 paris	01 45 72 99 23	75017	48.878699	2.287855
Plurimmo	141 rue de l'universite  75007 paris	01 53 59 59 00	75007	48.86107	2.306479
Pm consulting	231 rue saint honore  75001 paris 1er	01 53 05 81 81	75001	48.866223	2.329201
Pmwb gestion	3 rue neuve popincourt 75011 paris	01 47 00 55 47	75011	48.864682	2.373969
Point de vente 15ème	3 rue felix faure  75015 paris 15ème	01 40 60 70 70	75015	48.839408	2.284618
Poiret immobilier	174 rue de vaugirard 75015 paris	01 53 59 31 90	75015	48.842428	2.310725
Pole international	9 rue galilée  75016 paris	01 44 43 09 09	75016	48.867828	2.291675
Porcher immobilier	24 26 rue botzaris  75019 paris	01 53 72 80 90	75019	48.877376	2.381279
Prébay immobilier	96 rue michel ange  75016 paris	01 40 71 90 36	75016	48.840679	2.258203
Premier immobilier-eurimmo	92 rue lafayette  75009 paris	01 48 01 82 40	77120	48.815255	3.087524
Prestige rental	12 14 rdt point des champs elysees  75008 paris 8ème	01 45 55 61 75	75008	48.86971	2.309783
Prestige transactions	19 rue des renaudes 75017 paris	01 42 12 06 36	75017	48.879934	2.298932
Prestigere	10 rue la  condamine  75017 paris	06 22 08 84 97	75017	48.887764	2.324143
Privagest	30 avenue felix faure  75015 paris	06 60 68 06 06	75015	48.841843	2.289456
Privilege conseil	51 rue molitor  75016 paris	01 43 54 50 00	75016	48.845246	2.258189
Privilege gestion	30 boulevard haussmann 75009 paris 9ème	01 42 66 27 19	75009	48.872849	2.334906
Privilege immobilier	86 rue lamarck  75018 paris	01 55 79 79 79	75018	48.890166	2.33765
Pro comm - alcopro	23b rue du surmelin  75020 paris 20eme	01 40 30 20 00	75020	48.868487	2.404029
Pro comm - consult'imm	20 rue emile duclaux  75015 paris 15eme	01 47 34 22 59	75015	48.842017	2.308921
Pro comm - espace immobilier	125 avenue parmentier  75011 paris 11eme	01 43 38 61 00	75011	48.868872	2.371706
Pro comm - essache immobilier	56 rue jouffroy d'abbans  75017 paris 17eme	09 54 19 16 64	75017	48.88486	2.306427
Pro comm - ferri socofinord	13 rue dubrunfaut 75012 paris	01 44 74 94 94	75012	48.840241	2.390549
Pro comm - immo75 entreprises	18 rue de montreuil  75011 paris 11ème	01 55 25 23 00	75011	48.850413	2.385186
Pro comm - mars & associés	89b avenue des ternes  75017 paris 17eme	01 42 67 07 08	75017	48.880056	2.28737
Pro comm - michael cross immobilier	17 avenue ledru rollin  75012 paris 12eme	01 48 24 36 80	75012	48.846722	2.368872
Pro comm - oxor conseil	91 rue du fbg st honore  75008 paris 8ème	06 19 75 92 74	75008	48.871989	2.31304
Pro comm - seine et cité	81 rue de turenne  75003 paris 3eme	01 53 68 64 02	75003	48.860136	2.36446
Procity immobilier	95 rue ordener 75018 paris 18ème	01 75 57 92 17	75018	48.89194	2.347019
Prog	52 rue tolbiac  75013 paris	01 45 82 80 80	75013	48.827621	2.370282
Prog immobilier	50 rue de menilmontant  75020 paris	01 43 58 08 08	75020	48.868147	2.387799
Progedim	8 rue de tournus  75015 paris	01 45 75 89 07	75015	48.847099	2.294407
Progesco	11 rue du havre  75008 paris 8ème	01 44 69 91 04	75008	48.875091	2.326566
Progessimmo	20 boulevard saint marcel  75005 paris 5eme	01 45 30 08 08	75005	48.839581	2.359997
Projet immobilier	7 rue crozatier  75012 paris	01 43 44 45 24	75012	48.845487	2.382584
Prompt'immo	14 rue keller  75011 paris 11ème	06 03 56 13 29	75011	48.854388	2.376247
Propriétés parisiennes	95 rue du faubourg saint honore  75008 paris 8ème	01 44 94 99 80	75008	48.872088	2.312636
Providentiales immobilier	186 avenue de versailles  75016 paris	01 46 24 01 23	75016	48.839528	2.261955
Purdey immobilier	70 bld de la tour maubourg  75007 paris 7eme	06 20 20 20 40	75007	48.856693	2.309676
Pv conseil	203b rue saint martin  75003 paris 3ème	01 42 72 21 40	75003	48.863676	2.352618
Pyb services immobilier	4 rue du puits bray  60260 lamorlaye	03 44 58 54 43	60260	49.153884	2.442781
Quadral transactions	centre d'affaires beau rivage 24t rue du general de gaulle 57050 ban st martin	03 87 37 77 37	57050	49.116329	6.14106
Quai voltaire immobilier	17b quai voltaire  75007 paris	01 53 04 08 04	75007	48.858741	2.33141
Qualite bh immobilier	71 avenue de saint ouen  75017 paris	01 42 29 30 30	75017	48.89221	2.327003
Qualité bh immobilier damrémont	83 rue damremont  75018 paris	01 42 52 01 20	75018	48.893462	2.336115
Quartier seine immobilier	38 rue saint placide  75006 paris 6ème	06 50 88 33 30	75006	48.848365	2.325688
Quartiers immobilier	98 avenue niel  75017 paris	01 47 66 42 00	75017	48.884148	2.297226
Quartiers parisiens	41 boulevard du commandant charcot  92200 neuilly sur seine	01 46 24 82 82	92200	48.876386	2.256139
Quatro immobilier	89 avenue de clichy  75017 paris	01 44 85 95 95	75017	48.888584	2.323422
Quatro immobilier gérance	19 rue des moines  75017 paris	01 44 85 27 99	75017	48.888533	2.319003
R.c.r rosine champetier de ribes	12 rue bremontier  75017 paris	01 42 67 37 74	75017	48.884705	2.304141
R.t.u	297 fg st antoine  75011 paris	01 43 67 03 03	75011	48.84921	2.39126
Raincourt immobilier mozart	81 avenue mozart  75016 paris 16ème	01 60 05 95 55	75016	48.85283	2.268503
Raincourt victor hugo	3 rue gustave courbet  75116 paris 16ème	01 76 74 78 88	75116	48.866323	2.281567
Rbmg	128 r la boetie  75008 paris 8ème	06 16 30 04 09	75008	48.870955	2.305981
Re immo	63 rue caulaincourt  75018 paris 18eme	06 03 98 44 04	75018	48.889605	2.335589
Real 31	13 rond point du souvenir francais  92250 la garenne colombes	01 47 84 31 31	92250	48.906147	2.248721
Real capital	59 rue de chateaudun 75009 paris 9ème	01 58 60 20 60	75009	48.876219	2.332307
Real expert	14 rue ampere  75017 paris 17ème	06 98 15 07 73	75017	48.885297	2.305591
Recherche immobiliere	11 avenue de bouvines  75011 paris	06 32 95 05 81	75011	48.850773	2.39615
Reflet immobilier	13 av du bel air  75012 paris 12ème	01 43 40 43 36	75012	48.846243	2.397325
Regus	72 rue du faubourg saint honore  75008 paris 8ème	01 70 92 39 80	75008	48.870266	2.317947
Reille immobilier montsouris	41 avenue reille  75014 paris 14ème	01 81 92 75 60	75014	48.823875	2.333941
Remy piard immobilier	8 rue de l epee de bois  75005 paris	01 43 36 03 16	75005	48.841618	2.350917
René legal consultants	99 bd auguste blanqui  75013 paris 13ème	01 45 65 30 84	75013	48.830078	2.346121
Rennes saint germain immobilier	61 rue vaugirard  75006 paris	01 53 63 04 40	75006	48.847185	2.327556
Reseau international immobilier	72 rue de rochechouart  75009 paris	01 48 74 20 70	75009	48.881621	2.346612
Residence principale	34 avenue de la marne  92600 asnieres sur seine	01 55 02 11 55	92600	48.906003	2.281204
Residential	66 avenue de la bourdonnais  75007 paris	01 47 05 30 12	75007	48.85551	2.30323
Retail & development	29 rue des mathurins 75008 paris 8ème	01 40 06 02 08	75008	48.873182	2.325554
Rigothier immobilier	3b rue antoine chantin  75014 paris 14ème	06 99 66 16 67	75014	48.826835	2.323844
Rivard immobilier et relocation	40b avenue bosquet  75007 paris	01 45 51 31 53	75007	48.856447	2.304372
Rive droite immobilier	140 boulevard voltaire  75011 paris	01 46 59 28 82	75011	48.856684	2.381687
Rive droite-rive gauche invest	4 square du trocadero  75116 paris	01 47 27 04 55	75116	48.862554	2.282449
Rive ouest immobilier	81 avenue jean baptiste clement  92100 boulogne billancourt	01 48 25 81 00	92100	48.844878	2.234958
Rmj transactions	49 rue des batignolles  75017 paris 17ème	01 42 26 65 50	75017	48.88574	2.319482
Roland-gosselin & associés	66 avenue de breteuil  75007 paris	01 43 06 11 11	75007	48.848571	2.311297
Roof immobilier	36 boulevard exelmans  75016 paris	01 42 88 20 10	75016	48.841437	2.264211
Royal immo	1 rue mesnil  75116 paris	01 45 05 15 05	75116	48.869113	2.28504
Royimmo	17 avenue ledru rollin  75012 paris	01 44 75 75 70	75012	48.846722	2.368872
Rp immobilier	32 rue jean mermoz  75008 paris 8ème	01 53 53 25 26	75008	48.871632	2.312198
Rrp	122 boulevard victor hugo  93400 saint-ouen		93400	48.905837	2.323686
Rv immobilier	17b av jean jaures  75019 paris	01 53 72 91 23	75019	48.883531	2.3725
Rynda france	13 rue la fayette  75009 paris 9eme	04 72 40 44 65	75009	48.873886	2.335959
S g i v paris	11 rue de la chine  75020 paris	01 40 30 10 13	75020	48.866942	2.399324
S-immo	166 avenue de versailles 75016 paris	01 46 51 51 46	75016	48.840139	2.263539
S.a jean charpentier	204 boulevard voltaire  75011 paris	01 43 48 96 49	75011	48.853612	2.386844
S.c.i.i.i.	11 rue marbeuf  75008 paris	06 14 71 71 98	75008	48.867812	2.302488
S.e groupe auburtin  etude custine	4 rue custine  75018 paris	01 42 52 86 27	75018	48.88773	2.349039
S.e groupe auburtin  paris aquitaine immobilier	209 rue du faubourg st denis  75010 paris	01 46 07 72 05	75010	48.883962	2.359152
S.g.t.f	25 rue godot de mauroy  75009 paris 9ème	01 47 20 47 00	75009	48.871675	2.327125
S.i.g.	33, rue du pont neuf 75001 paris	01 40 64 30 50	75001	48.861306	2.344875
S.t.h immobilier	170 rue de lourmel  75015 paris	01 45 58 62 02	75015	48.83926	2.282405
Sa jean louis fourmont	42 avenue montaigne  75008 paris 8ème	01 42 25 60 60	75008	48.867334	2.307362
Sabard immobilier	4 allee longchamps  95160 montmorency	01 39 89 92 37	85130	46.95773	-0.999849
Sacha	126 rue de menilmontant  75020 paris	01 40 33 14 49	75020	48.869983	2.395644
Sadimo	19 rue grands augustins  75006 paris	01 53 10 32 10	75006	48.854129	2.340539
Saggel courcelles	56 boulevard exelmans  75016 paris	01 53 84 70 40	75016	48.842336	2.262224
Saint eloi gestion	4b rue parrot  75012 paris 12ème	01 43 57 45 68	75012	48.846696	2.372931
Saint ferdinand auteuil	112 rue lafontaine  75016 paris	01 45 27 01 00	78190	48.777522	2.011602
Saint ferdinand courcelles	107 rue de courcelles  75017 paris	01 48 88 02 62	75017	48.882083	2.300015
Saint ferdinand neuilly	3 rue des huissiers  92200 neuilly-sur-seine	01 47 22 01 00	92200	48.884089	2.265631
Saint ferdinand passy-muette	6 chaussee de la muette  75016 paris 16ème	01 55 74 36 00	75016	48.858297	2.273856
Saint ferdinand vii	204 rue de grenelle  75007 paris	01 45 55 67 89	75007	48.85699	2.303862
Saint ferdinand villiers	6 rue de tocqueville  75017 paris	01 43 18 01 00	75017	48.88203	2.314577
Saint gervais	15 rue de turenne  75004 paris 4eme	01 43 44 08 60	75004	48.855586	2.3636
Saint hilaire immobilier	22 rue de picardie  75003 paris 3eme	01 42 77 11 11	75003	48.863867	2.362904
Saint-hilaire immobilier	25 rue de vaugirard  75006 paris	01 45 44 00 00	75006	48.848406	2.331816
Salomon et associés	20 rue cambon  75001 paris 1er	01 53 84 50 77	75001	48.867656	2.32646
Salons realty	118 av de france  75013 paris 13ème	06 15 89 45 35	75013	48.831126	2.376509
Samcoger	39 rue de palestro  75002 paris	01 42 21 17 42	75002	48.866947	2.352298
Samothrace - bien sur immobilier	17 bd saint marcel  75013 paris	01 43 31 31 68	75013	48.839053	2.359619
Sanea immobilier	27 avenue de l opera  75001 paris 1er	01 70 38 51 24	75001	48.866853	2.333724
Sansvisavis.com	171b ave charles de gaulle  92200 neuilly sur seine	01 40 88 10 87	92200	48.883586	2.263069
Sarah b conseil immobilier	35 rue pastourelle  75003 paris 3ème	01 83 87 56 85	75003	48.863089	2.35875
Sarl advisoring immobilier	277 rue du faubourg st antoine  75011 paris 11ème	01 43 40 49 42	75011	48.849505	2.389276
Sarl agence arago	112 bd arago  75014 paris 14ème	01 53 10 25 58	75014	48.834631	2.333514
Sarl duthoit transactions	3 passage doisy  75017 paris	01 58 05 39 39 / 06 76 05 04 90	75017	48.87877	2.291878
Sarl faubourg conseil immobilier	65 rue faubourg st honore  75008 paris	01 43 55 11 75	75008	48.871351	2.315395
Sarl gerard ribereau	10b rue baron  75017 paris 17eme	01 53 06 95 97	75017	48.894371	2.322723
Sarl haussmann invest	29 rue greuze  75116 paris 16ème	01 53 65 10 25	75116	48.864427	2.282133
Sarl im.va.co	16 rue bézout 75014 paris	01 43 27 18 54	75014	48.828994	2.331466
Sarl imm agence	15 rue victor hugo  94700 maisons alfort	01 43 76 73 89	94700	48.801229	2.433286
Sarl immo conseil transaction	26-28 rue de londres 75009 paris 9eme	06 45 31 60 51	75009	48.877501	2.328242
Sarl luc dupuis	100  rue jouffroy d'abbans 75007 paris 7ème 75017 paris 17ème	01 42 22 34 00	75017	48.882672	2.302487
Sarl rivoli immobilier	11 rue bertin poiree  75001 paris	06 26 43 51 96	75001	48.858849	2.344788
Sarvilep - etablissement sni idf	35 rue de la gare  75019 paris 19eme	01 30 11 11 54	75019	48.901032	2.37225
Sas fonciere lelievre	7 rue lebon  75017 paris 17ème	01 40 55 55 85	75017	48.880777	2.292187
Sas fonciere lelievre	61 bd de vaugirard  75015 paris	01 42 79 91 92	75015	48.840597	2.316108
Sas fonciere lelievre	30 avenue rapp  75007 paris 7ème	01 78 94 55 22	75007	48.858403	2.300149
Sas mrz - immojeune	7b rue saint gilles 75013 paris 13ème 75003 paris 3ème	06 66 52 15 34	75003	48.857885	2.365729
Sas paris immo	126 rue lamarck 75018 paris 18ème	01 42 57 03 80	75018	48.890714	2.333535
Sas paris syndic et gestion	4 rue oudinot  75007 paris 7ème	01 44 18 28 38	75007	48.850499	2.31905
Sasim	13 rue de rivoli  75004 paris	01 48 87 53 02	75004	48.855824	2.358093
Savi sarl	266, avenue daumesnil  75012 paris	01 55 97 01 71	75012	48.836167	2.404299
Savia	228 rue lecourbe  75015 paris	01 45 33 06 41	75015	48.839786	2.293383
Savin immobilier	41 rue francois 1er  75008 paris 8ème	01 44 43 03 10	75008	48.868825	2.303229
Sbi - gefimo	26 rue de l'amiral mouchez  75014 paris 14ème	01 45 88 63 12	75014	48.824723	2.341361
Sbl conseil immobilier	43 rue popincourt  75011 paris 11ème	09 81 93 05 88	75011	48.859225	2.375937
Sc conseils	23 rue du docteur heulin  75017 paris 17ème	01 42 28 96 45	75017	48.890297	2.323454
Sc ml des bords de seine	144 avenue des champs elysees  75008 paris 8ème	01 58 56 28 28	75008	48.873	2.298593
Scali immobilier	91 rue du faubourg st honore  75008 paris 8ème	01 46 37 64 22	75008	48.871989	2.31304
Scandic immobilier	77 avenue de la bourdonnais  75007 paris	01 45 79 68 52	75007	48.856577	2.302058
Scaprim	21 rue d'artois  75008 paris	01 53 93 10 20	75008	48.873215	2.307181
Scheffer immobilier	34 rue scheffer  75116 paris	01 47 27 89 00	75116	48.861913	2.282322
Scoti	28 rue d'alesia  75014 paris	01 43 27 10 10	75014	48.827917	2.330919
Scott immobilier	48 rue volta  75003 paris 3ème	01 42 72 81 81	75003	48.866666	2.358132
Scp daudruy-rouzé-lantez-van overbeke	2 rue de l'argiliere  60300 senlis	03 44 53 99 40	60300	49.209097	2.601881
Scp mateu-sanchez	1 bd jean baptiste santerre  95420 magny en vexin	01 34 67 00 02			
Sebert immobilier	27 rue des tournelles  75004 paris 4ème	01 74 30 09 76	75004	48.855811	2.367241
Sector immobilier	118 avenue de saint ouen  75018 paris	01 42 29 29 00	75018	48.894969	2.328287
Segma transactions	75 bis rue michel ange 75016 paris	01 47 43 97 30	75016	48.842326	2.259666
Segur immobilier	21b avenue de segur  75007 paris	01 82 09 14 58	75007	48.851361	2.309992
Select immobilier	27 avenue de versailles  75016 paris	01 45 27 22 82	75016	48.849714	2.2763
Selection parisienne	218 avenue de versailles  75016 paris 16ème	06 22 74 46 37	75016	48.838615	2.259009
Selenim	4 rue de chanaleilles  75007 paris 7ème	06 64 37 42 83	75007	48.853217	2.318334
Selexium gestion locative	17 avenue de l'opera  75001 paris 1er	01 82 28 71 07	75001	48.865786	2.334183
Sellier patrimoine	34 rue alfred nomblot  92340 bourg la reine	09 54 92 34 00	92340	48.772082	2.315937
Sequoia immobilier	3 rue des ecoles  92210 st cloud	06 51 41 85 25	92210	48.843369	2.218166
Serenia	sas serenia 24 rue du faubourg poissonniere 75010 paris	01 48 00 28 00	75010	48.872639	2.347988
Sergic paris 15ème	45 rue de lourmel 75015 paris	01 56 58 66 01	75015	48.847525	2.289802
Sergic paris 8ème	45 rue de courcelles  75008 paris	01 56 59 75 75	75008	48.876174	2.307917
Serila	10 place des vosges  75004 paris	01 42 74 76 81	75004	48.85504	2.366308
Service immobilier parisien	248b boulevard voltaire  75011 paris	01 43 70 57 56	75011	48.851112	2.391037
Service immobilier parisien	3 place de la nation  75011 paris 11ème	01 43 79 36 89	75011	48.848951	2.394409
Services-immo	9 place falguiere  75015 paris 15ème	06 36 97 56 97	75015	48.836315	2.310544
Serviconseils	10 rue de chanzy  75011 paris	01 43 67 84 84	75011	48.852439	2.38297
Sfi	4 rue leon delagrange  75015 paris 15eme	06 08 43 95 26	75015	48.834204	2.285675
Sfpi	112 avenue kleber  75116 paris	06 18 34 35 77	75116	48.864241	2.287848
Sgip	40 rue rochechouart  75009 paris 9ème	01 42 85 15 15	75009	48.879234	2.345753
Sgsi	216 rue de la convention  75015 paris	01 42 50 60 61	75015	48.836557	2.298403
Sh capital conseils	55 bd de charonne  75011 paris 11ème	06 61 56 61 10	75011	48.852789	2.396985
Signature immobilier	71 avenue paul doumer  75116 paris 16ème	01 45 03 03 45	75116	48.859534	2.278598
Simi	51 rue richard lenoir  75011 paris 11ème	01 48 06 93 89	75011	48.857032	2.380777
Simif	11 rue d'artois  75008 paris	06 11 76 09 50	75008	48.872848	2.307786
Sinaco	1 rue du faubourg saint honore  75008 paris 8eme	01 53 43 06 70	75008	48.868404	2.322918
Sistel  immo	58 boulevard magenta  75010 paris	01 40 38 22 22	75010	48.873541	2.358757
Sit gestion	51 bis rue condorcet  75009 paris	01 42 81 33 01	75009	48.880174	2.343044
Sjlb	42 rue claude terrasse  75016 paris 16ème	01 40 71 02 03	75016	48.837741	2.260869
Smart invest	62 avenue de la grande armee  75017 paris 17ème	01 83 64 33 08	75017	48.876905	2.286303
Société d'exploitation du cabinet pautrat	132 rue faubourg poissonniere  75010 paris	01 48 78 66 09	75010	48.880387	2.349874
Societe fai	13 rue michel chasles  75012 paris	01 43 43 00 88	75012	48.847434	2.373715
Societe gid	8 rue auber  75009 paris	01 42 66 20 88	75009	48.872472	2.329591
Societe ocim transactions	30 avenue franklin roosevelt 75008 paris	01 49 53 90 30	75008	48.872474	2.310221
Societe ogif	18b rue villiers  92300 levallois perret		92300	48.887868	2.282222
Societe p.t.i.	84, rue de tocqueville 75017 paris	01 43 80 60 09	75017	48.886128	2.309498
Societe philae	11 rue benjamin franklin  75116 paris	01 42 24 70 74	75116	48.859543	2.285142
Societe piic	31 rue dussoubs  75002 paris 2ème	01 53 06 60 90	75002	48.866597	2.349259
Societe psim	35 ave de la motte picquet  75007 paris	01 45 55 96 69	75007	48.854826	2.306675
Societe ufp	16 rue guillaume tell  75017 paris	01 42 67 12 12	75017	48.884134	2.293938
Sofigest	97 boulevard malesherbes  75008 paris	01 45 63 40 09	75008	48.878845	2.314703
Sofincal conseil	21 23 rue casimir perier  75007 paris	01 47 05 87 40	75007	48.857704	2.319233
Sogeab	142 rue de charonne  75011 paris	01 43 48 99 89	75011	48.855257	2.388742
Sogei	7 rue des cordelières  75013 paris	01 45 87 92 29	75013	48.835058	2.348889
Sogemac habitat	1 quai de grenelle  75015 paris 15eme	01 56 77 29 06	75015	48.854173	2.288488
Sogemat immobilier	3 rue mederic 75017 paris 17ème	01 56 33 33 07	75017	48.880277	2.302466
Solanet s.a.s	44 46 avenue président kennedy 75016 paris	01 45 25 63 44 / 06 07 86 45 47	75016	48.854822	2.283806
Solid	12 rue saint bon 75004 paris	01 40 29 44 08	75004	48.858634	2.350675
Solvimo	72 rue mirabeau  14800 deauville	02 31 87 24 73	14800	49.359585	0.079499
Solvimo immobilier	31 33 bd de chanzy  93100 montreuil sous bois	01 43 63 21 27	93100	48.858382	2.432718
Solvimo paris 12	7 avenue du dr arnold netter  75012 paris	01 44 68 80 38	75012	48.841499	2.404721
Solvimo paris 19	56 rue de l'ourcq  75019 paris 19ème	01 40 38 38 88	75019	48.892196	2.379602
Solvimo paris pantin	118 130 avenue jean jaures 75171 paris cedex 19	06 03 34 40 21	75019	48.88619	2.383784
Sophim transactions	25 rue godot de mauroy  75009 paris 9ème	01 47 20 96 96	75009	48.871675	2.327125
Sopretec	1 route de l'hers  31150 lespinasse	05 61 74 87 11	31150	43.710862	1.391561
Sorephimmo	4 rue gustave flaubert 75017 paris	01 46 22 75 59	75017	48.881657	2.299867
Sorvim	47 avenue de villiers 75017 paris	01 43 80 67 15	75017	48.883111	2.307424
Sotrasim	20 av mac mahon  75017 paris	01 47 66 37 37	75017	48.877681	2.29462
Sotrim	33 rue galilee  75116 paris	01 47 20 02 64	75116	48.869333	2.295123
Spécial immobilier sdit	27 avenue de l'opera  75001 paris 1er	01 70 38 52 90	75001	48.866853	2.333724
Spr immobilier	67 place du dr felix lobligeois  75017 paris	01 40 25 96 60	75017	48.886312	2.318276
Spring ingenierie immobiliere	36 rue ponthieu  75008 paris 8ème	01 42 89 08 22	75008	48.871212	2.308095
Square's international	34 rue du bois de boulogne  92200 neuilly sur seine	01 41 92 22 22	92200	48.881413	2.254417
Sri gestion	33b rue du sahel  75012 paris 12ème	01 43 43 13 13	75012	48.840926	2.404976
Srjg gestion	110 rue orfila  75020 paris 20ème	01 75 77 43 77	75020	48.868116	2.400535
Standing home	50 rue decamps  75116 paris	01 45 04 73 32	75116	48.863097	2.276981
Ste d'administration et de gestion	14 rue de marignan  75008 paris	01 47 23 89 30	75008	48.868643	2.306488
Ste d'exploitation groupe auburtin	3 rue ordener  75018 paris	01 42 05 84 03	75018	48.890173	2.359243
Ste jeanniot et cie	7/9 rue des cottages  75018 paris	01 42 59 70 80	75018	48.890932	2.337024
Ste lartigue	8 rue d'estrees  75007 paris	01 47 05 61 91	75007	48.851713	2.312749
Stern & cie	54 avenue hoche  75008 paris 8ème	06 60 71 07 00	75008	48.875072	2.297681
Sth conseil	17 rue hermel 75018 paris	06 23 96 45 24	75018	48.890777	2.34411
Sti 16	9 rue de mulhouse  75002 paris 2ème	01 45 04 55 16	75002	48.868767	2.346755
Sti duvernet	6 rue mouton duvernet  75014 paris 14ème	01 45 45 26 23	75014	48.831614	2.329281
Sti montparnasse	17 rue delambre  75014 paris	01 43 35 46 37	75014	48.841564	2.327618
Sti pernety	102 rue raymond losserand  75014 paris	01 45 43 44 05	75014	48.832776	2.315488
Stone real estate	20 avenue de friedland  75008 paris	06 15 15 65 21	75008	48.874536	2.30069
Strategim	29 rue miromesnil  75008 paris 8eme	01 40 17 93 39	75008	48.873116	2.315895
Studelites	1 rue lesage  26000 valence	04 75 40 80 25	26000	44.918945	4.883706
Studio et 2 pieces	55 rue claude bernard  75005 paris	01 47 07 96 96	75005	48.840538	2.345124
Studios de paris	4 rue androuet  75018 paris 18ème	01 42 59 43 05	75018	48.88568	2.338588
Sud immobilier	16 avenue rene coty  75014 paris	01 43 27 52 44	75014	48.83012	2.333742
Sullivan agency	18 rue benjamin franklin  75116 paris	01 55 74 81 00	75116	48.860099	2.285827
Sully gestion	42b quai henri iv 75004 paris	01 44 54 21 65	75004	48.850099	2.36158
Superficies	37 rue doudeauville  75018 paris	01 42 23 36 36	75018	48.88846	2.354127
Supergestes	37 rue doudeauville  75018 paris 18ème	01 44 92 72 60	75018	48.88846	2.354127
Surface immo	100 avenue ledru rollin  75011 paris 11ème	01 78 76 57 65	75011	48.852041	2.376729
Surface volume espace	17 rue saussier-leroy 75017 paris	01 45 55 02 02	75017	48.87991	2.295811
Surfaces - gestion	2bis rue felix ziem  75018 paris 18ème	01 42 71 00 00	75018	48.889519	2.333429
Surfaces immobilier	15 rue des abbesses  75018 paris	01 42 58 85 40	75018	48.884134	2.338466
Swixim	130 rue pierre corneille  69003 lyon 3ème	04 37 23 53 20	69003	45.759577	4.844523
Tagerim bastille	24 avenue daumesnil  75012 paris 12ème	01 44 68 74 91	75012	48.848032	2.373453
Tagerim courcelles	112t rue cardinet  75017 paris 17ème	01 41 09 06 45	75017	48.885824	2.312009
Tahiti immobilier	61 avenue de choisy  75013 paris	01 45 86 85 32	75013	48.823083	2.362179
Talentissimmo prestige	61 boulevard de reuilly  75012 paris	01 43 42 42 42	75012	48.839799	2.398528
Tendances immobilieres	35 avenue trudaine  75009 paris 9ème	01 55 32 32 32	75009	48.881059	2.342736
Terimmo	10 rue saint marc  75002 paris 2ème	01 40 13 96 78	75002	48.870387	2.341376
Ternes elysees immobilier	30, rue poncelet 75017 paris	01 40 54 06 08	75017	48.879585	2.298122
Terrasse et cie immobilier	74 rue lamarck 75018 paris	01 42 52 52 52	75018	48.890031	2.338629
Terrasses et jardins	63 avenue de la grande armee  75116 paris	01 47 27 10 50	75116	48.876107	2.286603
Terreis real estate	25 rue marbeuf  75008 paris	01 82 00 95 00	75008	48.868942	2.303995
Terres et demeures d'exception	10 rue de la paix building heron 75002 paris	06 80 00 90 00	75002	48.868995	2.331141
Tgc immobilier	129 rue de turenne  75003 paris 3eme	01 42 17 40 20	75003	48.864156	2.364603
Themios	33 rue galilee  75016 paris 16ème	06 03 61 38 45	75016	48.869333	2.295123
Thibault chanel immobilier	30 place du marche saint honore  75001 paris 1er	01 44 82 54 84	75001	48.866724	2.332172
Thierry cottard	17 rue de babylone  75007 paris 7eme	01 53 30 09 09	75007	48.851641	2.322929
Tikili immobilier	56 avenue d'ivry  75013 paris 13ème	01 53 79 11 88	75013	48.824151	2.364391
Tikva immobilier	51 av de la republique  75011 paris 11ème	01 43 14 29 64	75011	48.864939	2.377007
Time immobilier	176 boulevard péreire 75017 paris	01 45 72 30 72	75017	48.88201	2.291298
Timm's international	87 boulevard raspail  75006 paris	01 44 39 74 35	75006	48.847609	2.328168
Tlf transactions	48 rue la bruyere  75009 paris 9ème	06 62 66 55 24	75009	48.879884	2.332403
Touchet immobilier	10b rue de la gare  78300 poissy	01 39 79 31 78	78300	48.932508	2.038326
Tout l'immobilier	180 avenue choisy  75013 paris	01 42 16 96 96	75013	48.829986	2.357243
Tradinvest	8 rue du general bertrand  75007 paris 7eme	01 48 74 63 64	75007	48.848245	2.312923
Tradition pierre	37 avenue de saint mandé 75012 paris	01 43 43 04 06	75012	48.84528	2.400859
Tragestim	10 rue de la chine  75020 paris 20ème	01 43 15 71 10	75020	48.866967	2.399497
Transac immobilier	centre commercial regional 315  94014 creteil	01 49 80 33 71	94000	48.7809	2.467673
Transaction d'hauteville	15 rue d'hauteville 75010 paris	01 47 70 43 51	75010	48.872436	2.350065
Transactions europeennes	39 boulevard des capucines  75002 paris	01 42 97 54 62	75002	48.869945	2.32914
Transagest	50b route d'orleans  91310 montlhery	01 83 64 74 09	91310	48.622069	2.261318
Transalion	40 rue des blancs manteaux  75004 paris 4ème	06 09 83 72 44 / 06 09 75 18 11	75004	48.859781	2.355006
Transopera transaction	5 rue oberkampf  75011 paris	01 43 38 11 11	75011	48.862945	2.367915
Trema immobilier	35 rue bezout  75014 paris	09 81 79 87 99	75014	48.828803	2.329461
Trigone immobilier	56 boulevard de reuilly  75012 paris 12ème	01 40 19 90 26	75012	48.839393	2.397464
Trilogie immobiliere	2 rue mertens  92270 bois-colombes	01 47 85 79 51 / 06 85 29 26 46	92270	48.913963	2.273502
Trode et cie sa	17 rue de l'eglise  92210 st cloud	01 46 02 95 45	92210	48.842984	2.219351
Troisieme art immobilier	106 boulevard sebastopol  75003 paris 3ème	01 42 77 10 15	75003	48.868274	2.353891
Ufp immobilier	10b rue des batignolles  75017 paris	01 44 69 27 00	75017	48.883681	2.323131
Ufp immobilier	12 rue brochant  75017 paris 17ème	01 42 29 69 51	75017	48.888594	2.317703
Un appart en ville	188 avenue de versailles  75016 paris 16ème	01 45 30 11 06	75016	48.839454	2.261716
Un appartement a paris	41 rue de bourgogne  75007 paris	01 44 18 06 00	75007	48.857104	2.317427
Un toit et vous	35 rue montcalm  75018 paris 18ème	01 44 69 01 25	75018	48.893587	2.338536
Up'immo	47 rue leon frot  75011 paris	01 43 79 02 77	75011	48.855774	2.386313
Upside town	111 avenue victor hugo  75116 paris	01 84 19 13 66	75116	48.868516	2.282913
Urban paris transaction	42 bis bd richard lenoir  75011 paris	01 55 28 98 00	75011	48.857936	2.371859
V.a. transactions	9 rue du debarcadere  75017 paris	06 14 46 23 72	75017	48.877889	2.286456
V.immo.pidf	114b rue michel ange  75016 paris 16ème	01 46 05 36 35	75016	48.839001	2.257432
Vadehome	66 rue de miromesnil  75008 paris 8ème	06 11 52 70 75	75008	48.876216	2.315805
Val d'oise immobilier catherine marmet	104 rue paris  95150 taverny	01 39 60 67 67	95150	49.024171	2.230818
Valetin immobilier	77 rue de bagnolet  75020 paris 20ème	09 82 23 00 40	75020	48.858159	2.400203
Valmo immobilier	30 rue ernest renan  75015 paris	06 59 53 23 30	75015	48.842576	2.310294
Valmont immobilier	9 rue quentin bauchart  75008 paris 8ème	09 81 90 42 67	75008	48.869245	2.299821
Valoptim	18 rue de tilsitt  75017 paris 17ème	01 80 27 50 00	75017	48.875305	2.295449
Valorim commercialisation	34 avenue de messine  75008 paris	01 40 08 00 04	75008	48.877351	2.311284
Valstreet	18 rue du val de grace  75005 paris 5eme	01 43 26 44 08	75005	48.841597	2.338485
Vaneau mozart	70 avenue mozart  75016 paris 16eme	01 56 75 20 20	75016	48.853294	2.268471
Vaneau odeon	8 rue de l'odeon  75006 paris 6eme	01 53 10 15 15	75006	48.851187	2.338604
Vanim	59 avenue victor hugo  75116 paris 16ème	06 07 24 24 89	75116	48.870865	2.288454
Vecteur et vente	10 rue de beaujolais  75001 paris 1er	01 84 17 00 55	75001	48.866105	2.338839
Vercken investissements	7 impasse marie blanche  75018 paris 18ème	06 19 73 34 90	75018	48.885762	2.332656
Verneuil immobilier (sarl)	52 rue verneuil  75007 paris	01 42 96 10 88	75007	48.858551	2.32743
Versigny immobilier	20 rue sainte isaure 75018 paris	01 42 23 05 70	75018	48.894372	2.344489
Vfm- eiffel immobilier	8 rue du colonel moll  75017 paris 17ème	01 45 74 63 47	75017	48.87736	2.290618
Via conseil	218 avenue de versailles 75016 paris	01 46 51 70 00	75016	48.838615	2.259009
Viager union fonciere	1 place massena  06000 nice	04 93 88 82 22	6300	43.697445	7.269634
Victoire immobilier	78 av raymond poincare 75016 paris 16ème  75015 paris 15ème	06 22 30 27 03	75016	48.869086	2.285644
Victor bagues immobilier	4 rue antoine roucher  75016 paris 16ème	01 45 25 05 86	75016	48.847033	2.271625
Victor hugo immobilier	134 avenue victor hugo  75116 paris	01 47 04 01 00	75116	48.867453	2.279812
Vielmon immobilier	22 rue du vieil abreuvoir 78100 st germain en laye	01 30 61 23 23	78300	48.896111	2.094819
Vilageo.com	3 rue de la resistance  94320 thiais	01 46 87 64 36	94320	48.759073	2.387399
Villa du parc	4 rue botzaris  75019 paris	01 42 01 70 70	75019	48.875912	2.381725
Village bleu	41 rue gallieni  92600 asnieres	01 47 90 38 38	92600	48.909293	2.286399
Village montorgueil	53 rue greneta  75002 paris 2ème	01 40 13 97 46	75002	48.865424	2.348078
Villain freres immobilier	22 avenue parmentier  75011 paris 11ème	01 43 43 40 04	75011	48.860243	2.378911
Villaret immobilier	12 r theophile roussel  75012 paris	01 53 44 74 74	75012	48.850355	2.376154
Villaret immobilier	97 rue vieille du temple  75003 paris	01 42 78 17 20	75003	48.860269	2.361216
Villette immobilier	152 ave de flandre  75019 paris	01 40 37 22 22	75019	48.894076	2.381564
Vilogia	34 rue de paradis  75468 paris cedex 10	0811 88 18 81	75010	48.875304	2.351281
Vincent immobilier	19 rue vaneau  75007 paris 7ème	06 98 82 02 21	75007	48.853352	2.319421
Vip transactions	37 rue rennequin  75017 paris	06 86 16 19 26	75017	48.882186	2.297286
Virginia gestion	110 rue de paris  94220 charenton le pont	01 43 68 60 34	94220	48.825176	2.408301
Virginia immobilier	86 rue de charonne 75011 paris 11ème	01 43 72 72 55	75011	48.853725	2.381435
Virginia immobilier	106 rue de fontenay  94300 vincennes	01 77 85 71 91	94300	48.848228	2.438528
Visimo	123 rue de rennes  75006 paris 6ème	06 71 78 74 19	75006	48.847373	2.327441
Visit system	105 rue de l'abbé groult  75015 paris 15ème	01 80 93 06 18	75015	48.837423	2.29987
Visitutile - immo	5 bis rue de musset  75016 paris 16ème	01 46 47 57 17	75016	48.841685	2.26515
Vivre à paris	236 rue saint martin  75003 paris	01 44 54 97 97	75003	48.864385	2.353178
Vk immo	155 avenue du général leclerc  94700 maisons alfort	01 49 77 10 33	94700	48.808729	2.435701
Voltaire immobilier	202 boulevard voltaire  75011 paris 11ème	01 40 09 54 60	75011	48.853714	2.386673
Volume 2	9 impasse mont louis  75011 paris 11eme	01 55 25 22 44	75011	48.857471	2.388525
Vouille immo	37 rue vouille  75015 paris 15ème	01 45 31 61 44	75015	48.834281	2.307049
Vpat immo	19 rue de l'orangerie  78000 versailles	01 39 02 05 63	78000	48.800377	2.122129
Waldimmo	117 av parmentier  75011 paris 11ème	06 69 43 02 09	75011	48.868463	2.372008
Walter & de maison	118 rue la boetie 75008 paris 8ème	09 54 53 80 76	75008	48.871345	2.307026
Warf	253 rue st honoré  75001 paris	01 44 55 01 21	75001	48.867185	2.32686
Welldone properties	12 rue littré 75006 paris 6ème	01 83 64 11 42	75006	48.845247	2.32398
Westown estate	88 avenue wagram  75017 paris 17ème	06 20 10 65 65	75017	48.882721	2.30177
Wmcp invest	18 rue cler  75007 paris	01 47 05 30 05	75007	48.858083	2.305646
Xavier de cointet et associes	1 avenue franklin delano roosevelt  75008 paris	01 56 69 17 77	75008	48.865305	2.31004
Xlc immo	39 rue notre dame de lorette  75009 paris 9ème	06 89 22 08 33	75009	48.87933	2.33632
Xv immobilier	175 rue de la convention  75015 paris	01 42 50 65 65	75015	48.838066	2.294819
Yar immobilier	30 rue lauriston  75116 paris	01 47 04 57 01	75116	48.870761	2.291427
Your sweet home	55 boulevard pereire   75017 paris 17ème	01 53 81 43 03	75017	48.887424	2.307326
Zen real estate	51 rue francois 1er  75008 paris 8eme	01 53 76 29 26	75008	48.869526	2.302112
Zenatti immobilier	27 rue clauzel  75009 paris	01 42 85 05 06	75009	48.879277	2.337386
Zenatti immobilier	76 rue de rochechouart  75009 paris 9eme	01 44 53 17 00	75009	48.882086	2.346725
Zenatti immobilier	27 rue damremont  75018 paris 18ème	01 56 55 54 70	75018	48.889071	2.333309
